zip,primary_city,state,latitude,longitude
79027,Dimmitt,TX,34.54,-102.31
79029,Dumas,TX,35.86,-101.96
79031,Earth,TX,34.23,-102.4
79034,Follett,TX,36.43,-100.14
79035,Friona,TX,34.63,-102.72
79036,Fritch,TX,35.64,-101.59
79039,Groom,TX,35.2,-101.1
79040,Gruver,TX,36.25,-101.41
79041,Hale Center,TX,34.06,-101.84
79042,Happy,TX,34.74,-101.85
79043,Hart,TX,34.38,-102.11
79044,Hartley,TX,35.88,-102.39
79045,Hereford,TX,34.82,-102.39
79046,Higgins,TX,36.12,-100.02
79052,Kress,TX,34.36,-101.74
79056,Lipscomb,TX,36.23,-100.27
79057,Mclean,TX,35.23,-100.6
79058,Masterson,TX,35.63,-101.96
79059,Miami,TX,35.69,-100.64
79061,Mobeetie,TX,35.53,-100.44
79062,Morse,TX,36.06,-101.47
79063,Nazareth,TX,34.54,-102.1
79064,Olton,TX,34.17,-102.13
79065,Pampa,TX,35.54,-100.96
79068,Panhandle,TX,35.34,-101.38
79070,Perryton,TX,36.39,-100.8
79072,Plainview,TX,34.19,-101.72
79079,Shamrock,TX,35.21,-100.24
79080,Skellytown,TX,35.57,-101.17
79081,Spearman,TX,36.19,-101.19
79082,Springlake,TX,34.23,-102.3
79083,Stinnett,TX,35.82,-101.44
79084,Stratford,TX,36.33,-102.07
79085,Summerfield,TX,34.74,-102.51
79086,Sunray,TX,36.01,-101.82
79087,Texline,TX,36.37,-103.01
79088,Tulia,TX,34.53,-101.77
79092,Vega,TX,35.24,-102.42
79094,Wayside,TX,34.79,-101.54
79095,Wellington,TX,34.85,-100.21
79096,Wheeler,TX,35.44,-100.27
79097,White Deer,TX,35.43,-101.17
79098,Wildorado,TX,35.21,-102.24
79101,Amarillo,TX,35.2,-101.81
79102,Amarillo,TX,35.2,-101.81
79103,Amarillo,TX,35.2,-101.81
79104,Amarillo,TX,35.2,-101.81
79106,Amarillo,TX,35.2,-101.81
79107,Amarillo,TX,35.2,-101.81
79108,Amarillo,TX,35.2,-101.81
79109,Amarillo,TX,35.2,-101.81
79110,Amarillo,TX,35.2,-101.81
79111,Amarillo,TX,35.2,-101.81
79118,Amarillo,TX,35.2,-101.81
79119,Amarillo,TX,35.2,-101.81
79121,Amarillo,TX,35.2,-101.81
79124,Amarillo,TX,35.2,-101.81
79201,Childress,TX,34.42,-100.24
79220,Afton,TX,33.76,-100.81
79223,Cee Vee,TX,34.22,-100.44
79225,Chillicothe,TX,34.25,-99.51
79226,Clarendon,TX,34.93,-100.89
79227,Crowell,TX,33.98,-99.72
79229,Dickens,TX,33.62,-100.83
79230,Dodson,TX,34.76,-100.02
79234,Flomot,TX,34.22,-100.98
79235,Floydada,TX,33.98,-101.33
79237,Hedley,TX,34.86,-100.65
79239,Lakeview,TX,34.67,-100.69
79240,Lelia Lake,TX,34.9,-100.77
79241,Lockney,TX,34.12,-101.44
79243,Mcadoo,TX,33.77,-100.96
79244,Matador,TX,34.01,-100.82
79245,Memphis,TX,34.72,-100.54
79247,Odell,TX,34.35,-99.42
79248,Paducah,TX,34.01,-100.3
79250,Petersburg,TX,33.87,-101.59
79251,Quail,TX,34.9,-100.4
79252,Quanah,TX,34.29,-99.74
79255,Quitaque,TX,34.36,-101.05
79256,Roaring Springs,TX,33.89,-100.85
79257,Silverton,TX,34.47,-101.3
79259,Tell,TX,34.38,-100.39
79261,Turkey,TX,34.39,-100.89
79311,Abernathy,TX,33.83,-101.84
79312,Amherst,TX,34.01,-102.41
79313,Anton,TX,33.81,-102.16
79316,Brownfield,TX,33.17,-102.27
79320,Bula,TX,33.86,-102.67
79322,Crosbyton,TX,33.64,-101.23
79323,Denver City,TX,32.96,-102.83
79324,Enochs,TX,33.87,-102.75
79325,Farwell,TX,34.39,-102.89
79326,Fieldton,TX,34.03,-102.22
79329,Idalou,TX,33.66,-101.68
79330,Justiceburg,TX,33.04,-101.2
79331,Lamesa,TX,32.73,-101.95
79336,Levelland,TX,33.57,-102.36
79339,Littlefield,TX,33.91,-102.33
79342,Loop,TX,32.92,-102.42
79343,Lorenzo,TX,33.67,-101.53
79344,Maple,TX,33.84,-102.89
79345,Meadow,TX,33.33,-102.2
79346,Morton,TX,33.72,-102.75
79347,Muleshoe,TX,34.22,-102.72
79351,Odonnell,TX,33,-101.82
79353,Pep,TX,33.81,-102.56
79355,Plains,TX,33.19,-102.82
79356,Post,TX,33.19,-101.38
79357,Ralls,TX,33.67,-101.38
79358,Ropesville,TX,33.41,-102.15
79359,Seagraves,TX,32.94,-102.56
79360,Seminole,TX,32.71,-102.65
79363,Shallowater,TX,33.69,-101.99
79364,Slaton,TX,33.43,-101.64
79366,Ransom Canyon,TX,33.52,-101.68
79370,Spur,TX,33.47,-100.85
79371,Sudan,TX,34.06,-102.52
79373,Tahoka,TX,33.16,-101.79
79376,Tokio,TX,33.18,-102.57
79377,Welch,TX,32.93,-102.13
79381,Wilson,TX,33.31,-101.72
79382,Wolfforth,TX,33.5,-102.01
79401,Lubbock,TX,33.57,-101.87
79402,Lubbock,TX,33.57,-101.87
79403,Lubbock,TX,33.57,-101.87
79404,Lubbock,TX,33.57,-101.87
79405,Lubbock,TX,33.57,-101.84
79406,Lubbock,TX,33.57,-101.87
79407,Lubbock,TX,33.57,-101.87
79409,Lubbock,TX,33.57,-101.87
79410,Lubbock,TX,33.57,-101.87
79411,Lubbock,TX,33.57,-101.87
79412,Lubbock,TX,33.57,-101.87
79413,Lubbock,TX,33.57,-101.87
79414,Lubbock,TX,33.57,-101.87
79415,Lubbock,TX,33.57,-101.87
79416,Lubbock,TX,33.57,-101.87
79423,Lubbock,TX,33.57,-101.87
79424,Lubbock,TX,33.57,-101.87
79501,Anson,TX,32.75,-99.89
79502,Aspermont,TX,33.13,-100.22
79503,Avoca,TX,32.86,-99.71
79504,Baird,TX,32.39,-99.39
79505,Benjamin,TX,33.58,-99.79
79506,Blackwell,TX,32.08,-100.31
79508,Buffalo Gap,TX,32.28,-99.83
79510,Clyde,TX,32.4,-99.49
79511,Coahoma,TX,32.29,-101.3
79512,Colorado City,TX,32.39,-100.85
79517,Fluvanna,TX,32.89,-101.15
79518,Girard,TX,33.36,-100.66
79519,Goldsboro,TX,32.06,-99.68
79520,Hamlin,TX,32.88,-100.12
79521,Haskell,TX,33.15,-99.73
79525,Hawley,TX,32.6,-99.81
79526,Hermleigh,TX,32.64,-100.76
79527,Ira,TX,32.58,-101
79528,Jayton,TX,33.25,-100.57
79529,Knox City,TX,33.41,-99.81
79530,Lawn,TX,32.13,-99.75
79532,Loraine,TX,32.4,-100.71
79533,Lueders,TX,32.79,-99.62
79534,Mc Caulley,TX,32.79,-100.22
79535,Maryneal,TX,32.23,-100.45
79536,Merkel,TX,32.46,-100.01
79537,Nolan,TX,32.27,-100.24
79538,Novice,TX,31.98,-99.62
79539,O Brien,TX,33.38,-99.84
79540,Old Glory,TX,33.12,-100.05
79541,Ovalo,TX,32.17,-99.8
79543,Roby,TX,32.74,-100.37
79544,Rochester,TX,33.31,-99.85
79545,Roscoe,TX,32.44,-100.54
79546,Rotan,TX,32.85,-100.46
79547,Rule,TX,33.18,-99.89
79548,Rule,TX,33.18,-99.89
79549,Snyder,TX,32.71,-100.91
79553,Stamford,TX,33.02,-99.64
79556,Sweetwater,TX,32.46,-100.4
79560,Sylvester,TX,32.72,-100.25
79561,Trent,TX,32.48,-100.12
79562,Tuscola,TX,32.21,-99.79
79563,Tye,TX,32.45,-99.86
79565,Westbrook,TX,32.35,-101.01
79566,Wingate,TX,32.04,-100.11
79567,Winters,TX,31.96,-99.93
79601,Abilene,TX,32.45,-99.73
79602,Abilene,TX,32.45,-99.73
79603,Abilene,TX,32.45,-99.73
79605,Abilene,TX,32.45,-99.73
79606,Abilene,TX,32.45,-99.73
79607,Dyess Afb,TX,32.42,-99.86
79701,Midland,TX,32.02,-102.1
79703,Midland,TX,32.02,-102.1
79705,Midland,TX,32.02,-102.1
79706,Midland,TX,32.02,-102.1
79707,Midland,TX,32.02,-102.1
79713,Ackerly,TX,32.52,-101.71
79714,Andrews,TX,32.32,-102.54
79718,Balmorhea,TX,30.98,-103.74
79720,Big Spring,TX,32.24,-101.47
79731,Crane,TX,31.39,-102.35
79734,Fort Davis,TX,30.59,-103.9
79735,Fort Stockton,TX,30.89,-102.88
79738,Gail,TX,32.77,-101.45
79739,Garden City,TX,31.87,-101.48
79740,Girvin,TX,31.07,-102.39
79741,Goldsmith,TX,31.98,-102.61
79745,Kermit,TX,31.85,-103.09
79748,Knott,TX,32.4,-101.64
79749,Lenorah,TX,32.31,-101.88
79752,Mc Camey,TX,31.13,-102.21
79755,Midkiff,TX,31.63,-101.83
79756,Monahans,TX,31.63,-103.06
79758,Gardendale,TX,32.02,-102.36
79761,Odessa,TX,31.85,-102.36
79762,Odessa,TX,31.85,-102.36
79763,Odessa,TX,31.85,-102.36
79764,Odessa,TX,31.85,-102.36
79765,Odessa,TX,31.85,-102.36
79766,Odessa,TX,31.85,-102.36
79772,Pecos,TX,31.4,-103.5
79782,Stanton,TX,32.12,-101.79
79783,Tarzan,TX,32.31,-101.98
79821,Anthony,TX,31.99,-106.59
79830,Alpine,TX,30.36,-103.66
79835,Canutillo,TX,31.91,-106.59
79836,Clint,TX,31.59,-106.22
79839,Fort Hancock,TX,31.51,-105.71
79843,Marfa,TX,30.31,-104.02
79845,Presidio,TX,29.56,-104.36
79847,Salt Flat,TX,31.74,-105.08
79849,San Elizario,TX,31.57,-106.26
79852,Terlingua,TX,29.32,-103.62
79854,Valentine,TX,30.58,-104.49
79901,El Paso,TX,31.84,-106.43
79902,El Paso,TX,31.84,-106.43
79903,El Paso,TX,31.84,-106.43
79904,El Paso,TX,31.84,-106.43
79905,El Paso,TX,31.84,-106.43
79906,El Paso,TX,31.84,-106.43
79907,El Paso,TX,31.84,-106.43
79908,El Paso,TX,31.84,-106.43
79910,El Paso,TX,31.84,-106.43
79911,El Paso,TX,31.84,-106.43
79912,El Paso,TX,31.84,-106.43
79915,El Paso,TX,31.84,-106.43
79916,Fort Bliss,TX,31.84,-106.43
79918,Fort Bliss,TX,31.84,-106.43
79922,El Paso,TX,31.84,-106.43
79924,El Paso,TX,31.84,-106.43
79925,El Paso,TX,31.84,-106.43
79927,El Paso,TX,31.84,-106.43
79928,El Paso,TX,31.65,-106.15
79930,El Paso,TX,31.84,-106.43
79932,El Paso,TX,31.84,-106.43
79934,El Paso,TX,31.84,-106.43
79935,El Paso,TX,31.84,-106.43
79936,El Paso,TX,31.84,-106.43
79938,El Paso,TX,31.84,-106.43
80002,Arvada,CO,39.82,-105.1
80003,Arvada,CO,39.82,-105.1
80004,Arvada,CO,39.82,-105.1
80005,Arvada,CO,39.82,-105.1
80007,Arvada,CO,39.82,-105.1
80010,Aurora,CO,39.69,-104.81
80011,Aurora,CO,39.69,-104.81
80012,Aurora,CO,39.69,-104.81
80013,Aurora,CO,39.69,-104.81
80014,Aurora,CO,39.69,-104.81
80015,Aurora,CO,39.69,-104.81
80016,Aurora,CO,39.69,-104.81
80017,Aurora,CO,39.69,-104.81
80018,Aurora,CO,39.69,-104.81
80019,Aurora,CO,39.69,-104.81
80020,Broomfield,CO,39.94,-105.06
80021,Broomfield,CO,39.94,-105.06
80022,Commerce City,CO,39.86,-104.86
80023,Broomfield,CO,39.96,-105.02
80026,Lafayette,CO,39.99,-105.09
80027,Louisville,CO,39.96,-105.14
80030,Westminster,CO,39.88,-105.05
80031,Westminster,CO,39.88,-105.05
80033,Wheat Ridge,CO,39.77,-105.09
80045,Aurora,CO,39.69,-104.81
80047,Aurora,CO,39.69,-104.81
80101,Agate,CO,39.47,-103.95
80102,Bennett,CO,39.75,-104.42
80103,Byers,CO,39.71,-104.22
80104,Castle Rock,CO,39.37,-104.85
80105,Deer Trail,CO,39.61,-104.04
80106,Elbert,CO,39.22,-104.53
80107,Elizabeth,CO,39.36,-104.6
80108,Castle Rock,CO,39.37,-104.85
80109,Castle Rock,CO,39.36,-104.9
80110,Englewood,CO,39.64,-104.99
80111,Englewood,CO,39.64,-104.99
80112,Englewood,CO,39.64,-104.99
80113,Englewood,CO,39.64,-104.96
80116,Franktown,CO,39.38,-104.75
80117,Kiowa,CO,39.34,-104.46
80118,Larkspur,CO,39.18,-104.89
80120,Littleton,CO,39.59,-105.01
80121,Littleton,CO,39.59,-105.01
80122,Littleton,CO,39.59,-105.01
80123,Littleton,CO,39.59,-105.01
80124,Lone Tree,CO,39.59,-105.01
80125,Littleton,CO,39.59,-105.01
80126,Littleton,CO,39.59,-105.01
80127,Littleton,CO,39.57,-105.14
80128,Littleton,CO,39.59,-105.01
80129,Littleton,CO,39.54,-105
80130,Littleton,CO,39.54,-104.93
80132,Monument,CO,39.07,-104.85
80133,Palmer Lake,CO,39.11,-104.9
80134,Parker,CO,39.5,-104.76
80135,Sedalia,CO,39.43,-104.97
80136,Strasburg,CO,39.73,-104.3
80137,Watkins,CO,39.75,-104.6
80138,Parker,CO,39.5,-104.76
80202,Denver,CO,39.76,-104.87
80203,Denver,CO,39.76,-104.87
80204,Denver,CO,39.76,-104.87
80205,Denver,CO,39.76,-104.87
80206,Denver,CO,39.76,-104.87
80207,Denver,CO,39.76,-104.87
80209,Denver,CO,39.76,-104.87
80210,Denver,CO,39.76,-104.87
80211,Denver,CO,39.76,-104.87
80212,Denver,CO,39.76,-104.87
80214,Denver,CO,39.76,-104.87
80215,Denver,CO,39.76,-104.87
80216,Denver,CO,39.76,-104.87
80218,Denver,CO,39.76,-104.87
80219,Denver,CO,39.76,-104.87
80220,Denver,CO,39.76,-104.87
80221,Denver,CO,39.76,-104.87
80222,Denver,CO,39.76,-104.87
80223,Denver,CO,39.76,-104.87
80224,Denver,CO,39.76,-104.87
80225,Denver,CO,39.76,-104.87
80226,Denver,CO,39.76,-104.87
80227,Denver,CO,39.76,-104.87
80228,Denver,CO,39.76,-104.87
80229,Denver,CO,39.76,-104.87
80230,Denver,CO,39.76,-104.87
80231,Denver,CO,39.76,-104.87
80232,Denver,CO,39.76,-104.87
80233,Denver,CO,39.76,-104.87
80234,Denver,CO,39.76,-104.87
80235,Denver,CO,39.76,-104.87
80236,Denver,CO,39.76,-104.87
80237,Denver,CO,39.76,-104.87
80238,Denver,CO,39.76,-104.87
80239,Denver,CO,39.76,-104.87
80241,Thornton,CO,39.76,-104.87
80246,Denver,CO,39.76,-104.87
80247,Denver,CO,39.69,-104.88
80249,Denver,CO,39.76,-104.87
80260,Denver,CO,39.76,-104.87
80264,Denver,CO,39.76,-104.87
80265,Denver,CO,39.76,-104.87
80266,Denver,CO,39.76,-104.87
80290,Denver,CO,39.76,-104.87
80293,Denver,CO,39.76,-104.87
80294,Denver,CO,39.76,-104.87
80295,Denver,CO,39.76,-104.87
80299,Denver,CO,39.76,-104.87
80301,Boulder,CO,40.02,-105.25
80302,Boulder,CO,40.02,-105.25
80303,Boulder,CO,40.02,-105.25
80304,Boulder,CO,40.02,-105.25
80305,Boulder,CO,40.02,-105.25
80401,Golden,CO,39.73,-105.21
80403,Golden,CO,39.73,-105.21
80421,Bailey,CO,39.4,-105.47
80422,Black Hawk,CO,39.8,-105.49
80423,Bond,CO,39.87,-106.7
80424,Breckenridge,CO,39.5,-106.04
80428,Clark,CO,40.7,-106.92
80430,Coalmont,CO,40.57,-106.43
80433,Conifer,CO,39.52,-105.3
80435,Dillon,CO,39.62,-106.03
80439,Evergreen,CO,39.63,-105.34
80440,Fairplay,CO,39.22,-105.99
80446,Granby,CO,40.08,-105.93
80447,Grand Lake,CO,40.25,-105.82
80449,Hartsel,CO,39.02,-105.8
80452,Idaho Springs,CO,39.74,-105.51
80455,Jamestown,CO,40.11,-105.39
80456,Jefferson,CO,39.38,-105.8
80459,Kremmling,CO,40.05,-106.37
80461,Leadville,CO,39.24,-106.29
80463,Mc Coy,CO,39.92,-106.72
80465,Morrison,CO,39.65,-105.18
80466,Nederland,CO,39.96,-105.5
80467,Oak Creek,CO,40.27,-106.95
80468,Parshall,CO,40.05,-106.18
80470,Pine,CO,39.42,-105.33
80474,Rollinsville,CO,39.92,-105.5
80479,Toponas,CO,40.07,-106.8
80480,Walden,CO,40.73,-106.28
80481,Ward,CO,40.07,-105.51
80487,Steamboat Springs,CO,40.47,-106.82
80498,Silverthorne,CO,39.65,-106.08
80501,Longmont,CO,40.17,-105.11
80503,Longmont,CO,40.17,-105.11
80504,Longmont,CO,40.17,-105.11
80510,Allenspark,CO,40.2,-105.52
80512,Bellvue,CO,40.63,-105.17
80513,Berthoud,CO,40.3,-105.08
80514,Dacono,CO,40.07,-104.94
80515,Drake,CO,40.43,-105.33
80516,Erie,CO,40.02,-105.04
80517,Estes Park,CO,40.37,-105.52
80521,Fort Collins,CO,40.55,-105.06
80524,Fort Collins,CO,40.55,-105.06
80525,Fort Collins,CO,40.55,-105.06
80526,Fort Collins,CO,40.55,-105.06
80528,Fort Collins,CO,40.55,-105.06
80530,Frederick,CO,40.1,-104.94
80534,Johnstown,CO,40.33,-104.91
80535,Laporte,CO,40.62,-105.13
80536,Livermore,CO,40.75,-105.23
80537,Loveland,CO,40.41,-105.07
80538,Loveland,CO,40.41,-105.07
80540,Lyons,CO,40.22,-105.26
80542,Mead,CO,40.23,-104.98
80543,Milliken,CO,40.31,-104.85
80545,Red Feather Lakes,CO,40.8,-105.58
80549,Wellington,CO,40.7,-105
80550,Windsor,CO,40.48,-104.9
80601,Brighton,CO,39.95,-104.79
80602,Brighton,CO,39.95,-104.9
80603,Brighton,CO,39.97,-104.74
80610,Ault,CO,40.58,-104.73
80611,Briggsdale,CO,40.63,-104.32
80612,Carr,CO,40.9,-104.87
80615,Eaton,CO,40.52,-104.71
80620,Evans,CO,40.37,-104.69
80621,Fort Lupton,CO,40.08,-104.8
80622,Galeton,CO,40.52,-104.58
80624,Gill,CO,40.45,-104.53
80631,Greeley,CO,40.42,-104.74
80634,Greeley,CO,40.42,-104.74
80640,Henderson,CO,39.92,-104.87
80642,Hudson,CO,40.07,-104.64
80643,Keenesburg,CO,40.1,-104.51
80644,Kersey,CO,40.38,-104.56
80645,La Salle,CO,40.34,-104.7
80648,Nunn,CO,40.7,-104.78
80649,Orchard,CO,40.33,-104.12
80650,Pierce,CO,40.63,-104.75
80651,Platteville,CO,40.21,-104.82
80652,Roggen,CO,40.17,-104.37
80653,Weldona,CO,40.35,-103.97
80654,Wiggins,CO,40.23,-104.07
80701,Fort Morgan,CO,40.26,-103.79
80705,Log Lane Village,CO,40.27,-103.82
80720,Akron,CO,40.16,-103.21
80721,Amherst,CO,40.68,-102.17
80722,Atwood,CO,40.55,-103.27
80723,Brush,CO,40.25,-103.63
80726,Crook,CO,40.85,-102.8
80727,Eckley,CO,40.11,-102.48
80728,Fleming,CO,40.68,-102.84
80729,Grover,CO,40.86,-104.22
80731,Haxtun,CO,40.64,-102.62
80733,Hillrose,CO,40.32,-103.52
80734,Holyoke,CO,40.58,-102.3
80735,Idalia,CO,39.7,-102.3
80736,Iliff,CO,40.75,-103.06
80737,Julesburg,CO,40.98,-102.26
80740,Lindon,CO,39.73,-103.4
80741,Merino,CO,40.48,-103.35
80742,New Raymer,CO,40.62,-103.78
80743,Otis,CO,40.14,-102.96
80744,Ovid,CO,40.95,-102.38
80745,Padroni,CO,40.77,-103.17
80747,Peetz,CO,40.96,-103.11
80749,Sedgwick,CO,40.93,-102.52
80750,Snyder,CO,40.32,-103.58
80751,Sterling,CO,40.62,-103.19
80754,Stoneham,CO,40.63,-103.65
80755,Vernon,CO,39.93,-102.28
80757,Woodrow,CO,39.98,-103.58
80758,Wray,CO,40.07,-102.22
80759,Yuma,CO,40.12,-102.72
80801,Anton,CO,39.75,-103.22
80802,Arapahoe,CO,38.85,-102.17
80804,Arriba,CO,39.28,-103.27
80805,Bethune,CO,39.3,-102.42
80807,Burlington,CO,39.3,-102.27
80808,Calhan,CO,39.03,-104.29
80809,Cascade,CO,38.9,-104.97
80810,Cheyenne Wells,CO,38.81,-102.35
80812,Cope,CO,39.67,-102.85
80813,Cripple Creek,CO,38.74,-105.17
80814,Divide,CO,38.94,-105.16
80815,Flagler,CO,39.29,-103.06
80816,Florissant,CO,38.95,-105.29
80817,Fountain,CO,38.66,-104.69
80818,Genoa,CO,39.27,-103.49
80820,Guffey,CO,38.75,-105.53
80821,Hugo,CO,39.13,-103.46
80822,Joes,CO,39.65,-102.68
80823,Karval,CO,38.73,-103.53
80824,Kirk,CO,39.62,-102.6
80825,Kit Carson,CO,38.76,-102.79
80827,Lake George,CO,38.98,-105.37
80828,Limon,CO,39.26,-103.68
80829,Manitou Springs,CO,38.85,-104.91
80830,Matheson,CO,39.17,-103.98
80831,Peyton,CO,39.03,-104.48
80832,Ramah,CO,39.12,-104.16
80833,Rush,CO,38.84,-104.08
80834,Seibert,CO,39.29,-102.86
80835,Simla,CO,39.14,-104.08
80836,Stratton,CO,39.3,-102.6
80840,U S A F Academy,CO,38.99,-104.85
80861,Vona,CO,39.3,-102.74
80863,Woodland Park,CO,38.99,-105.05
80864,Yoder,CO,38.84,-104.22
80902,Colorado Springs,CO,38.72,-104.8
80903,Colorado Springs,CO,38.86,-104.76
80904,Colorado Springs,CO,38.86,-104.76
80905,Colorado Springs,CO,38.86,-104.76
80906,Colorado Springs,CO,38.86,-104.76
80907,Colorado Springs,CO,38.86,-104.76
80908,Colorado Springs,CO,38.86,-104.76
80909,Colorado Springs,CO,38.86,-104.76
80910,Colorado Springs,CO,38.86,-104.76
80911,Colorado Springs,CO,38.86,-104.76
80912,Colorado Springs,CO,38.86,-104.76
80913,Colorado Springs,CO,38.86,-104.76
80915,Colorado Springs,CO,38.86,-104.76
80916,Colorado Springs,CO,38.86,-104.76
80917,Colorado Springs,CO,38.86,-104.76
80918,Colorado Springs,CO,38.86,-104.76
80919,Colorado Springs,CO,38.86,-104.76
80920,Colorado Springs,CO,38.86,-104.76
80921,Colorado Springs,CO,38.86,-104.76
80922,Colorado Springs,CO,38.86,-104.76
80923,Colorado Springs,CO,38.86,-104.76
80924,Colorado Springs,CO,38.94,-104.7
80925,Colorado Springs,CO,38.86,-104.76
80926,Colorado Springs,CO,38.86,-104.76
80927,Colorado Springs,CO,38.92,-104.67
80928,Colorado Springs,CO,38.86,-104.76
80929,Colorado Springs,CO,38.86,-104.76
80930,Colorado Springs,CO,38.86,-104.76
80938,Colorado Springs,CO,38.9,-104.66
80939,Colorado Springs,CO,38.88,-104.67
80951,Colorado Springs,CO,38.86,-104.76
81001,Pueblo,CO,38.27,-104.62
81003,Pueblo,CO,38.27,-104.62
81004,Pueblo,CO,38.27,-104.62
81005,Pueblo,CO,38.27,-104.62
81006,Pueblo,CO,38.27,-104.62
81007,Pueblo,CO,38.27,-104.62
81008,Pueblo,CO,38.27,-104.62
81020,Aguilar,CO,37.4,-104.65
81021,Arlington,CO,38.33,-103.33
81022,Avondale,CO,38.23,-104.35
81023,Beulah,CO,38.08,-104.98
81025,Boone,CO,38.25,-104.25
81027,Branson,CO,37.01,-103.87
81029,Campo,CO,37.1,-102.57
81036,Eads,CO,38.48,-102.77
81039,Fowler,CO,38.12,-104.02
81040,Gardner,CO,37.78,-105.17
81041,Granada,CO,38.06,-102.31
81044,Hasty,CO,38.12,-102.97
81045,Haswell,CO,38.45,-103.16
81047,Holly,CO,38.05,-102.12
81049,Kim,CO,37.24,-103.35
81050,La Junta,CO,37.98,-103.54
81052,Lamar,CO,38.08,-102.61
81054,Las Animas,CO,38.06,-103.22
81055,La Veta,CO,37.51,-105
81057,Mc Clave,CO,38.19,-102.93
81058,Manzanola,CO,38.1,-103.86
81059,Model,CO,37.34,-104.27
81062,Olney Springs,CO,38.16,-103.94
81063,Ordway,CO,38.22,-103.75
81064,Pritchett,CO,37.37,-102.85
81067,Rocky Ford,CO,38.04,-103.72
81069,Rye,CO,37.92,-104.93
81071,Sheridan Lake,CO,38.46,-102.29
81073,Springfield,CO,37.4,-102.61
81075,Stonington,CO,37.29,-102.18
81076,Sugar City,CO,38.23,-103.66
81081,Trinchera,CO,37.05,-104.03
81082,Trinidad,CO,37.16,-104.5
81084,Two Buttes,CO,37.56,-102.39
81089,Walsenburg,CO,37.62,-104.77
81090,Walsh,CO,37.38,-102.28
81091,Weston,CO,37.13,-105.01
81092,Wiley,CO,38.15,-102.71
81101,Alamosa,CO,37.46,-105.87
81120,Antonito,CO,37.07,-106.01
81122,Bayfield,CO,37.23,-107.59
81123,Blanca,CO,37.43,-105.51
81125,Center,CO,37.75,-106.11
81127,Chimney Rock,CO,37.21,-107.34
81130,Creede,CO,37.85,-106.92
81132,Del Norte,CO,37.67,-106.35
81133,Fort Garland,CO,37.43,-105.43
81134,San Luis,CO,37,-105.53
81136,Hooper,CO,37.74,-105.87
81137,Ignacio,CO,37.11,-107.63
81140,La Jara,CO,37.27,-105.96
81143,Moffat,CO,38,-105.9
81144,Monte Vista,CO,37.57,-106.14
81146,Mosca,CO,37.65,-105.88
81147,Pagosa Springs,CO,37.24,-107.03
81149,Saguache,CO,38.08,-106.14
81151,Sanford,CO,37.25,-105.9
81152,San Luis,CO,37.2,-105.42
81154,South Fork,CO,37.67,-106.64
81155,Villa Grove,CO,38.25,-105.95
81201,Salida,CO,38.53,-106
81210,Almont,CO,38.67,-106.83
81211,Buena Vista,CO,38.83,-106.14
81212,Canon City,CO,38.44,-105.23
81220,Cimarron,CO,38.37,-107.5
81223,Cotopaxi,CO,38.37,-105.68
81224,Crested Butte,CO,38.87,-106.98
81226,Florence,CO,38.38,-105.11
81228,Granite,CO,39.05,-106.27
81230,Gunnison,CO,38.54,-106.92
81233,Howard,CO,38.45,-105.84
81235,Lake City,CO,38.07,-107.3
81236,Nathrop,CO,38.73,-106.08
81237,Ohio City,CO,38.54,-106.58
81239,Parlin,CO,38.5,-106.72
81240,Penrose,CO,38.43,-105.01
81243,Powderhorn,CO,38.27,-107.08
81247,Gunnison,CO,38.54,-106.92
81251,Twin Lakes,CO,39.1,-106.47
81252,Westcliffe,CO,38.13,-105.46
81253,Wetmore,CO,38.23,-105.08
81301,Durango,CO,37.27,-107.88
81303,Durango,CO,37.14,-107.88
81320,Cahone,CO,37.65,-108.82
81321,Cortez,CO,37.35,-108.57
81323,Dolores,CO,37.47,-108.49
81324,Dove Creek,CO,37.76,-108.9
81325,Egnar,CO,37.92,-108.93
81326,Hesperus,CO,37.28,-108.03
81327,Lewis,CO,37.5,-108.67
81328,Mancos,CO,37.34,-108.29
81331,Pleasant View,CO,37.58,-108.76
81335,Yellow Jacket,CO,37.53,-108.72
81401,Montrose,CO,38.49,-107.87
81403,Montrose,CO,38.3,-107.9
81410,Austin,CO,38.78,-107.93
81411,Bedrock,CO,38.32,-108.88
81413,Cedaredge,CO,38.89,-107.92
81415,Crawford,CO,38.7,-107.6
81416,Delta,CO,38.74,-108.07
81418,Eckert,CO,38.84,-107.95
81419,Hotchkiss,CO,38.8,-107.71
81422,Naturita,CO,38.21,-108.56
81424,Nucla,CO,38.26,-108.55
81425,Olathe,CO,38.6,-107.98
81428,Paonia,CO,38.86,-107.59
81431,Redvale,CO,38.18,-108.42
81432,Ridgway,CO,38.15,-107.75
81434,Somerset,CO,38.92,-107.43
81435,Telluride,CO,37.94,-107.9
81501,Grand Junction,CO,39.08,-108.55
81503,Grand Junction,CO,39.08,-108.55
81504,Grand Junction,CO,39.08,-108.55
81505,Grand Junction,CO,39.08,-108.55
81506,Grand Junction,CO,39.08,-108.55
81507,Grand Junction,CO,38.99,-108.66
81520,Clifton,CO,39.07,-108.46
81521,Fruita,CO,39.15,-108.72
81522,Gateway,CO,38.68,-108.99
81523,Glade Park,CO,39,-108.73
81524,Loma,CO,39.2,-108.82
81525,Mack,CO,39.22,-108.87
81526,Palisade,CO,39.1,-108.35
81527,Whitewater,CO,38.98,-108.43
81601,Glenwood Springs,CO,39.54,-107.33
81610,Dinosaur,CO,40.24,-109
81611,Aspen,CO,39.19,-106.82
81621,Basalt,CO,39.36,-107.02
81623,Carbondale,CO,39.39,-107.21
81624,Collbran,CO,39.23,-107.95
81625,Craig,CO,40.52,-107.55
81630,De Beque,CO,39.33,-108.21
81632,Edwards,CO,39.65,-106.6
81633,Dinosaur,CO,40.24,-109
81635,Parachute,CO,39.44,-108.05
81637,Gypsum,CO,39.64,-106.94
81638,Hamilton,CO,40.37,-107.6
81639,Hayden,CO,40.48,-107.26
81640,Maybell,CO,40.52,-108.08
81641,Meeker,CO,40.05,-107.89
81642,Meredith,CO,39.27,-106.59
81643,Mesa,CO,39.17,-108.13
81647,New Castle,CO,39.58,-107.53
81648,Rangely,CO,40.08,-108.77
81650,Rifle,CO,39.53,-107.77
81652,Silt,CO,39.54,-107.65
81653,Slater,CO,40.99,-107.37
81654,Snowmass,CO,39.33,-106.98
81657,Vail,CO,39.64,-106.39
82001,Cheyenne,WY,41.14,-104.79
82005,Fe Warren Afb,WY,41.17,-104.86
82007,Cheyenne,WY,41.14,-104.79
82009,Cheyenne,WY,41.14,-104.79
82050,Albin,WY,41.41,-104.1
82051,Bosler,WY,41.58,-105.69
82052,Buford,WY,41.11,-105.3
82053,Burns,WY,41.19,-104.35
82054,Carpenter,WY,41.03,-104.34
82058,Garrett,WY,42.11,-105.6
82063,Jelm,WY,41.05,-106
82070,Laramie,WY,41.31,-105.58
82072,Laramie,WY,41.31,-105.58
82081,Meriden,WY,41.53,-104.27
82082,Pine Bluffs,WY,41.18,-104.06
82083,Rock River,WY,41.73,-105.97
82190,Yellowstone National Park,WY,44.57,-110.51
82201,Wheatland,WY,42.05,-104.95
82210,Chugwater,WY,41.75,-104.82
82212,Fort Laramie,WY,42.21,-104.51
82213,Glendo,WY,42.5,-105.02
82214,Guernsey,WY,42.26,-104.74
82215,Hartville,WY,42.32,-104.72
82217,Hawk Springs,WY,41.79,-104.27
82219,Jay Em,WY,42.47,-104.36
82221,Lagrange,WY,41.62,-104.34
82222,Lance Creek,WY,43.02,-104.64
82223,Lingle,WY,42.13,-104.34
82224,Lost Springs,WY,42.76,-104.92
82225,Lusk,WY,42.76,-104.45
82227,Manville,WY,42.77,-104.61
82229,Shawnee,WY,42.88,-105.03
82240,Torrington,WY,42.06,-104.18
82242,Van Tassell,WY,42.66,-104.09
82243,Veteran,WY,41.96,-104.35
82244,Yoder,WY,41.91,-104.29
82301,Rawlins,WY,41.78,-107.22
82310,Jeffrey City,WY,42.48,-107.84
82321,Baggs,WY,41.03,-107.65
82323,Dixon,WY,41.03,-107.53
82325,Encampment,WY,41.2,-106.79
82327,Hanna,WY,41.86,-106.55
82329,Medicine Bow,WY,41.89,-106.2
82331,Saratoga,WY,41.45,-106.81
82332,Savery,WY,41.08,-107.34
82334,Sinclair,WY,41.77,-107.11
82401,Worland,WY,44,-107.95
82410,Basin,WY,44.37,-108.04
82411,Burlington,WY,44.44,-108.43
82414,Cody,WY,44.51,-109.05
82421,Deaver,WY,44.88,-108.59
82426,Greybull,WY,44.49,-108.05
82428,Hyattville,WY,44.25,-107.6
82431,Lovell,WY,44.83,-108.39
82432,Manderson,WY,44.26,-107.96
82433,Meeteetse,WY,44.15,-108.87
82434,Otto,WY,44.4,-108.27
82435,Powell,WY,44.79,-108.73
82441,Shell,WY,44.53,-107.78
82442,Ten Sleep,WY,44.03,-107.44
82443,Thermopolis,WY,43.64,-108.21
82501,Riverton,WY,43.03,-108.41
82510,Arapahoe,WY,42.97,-108.47
82512,Crowheart,WY,43.31,-109.19
82513,Dubois,WY,43.53,-109.64
82514,Fort Washakie,WY,43,-108.92
82516,Kinnear,WY,43.15,-108.68
82520,Lander,WY,42.83,-108.72
82523,Pavillion,WY,43.24,-108.69
82601,Casper,WY,42.83,-106.32
82604,Casper,WY,42.83,-106.32
82609,Casper,WY,42.83,-106.32
82615,Shirley Basin,WY,42.35,-106.21
82620,Alcova,WY,42.55,-106.72
82630,Arminto,WY,43.18,-107.26
82633,Douglas,WY,42.75,-105.39
82636,Evansville,WY,42.87,-106.25
82637,Glenrock,WY,42.85,-105.85
82638,Hiland,WY,43.12,-107.35
82639,Kaycee,WY,43.7,-106.63
82642,Lysite,WY,43.25,-107.71
82643,Midwest,WY,43.41,-106.27
82646,Natrona,WY,43.03,-106.81
82649,Shoshoni,WY,43.23,-108.1
82701,Newcastle,WY,43.84,-104.21
82710,Aladdin,WY,44.63,-104.18
82711,Alva,WY,44.7,-104.45
82712,Beulah,WY,44.53,-104.08
82714,Devils Tower,WY,44.6,-104.73
82715,Four Corners,WY,44.08,-104.13
82716,Gillette,WY,44.28,-105.51
82718,Gillette,WY,44.28,-105.51
82720,Hulett,WY,44.68,-104.6
82721,Moorcroft,WY,44.26,-104.95
82723,Osage,WY,43.98,-104.42
82725,Recluse,WY,44.77,-105.7
82727,Rozet,WY,44.28,-105.2
82729,Sundance,WY,44.4,-104.37
82730,Upton,WY,44.1,-104.62
82731,Weston,WY,44.63,-105.33
82801,Sheridan,WY,44.79,-106.95
82831,Arvada,WY,44.76,-106.09
82832,Banner,WY,44.63,-106.8
82834,Buffalo,WY,44.34,-106.71
82835,Clearmont,WY,44.64,-106.38
82836,Dayton,WY,44.87,-107.25
82838,Parkman,WY,44.96,-107.31
82839,Ranchester,WY,44.9,-107.16
82842,Story,WY,44.6,-107.11
82844,Wolf,WY,44.7,-107.3
82901,Rock Springs,WY,41.59,-109.22
82922,Bondurant,WY,43.2,-110.41
82923,Boulder,WY,42.72,-109.63
82925,Cora,WY,42.94,-109.98
82930,Evanston,WY,41.25,-110.96
82932,Farson,WY,42.11,-109.44
82933,Fort Bridger,WY,41.32,-110.38
82935,Green River,WY,41.51,-109.46
82936,Lonetree,WY,41.03,-110.14
82937,Lyman,WY,41.32,-110.3
82941,Pinedale,WY,42.86,-109.86
83001,Jackson,WY,43.47,-110.76
83011,Kelly,WY,43.6,-110.32
83012,Moose,WY,43.65,-110.72
83013,Moran,WY,43.84,-110.5
83014,Wilson,WY,43.5,-110.87
83101,Kemmerer,WY,41.78,-110.55
83110,Afton,WY,42.72,-110.92
83111,Auburn,WY,42.79,-111
83112,Bedford,WY,42.9,-110.93
83113,Big Piney,WY,42.54,-110.11
83114,Cokeville,WY,42.08,-110.95
83115,Daniel,WY,42.87,-110.07
83118,Etna,WY,43.03,-111.01
83120,Freedom,WY,42.98,-111.04
83122,Grover,WY,42.69,-110.93
83123,La Barge,WY,42.26,-110.19
83126,Smoot,WY,42.62,-110.92
83127,Thayne,WY,42.91,-111
83128,Alpine,WY,43.16,-111.01
83201,Pocatello,ID,42.9,-112.39
83202,Pocatello,ID,42.97,-112.36
83204,Pocatello,ID,42.73,-112.52
83210,Aberdeen,ID,43.09,-112.84
83211,American Falls,ID,42.72,-112.99
83212,Arbon,ID,42.53,-112.55
83213,Arco,ID,43.65,-113.28
83214,Arimo,ID,42.54,-112.28
83215,Atomic City,ID,43.4,-112.83
83217,Bancroft,ID,42.79,-111.91
83220,Bern,ID,42.36,-111.37
83221,Blackfoot,ID,43.27,-112.56
83226,Challis,ID,44.65,-114.15
83227,Clayton,ID,44.16,-114.49
83228,Clifton,ID,42.18,-112.03
83229,Cobalt,ID,45.11,-114.43
83230,Conda,ID,42.73,-111.53
83232,Dayton,ID,42.14,-111.96
83234,Downey,ID,42.42,-112.1
83235,Ellis,ID,44.65,-113.99
83236,Firth,ID,43.22,-111.99
83237,Franklin,ID,42.03,-111.79
83238,Geneva,ID,42.36,-111.11
83241,Grace,ID,42.51,-111.74
83243,Holbrook,ID,42.2,-112.67
83244,Howe,ID,43.92,-113.1
83245,Inkom,ID,42.82,-112.23
83246,Lava Hot Springs,ID,42.61,-112.04
83250,Mccammon,ID,42.68,-112.2
83251,Mackay,ID,43.95,-113.84
83252,Malad City,ID,42.24,-112.3
83253,May,ID,44.48,-113.76
83254,Montpelier,ID,42.28,-111.33
83255,Moore,ID,43.68,-113.59
83262,Pingree,ID,43.12,-112.6
83263,Preston,ID,42.2,-111.74
83271,Rockland,ID,42.5,-112.85
83272,Saint Charles,ID,42.14,-111.47
83274,Shelley,ID,43.34,-112.07
83276,Soda Springs,ID,42.75,-111.53
83277,Springfield,ID,43.07,-112.67
83278,Stanley,ID,44.26,-114.97
83283,Thatcher,ID,42.35,-111.64
83285,Wayan,ID,42.9,-111.28
83286,Weston,ID,42.05,-112
83287,Fish Haven,ID,42.05,-111.44
83301,Twin Falls,ID,42.41,-114.59
83302,Rogerson,ID,42.11,-114.95
83311,Albion,ID,42.38,-113.6
83313,Bellevue,ID,43.39,-114.24
83314,Bliss,ID,43.01,-114.94
83316,Buhl,ID,42.6,-114.84
83318,Burley,ID,42.39,-113.78
83320,Carey,ID,43.29,-113.64
83321,Castleford,ID,42.4,-114.88
83322,Corral,ID,43.35,-114.98
83323,Declo,ID,42.46,-113.39
83324,Dietrich,ID,42.87,-114.24
83325,Eden,ID,42.57,-114.25
83327,Fairfield,ID,43.41,-114.78
83328,Filer,ID,42.56,-114.61
83330,Gooding,ID,43.01,-114.7
83332,Hagerman,ID,42.81,-114.91
83333,Hailey,ID,43.57,-114.21
83334,Hansen,ID,42.45,-114.26
83335,Hazelton,ID,42.58,-114.07
83336,Heyburn,ID,42.56,-113.81
83338,Jerome,ID,42.75,-114.36
83340,Ketchum,ID,43.77,-114.62
83341,Kimberly,ID,42.42,-114.38
83342,Malta,ID,42.22,-113.29
83344,Murtaugh,ID,42.41,-114.12
83346,Oakley,ID,42.18,-113.86
83347,Paul,ID,42.73,-113.89
83348,Picabo,ID,43.3,-114.07
83349,Richfield,ID,43.07,-114.17
83350,Rupert,ID,42.7,-113.62
83352,Shoshone,ID,43.11,-114.4
83355,Wendell,ID,42.74,-114.73
83401,Idaho Falls,ID,43.5,-111.89
83402,Idaho Falls,ID,43.52,-112.27
83404,Idaho Falls,ID,43.42,-112
83406,Idaho Falls,ID,43.43,-111.89
83414,Alta,WY,43.75,-111.04
83420,Ashton,ID,44.05,-111.32
83422,Driggs,ID,43.73,-111.22
83423,Dubois,ID,44.22,-112.37
83424,Felt,ID,43.88,-111.21
83425,Hamer,ID,43.98,-112.18
83427,Iona,ID,43.52,-111.92
83428,Irwin,ID,43.33,-111.17
83429,Island Park,ID,44.51,-111.35
83431,Lewisville,ID,43.68,-112.03
83434,Menan,ID,43.75,-112
83435,Monteview,ID,43.94,-112.56
83436,Newdale,ID,43.86,-111.42
83440,Rexburg,ID,43.78,-111.76
83442,Rigby,ID,43.69,-111.87
83443,Ririe,ID,43.49,-111.58
83444,Roberts,ID,43.73,-112.26
83445,Saint Anthony,ID,43.98,-111.79
83446,Spencer,ID,44.39,-112.22
83448,Sugar City,ID,43.85,-111.69
83449,Swan Valley,ID,43.4,-111.31
83450,Terreton,ID,43.86,-112.38
83451,Teton,ID,43.88,-111.64
83452,Tetonia,ID,43.85,-111.11
83455,Victor,ID,43.65,-111.22
83462,Carmen,ID,45.36,-113.82
83463,Gibbonsville,ID,45.6,-113.89
83464,Leadore,ID,44.49,-113.36
83466,North Fork,ID,45.49,-114.06
83467,Salmon,ID,45,-113.86
83469,Shoup,ID,45.22,-114.41
83501,Lewiston,ID,46.16,-116.92
83520,Ahsahka,ID,46.52,-116.3
83522,Cottonwood,ID,45.94,-116.52
83523,Craigmont,ID,46.23,-116.48
83524,Culdesac,ID,46.36,-116.67
83525,Elk City,ID,45.9,-115.22
83526,Ferdinand,ID,46.14,-116.41
83530,Grangeville,ID,45.9,-116.13
83533,Greencreek,ID,46.11,-116.26
83535,Juliaetta,ID,46.55,-116.74
83536,Kamiah,ID,46.25,-115.96
83537,Kendrick,ID,46.64,-116.54
83539,Kooskia,ID,46.08,-115.86
83540,Lapwai,ID,46.32,-116.78
83541,Lenore,ID,46.64,-116.32
83542,Lucile,ID,45.54,-116.24
83543,Nezperce,ID,46.28,-116.23
83544,Orofino,ID,46.48,-116.12
83545,Peck,ID,46.42,-116.46
83546,Pierce,ID,46.56,-115.81
83547,Pollock,ID,45.31,-116.32
83548,Reubens,ID,46.32,-116.51
83549,Riggins,ID,45.39,-116.47
83552,Stites,ID,46.08,-115.97
83553,Weippe,ID,46.38,-115.89
83554,White Bird,ID,45.69,-116.18
83555,Winchester,ID,46.21,-116.64
83602,Banks,ID,44.1,-116.13
83604,Bruneau,ID,42.57,-115.85
83605,Caldwell,ID,43.66,-116.63
83607,Caldwell,ID,43.68,-116.73
83610,Cambridge,ID,44.62,-116.7
83611,Cascade,ID,44.59,-115.57
83612,Council,ID,44.89,-116.54
83615,Donnelly,ID,44.67,-116
83616,Eagle,ID,43.79,-116.38
83617,Emmett,ID,43.98,-116.52
83619,Fruitland,ID,43.96,-116.91
83622,Garden Valley,ID,44.08,-115.85
83623,Glenns Ferry,ID,43.09,-115.37
83624,Grand View,ID,42.91,-116.12
83626,Greenleaf,ID,43.67,-116.83
83627,Hammett,ID,42.9,-115.56
83628,Homedale,ID,43.59,-116.94
83629,Horseshoe Bend,ID,43.92,-116.17
83631,Idaho City,ID,43.89,-115.76
83632,Indian Valley,ID,44.54,-116.41
83633,King Hill,ID,43.07,-115.19
83634,Kuna,ID,43.43,-116.32
83637,Lowman,ID,44.14,-115.32
83638,Mccall,ID,44.88,-115.77
83639,Marsing,ID,43.48,-116.84
83641,Melba,ID,43.36,-116.55
83642,Meridian,ID,43.59,-116.42
83643,Mesa,ID,44.63,-116.44
83644,Middleton,ID,43.74,-116.58
83645,Midvale,ID,44.38,-116.58
83646,Meridian,ID,43.65,-116.43
83647,Mountain Home,ID,43.36,-115.52
83648,Mountain Home A F B,ID,43.05,-115.86
83650,Murphy,ID,43.08,-116.52
83651,Nampa,ID,43.6,-116.61
83654,New Meadows,ID,45.06,-116.37
83655,New Plymouth,ID,43.94,-116.8
83657,Ola,ID,44.27,-116.31
83660,Parma,ID,43.8,-116.91
83661,Payette,ID,44.06,-116.7
83666,Placerville,ID,43.94,-115.99
83669,Star,ID,43.72,-116.49
83670,Sweet,ID,44.01,-116.33
83672,Weiser,ID,44.47,-116.91
83676,Wilder,ID,43.65,-116.93
83677,Yellow Pine,ID,45.02,-115.52
83686,Nampa,ID,43.49,-116.61
83687,Nampa,ID,43.6,-116.54
83702,Boise,ID,43.71,-116.18
83703,Boise,ID,43.71,-116.25
83704,Boise,ID,43.63,-116.28
83705,Boise,ID,43.56,-116.21
83706,Boise,ID,43.59,-116.19
83708,Boise,ID,43.61,-116.21
83709,Boise,ID,43.54,-116.29
83712,Boise,ID,43.6,-116.12
83713,Boise,ID,43.63,-116.32
83714,Garden City,ID,43.64,-116.26
83716,Boise,ID,43.54,-115.92
83801,Athol,ID,47.96,-116.68
83802,Avery,ID,47.17,-115.8
83803,Bayview,ID,47.97,-116.56
83804,Blanchard,ID,48.04,-116.96
83805,Bonners Ferry,ID,48.75,-116.51
83808,Calder,ID,47.31,-116.09
83809,Careywood,ID,48.06,-116.59
83810,Cataldo,ID,47.57,-116.47
83811,Clark Fork,ID,48.06,-116.17
83812,Clarkia,ID,47.02,-116.24
83813,Cocolalla,ID,48.1,-116.67
83814,Coeur D Alene,ID,47.59,-116.91
83815,Coeur D Alene,ID,47.72,-116.75
83821,Coolin,ID,48.6,-116.86
83822,Oldtown,ID,48.13,-116.99
83823,Deary,ID,46.79,-116.51
83824,Desmet,ID,47.12,-116.91
83830,Fernwood,ID,47.09,-116.46
83832,Genesee,ID,46.56,-116.88
83833,Harrison,ID,47.54,-116.7
83834,Harvard,ID,46.94,-116.69
83835,Hayden,ID,47.78,-116.71
83836,Hope,ID,48.26,-116.24
83837,Kellogg,ID,47.57,-116.11
83839,Kingston,ID,47.59,-116.24
83842,Medimont,ID,47.44,-116.47
83843,Moscow,ID,46.71,-116.91
83845,Moyie Springs,ID,48.7,-116.12
83846,Mullan,ID,47.46,-115.74
83847,Naples,ID,48.59,-116.4
83848,Nordman,ID,48.67,-116.88
83850,Pinehurst,ID,47.46,-116.21
83851,Plummer,ID,47.28,-116.88
83852,Ponderay,ID,48.3,-116.53
83853,Porthill,ID,48.95,-116.62
83854,Post Falls,ID,47.78,-117.02
83855,Potlatch,ID,46.96,-116.91
83856,Priest River,ID,48.38,-116.89
83857,Princeton,ID,46.9,-116.81
83858,Rathdrum,ID,47.84,-116.88
83860,Sagle,ID,48.18,-116.56
83861,Saint Maries,ID,47.2,-116.55
83864,Sandpoint,ID,48.34,-116.45
83868,Smelterville,ID,47.52,-116.18
83869,Spirit Lake,ID,47.98,-116.89
83870,Tensed,ID,47.12,-116.79
83871,Troy,ID,46.74,-116.74
83872,Viola,ID,46.86,-116.97
83873,Wallace,ID,47.61,-115.91
83876,Worley,ID,47.44,-116.89
84001,Altamont,UT,40.43,-110.25
84002,Altonah,UT,40.47,-110.32
84003,American Fork,UT,40.39,-111.78
84004,Alpine,UT,40.5,-111.7
84005,Eagle Mountain,UT,40.37,-112.02
84006,Bingham Canyon,UT,40.59,-112.1
84007,Bluebell,UT,40.33,-110.2
84008,Bonanza,UT,40.45,-109.53
84010,Bountiful,UT,40.88,-111.82
84013,Cedar Valley,UT,40.33,-112.11
84014,Centerville,UT,40.93,-111.88
84015,Clearfield,UT,41.11,-112.05
84017,Coalville,UT,40.88,-111.31
84018,Croydon,UT,41.13,-111.54
84020,Draper,UT,40.49,-111.84
84021,Duchesne,UT,40.1,-110.49
84022,Dugway,UT,40.32,-112.79
84023,Dutch John,UT,40.91,-109.34
84025,Farmington,UT,40.99,-111.86
84026,Fort Duchesne,UT,40.29,-109.8
84028,Garden City,UT,41.91,-111.25
84029,Grantsville,UT,40.67,-112.76
84031,Hanna,UT,40.54,-110.73
84032,Heber City,UT,40.43,-111.19
84034,Ibapah,UT,40.2,-113.86
84035,Jensen,UT,40.47,-109.26
84036,Kamas,UT,40.62,-111.15
84037,Kaysville,UT,41.02,-111.92
84038,Laketown,UT,41.81,-111.37
84039,Lapoint,UT,40.39,-109.84
84040,Layton,UT,41.08,-111.9
84041,Layton,UT,41.07,-111.98
84042,Lindon,UT,40.32,-111.74
84043,Lehi,UT,40.32,-111.96
84044,Magna,UT,40.7,-112.08
84045,Saratoga Springs,UT,40.28,-111.88
84046,Manila,UT,40.94,-109.79
84047,Midvale,UT,40.6,-111.88
84049,Midway,UT,40.5,-111.52
84050,Morgan,UT,41.01,-111.67
84051,Mountain Home,UT,40.41,-110.4
84052,Myton,UT,40.17,-110.02
84053,Neola,UT,40.41,-109.99
84054,North Salt Lake,UT,40.84,-111.9
84055,Oakley,UT,40.81,-111.11
84056,Hill Afb,UT,41.12,-111.98
84057,Orem,UT,40.31,-111.71
84058,Orem,UT,40.29,-111.72
84060,Park City,UT,40.64,-111.49
84061,Peoa,UT,40.74,-111.36
84062,Pleasant Grove,UT,40.46,-111.63
84063,Randlett,UT,40.18,-109.71
84064,Randolph,UT,41.65,-111.21
84065,Riverton,UT,40.47,-112
84066,Roosevelt,UT,40.28,-110
84067,Roy,UT,41.17,-112.04
84069,Rush Valley,UT,40.34,-112.48
84070,Sandy,UT,40.57,-111.89
84071,Stockton,UT,40.3,-112.3
84072,Tabiona,UT,40.38,-110.65
84073,Talmage,UT,40.39,-110.43
84074,Tooele,UT,40.57,-112.33
84075,Syracuse,UT,41.05,-112.06
84076,Tridell,UT,40.44,-109.84
84078,Vernal,UT,40.55,-109.57
84080,Vernon,UT,40.06,-112.34
84081,West Jordan,UT,40.59,-112.03
84082,Wallsburg,UT,40.36,-111.43
84083,Wendover,UT,40.84,-114.02
84084,West Jordan,UT,40.62,-111.98
84085,Whiterocks,UT,40.55,-109.9
84086,Woodruff,UT,41.37,-111.27
84087,Woods Cross,UT,40.89,-111.93
84088,West Jordan,UT,40.58,-111.98
84092,Sandy,UT,40.56,-111.72
84093,Sandy,UT,40.59,-111.81
84094,Sandy,UT,40.56,-111.86
84095,South Jordan,UT,40.55,-111.96
84096,Herriman,UT,40.48,-112.07
84097,Orem,UT,40.29,-111.67
84098,Park City,UT,40.71,-111.55
84101,Salt Lake City,UT,40.75,-111.9
84102,Salt Lake City,UT,40.75,-111.86
84103,Salt Lake City,UT,40.79,-111.82
84104,Salt Lake City,UT,40.74,-111.98
84105,Salt Lake City,UT,40.73,-111.85
84106,Salt Lake City,UT,40.7,-111.85
84107,Salt Lake City,UT,40.65,-111.88
84108,Salt Lake City,UT,40.78,-111.73
84109,Salt Lake City,UT,40.7,-111.71
84111,Salt Lake City,UT,40.75,-111.88
84112,Salt Lake City,UT,40.76,-111.84
84113,Salt Lake City,UT,40.76,-111.83
84114,Salt Lake City,UT,40.77,-111.89
84115,Salt Lake City,UT,40.71,-111.89
84116,Salt Lake City,UT,40.81,-111.94
84117,Salt Lake City,UT,40.65,-111.83
84118,Salt Lake City,UT,40.65,-112.01
84119,Salt Lake City,UT,40.7,-111.94
84120,Salt Lake City,UT,40.69,-111.99
84121,Salt Lake City,UT,40.62,-111.71
84123,Salt Lake City,UT,40.65,-111.92
84124,Salt Lake City,UT,40.67,-111.79
84128,Salt Lake City,UT,40.7,-112.05
84129,Salt Lake City,UT,40.66,-111.93
84133,Salt Lake City,UT,40.76,-111.89
84138,Salt Lake City,UT,40.75,-111.88
84144,Salt Lake City,UT,40.76,-111.89
84180,Salt Lake City,UT,40.77,-111.9
84302,Brigham City,UT,41.51,-112.04
84304,Cache Junction,UT,41.82,-111.99
84306,Collinston,UT,41.79,-112.06
84307,Corinne,UT,41.46,-112.47
84308,Cornish,UT,41.96,-112
84309,Deweyville,UT,41.72,-112.08
84310,Eden,UT,41.33,-111.79
84311,Fielding,UT,41.82,-112.1
84312,Garland,UT,41.79,-112.17
84313,Grouse Creek,UT,41.68,-113.83
84314,Honeyville,UT,41.64,-112.09
84315,Hooper,UT,41.15,-112.14
84317,Huntsville,UT,41.28,-111.69
84318,Hyde Park,UT,41.8,-111.8
84319,Hyrum,UT,41.6,-111.72
84320,Lewiston,UT,41.95,-111.86
84321,Logan,UT,41.7,-111.87
84324,Mantua,UT,41.48,-111.94
84325,Mendon,UT,41.71,-111.98
84328,Paradise,UT,41.48,-111.77
84329,Park Valley,UT,41.74,-113.44
84331,Portage,UT,41.89,-112.38
84332,Providence,UT,41.69,-111.81
84333,Richmond,UT,41.9,-111.81
84335,Smithfield,UT,41.82,-111.87
84336,Snowville,UT,41.81,-112.87
84337,Tremonton,UT,41.69,-112.27
84338,Trenton,UT,41.92,-111.92
84339,Wellsville,UT,41.62,-111.93
84340,Willard,UT,41.35,-112.15
84341,Logan,UT,41.85,-111.7
84401,Ogden,UT,41.21,-111.97
84403,Ogden,UT,41.18,-111.91
84404,Ogden,UT,41.24,-112.13
84405,Ogden,UT,41.15,-111.98
84414,Ogden,UT,41.31,-111.96
84501,Price,UT,39.57,-110.8
84511,Blanding,UT,37.55,-109.48
84513,Castle Dale,UT,39.2,-110.92
84515,Cisco,UT,38.97,-109.31
84520,East Carbon,UT,39.51,-110.45
84521,Elmo,UT,39.28,-110.67
84525,Green River,UT,38.98,-110.65
84526,Helper,UT,39.67,-111.01
84528,Huntington,UT,39.41,-111
84529,Kenilworth,UT,39.69,-110.8
84532,Moab,UT,38.45,-109.6
84533,Lake Powell,UT,37.57,-110.32
84535,Monticello,UT,37.98,-109.29
84540,Thompson,UT,39.18,-109.49
84542,Wellington,UT,39.54,-110.74
84601,Provo,UT,40.22,-111.69
84602,Provo,UT,40.22,-111.69
84604,Provo,UT,40.33,-111.57
84606,Provo,UT,40.21,-111.61
84621,Axtell,UT,39.08,-111.84
84623,Chester,UT,39.45,-111.57
84624,Delta,UT,39.29,-112.56
84627,Ephraim,UT,39.35,-111.57
84629,Fairview,UT,39.78,-111.44
84630,Fayette,UT,39.29,-111.8
84631,Fillmore,UT,39.01,-112.27
84635,Hinckley,UT,39.37,-112.73
84642,Manti,UT,39.25,-111.52
84645,Mona,UT,39.85,-111.84
84647,Mount Pleasant,UT,39.55,-111.39
84648,Nephi,UT,39.68,-111.83
84651,Payson,UT,40.01,-111.73
84653,Salem,UT,40.02,-111.64
84654,Salina,UT,38.95,-111.83
84655,Santaquin,UT,39.99,-111.81
84660,Spanish Fork,UT,40.02,-111.55
84663,Springville,UT,40.2,-111.47
84664,Mapleton,UT,40.11,-111.48
84667,Wales,UT,39.44,-111.67
84701,Richfield,UT,38.75,-112.1
84712,Antimony,UT,38.09,-112
84713,Beaver,UT,38.38,-112.66
84714,Beryl,UT,37.87,-113.66
84717,Bryce Canyon,UT,37.62,-112.17
84720,Cedar City,UT,37.81,-113.22
84721,Cedar City,UT,37.66,-113.19
84722,Central,UT,37.39,-113.63
84724,Elsinore,UT,38.68,-112.14
84728,Garrison,UT,39.06,-113.83
84731,Greenville,UT,38.22,-112.8
84732,Greenwich,UT,38.45,-111.9
84733,Gunlock,UT,37.24,-113.79
84737,Hurricane,UT,37.13,-112.97
84738,Ivins,UT,37.18,-113.63
84739,Joseph,UT,38.62,-112.33
84741,Kanab,UT,37.27,-112.23
84745,La Verkin,UT,37.27,-113.19
84747,Loa,UT,38.4,-111.58
84751,Milford,UT,38.36,-113.11
84753,Modena,UT,37.87,-113.86
84754,Monroe,UT,38.63,-111.75
84757,New Harmony,UT,37.38,-113.32
84759,Panguitch,UT,37.86,-112.34
84765,Santa Clara,UT,37.13,-113.65
84766,Sevier,UT,38.55,-112.35
84770,Saint George,UT,37.18,-113.6
84773,Teasdale,UT,38.23,-111.47
84774,Toquerville,UT,37.26,-113.27
84775,Torrey,UT,38.33,-111.06
84779,Virgin,UT,37.3,-113.08
84780,Washington,UT,37.22,-113.48
84781,Pine Valley,UT,37.47,-113.51
84782,Veyo,UT,37.42,-113.72
84783,Dammeron Valley,UT,37.26,-113.69
84790,Saint George,UT,37.06,-113.57
85003,Phoenix,AZ,33.45,-112.07
85004,Phoenix,AZ,33.44,-112.07
85006,Phoenix,AZ,33.46,-112.05
85007,Phoenix,AZ,33.44,-112.08
85008,Phoenix,AZ,33.46,-111.98
85009,Phoenix,AZ,33.44,-112.13
85012,Phoenix,AZ,33.5,-112.07
85013,Phoenix,AZ,33.5,-112.08
85014,Phoenix,AZ,33.5,-112.05
85015,Phoenix,AZ,33.5,-112.1
85016,Phoenix,AZ,33.5,-112.02
85017,Phoenix,AZ,33.5,-112.12
85018,Phoenix,AZ,33.5,-111.98
85019,Phoenix,AZ,33.5,-112.14
85020,Phoenix,AZ,33.57,-112.05
85021,Phoenix,AZ,33.55,-112.09
85022,Phoenix,AZ,33.62,-112.05
85023,Phoenix,AZ,33.63,-112.09
85024,Phoenix,AZ,33.68,-112.04
85025,Phoenix,AZ,33.45,-112.07
85026,Phoenix,AZ,33.45,-111.97
85027,Phoenix,AZ,33.72,-112.08
85028,Phoenix,AZ,33.56,-112
85029,Phoenix,AZ,33.59,-112.1
85031,Phoenix,AZ,33.49,-112.16
85032,Phoenix,AZ,33.62,-112
85033,Phoenix,AZ,33.49,-112.21
85034,Phoenix,AZ,33.43,-112.01
85035,Phoenix,AZ,33.47,-112.19
85037,Phoenix,AZ,33.48,-112.25
85039,Phoenix,AZ,33.49,-112.28
85040,Phoenix,AZ,33.4,-112.02
85041,Phoenix,AZ,33.38,-112.11
85042,Phoenix,AZ,33.37,-112.03
85043,Phoenix,AZ,33.42,-112.2
85044,Phoenix,AZ,33.34,-112.06
85045,Phoenix,AZ,33.3,-112.1
85048,Phoenix,AZ,33.28,-112.03
85050,Phoenix,AZ,33.69,-112
85051,Phoenix,AZ,33.55,-112.13
85053,Phoenix,AZ,33.62,-112.13
85054,Phoenix,AZ,33.67,-111.95
85055,Phoenix,AZ,33.45,-111.97
85065,Phoenix,AZ,33.43,-112.05
85073,Phoenix,AZ,33.44,-112.07
85083,Phoenix,AZ,33.73,-112.14
85085,Phoenix,AZ,33.75,-112.14
85086,Phoenix,AZ,33.83,-112.11
85087,New River,AZ,33.95,-112.07
85096,Phoenix,AZ,33.44,-112.09
85097,Phoenix,AZ,33.43,-112.15
85117,Apache Junction,AZ,33.42,-111.54
85118,Gold Canyon,AZ,33.34,-111.42
85119,Apache Junction,AZ,33.38,-111.51
85120,Apache Junction,AZ,33.4,-111.56
85121,Bapchule,AZ,32.98,-111.75
85122,Casa Grande,AZ,32.91,-111.74
85123,Arizona City,AZ,32.73,-111.67
85127,Chandler Heights,AZ,33.21,-111.69
85128,Coolidge,AZ,32.97,-111.49
85130,Casa Grande,AZ,32.89,-111.75
85131,Eloy,AZ,32.65,-111.59
85132,Florence,AZ,32.95,-111.23
85135,Hayden,AZ,33,-110.78
85137,Kearny,AZ,33.1,-110.97
85138,Maricopa,AZ,33.01,-111.97
85139,Maricopa,AZ,32.98,-112.11
85140,San Tan Valley,AZ,33.17,-111.57
85141,Picacho,AZ,32.71,-111.49
85142,Queen Creek,AZ,33.16,-111.59
85143,San Tan Valley,AZ,33.16,-111.56
85145,Red Rock,AZ,32.57,-111.36
85147,Sacaton,AZ,33.08,-111.74
85172,Stanfield,AZ,32.93,-111.92
85173,Superior,AZ,33.28,-111.1
85178,Apache Junction,AZ,33.42,-111.54
85190,Tortilla Flat,AZ,33.52,-111.38
85191,Valley Farms,AZ,32.98,-111.44
85192,Winkelman,AZ,32.88,-110.66
85193,Casa Grande,AZ,32.86,-111.83
85194,Casa Grande,AZ,32.91,-111.65
85201,Mesa,AZ,33.44,-111.85
85202,Mesa,AZ,33.38,-111.87
85203,Mesa,AZ,33.44,-111.8
85204,Mesa,AZ,33.39,-111.78
85205,Mesa,AZ,33.43,-111.71
85206,Mesa,AZ,33.39,-111.71
85207,Mesa,AZ,33.45,-111.64
85208,Mesa,AZ,33.38,-111.63
85209,Mesa,AZ,33.37,-111.64
85210,Mesa,AZ,33.38,-111.84
85212,Mesa,AZ,33.33,-111.63
85213,Mesa,AZ,33.44,-111.76
85215,Mesa,AZ,33.59,-111.44
85217,Apache Junction,AZ,33.32,-111.32
85218,Apache Junction,AZ,33.35,-111.41
85219,Apache Junction,AZ,33.4,-111.46
85220,Apache Junction,AZ,33.41,-111.57
85222,Casa Grande,AZ,32.87,-111.73
85223,Arizona City,AZ,32.74,-111.68
85224,Chandler,AZ,33.32,-111.87
85225,Chandler,AZ,33.32,-111.82
85226,Chandler,AZ,33.27,-111.94
85227,Chandler Heights,AZ,33.34,-111.63
85228,Coolidge,AZ,32.96,-111.52
85230,Casa Grande,AZ,32.87,-111.75
85231,Eloy,AZ,32.71,-111.57
85232,Florence,AZ,32.96,-111.31
85233,Gilbert,AZ,33.34,-111.81
85234,Gilbert,AZ,33.36,-111.75
85236,Higley,AZ,33.33,-111.71
85237,Kearny,AZ,33.09,-110.97
85238,Maricopa,AZ,33,-111.93
85239,Maricopa,AZ,33.02,-112.04
85240,Queen Creek,AZ,33.22,-111.53
85242,Queen Creek,AZ,33.22,-111.61
85243,Queen Creek,AZ,33.15,-111.54
85248,Chandler,AZ,33.24,-111.96
85249,Chandler,AZ,33.24,-111.78
85250,Scottsdale,AZ,33.53,-111.89
85251,Scottsdale,AZ,33.49,-111.92
85253,Paradise Valley,AZ,33.54,-111.96
85254,Scottsdale,AZ,33.61,-111.94
85255,Scottsdale,AZ,33.66,-111.87
85256,Scottsdale,AZ,33.5,-111.79
85257,Scottsdale,AZ,33.46,-111.92
85258,Scottsdale,AZ,33.56,-111.9
85259,Scottsdale,AZ,33.68,-111.73
85260,Scottsdale,AZ,33.61,-111.89
85262,Scottsdale,AZ,33.85,-111.78
85263,Rio Verde,AZ,33.73,-111.68
85264,Fort Mcdowell,AZ,33.75,-111.57
85266,Scottsdale,AZ,33.48,-111.92
85268,Fountain Hills,AZ,33.6,-111.74
85272,Stanfield,AZ,32.85,-111.97
85273,Superior,AZ,33.28,-111.11
85278,Apache Junction,AZ,33.41,-111.54
85279,Florence,AZ,32.79,-111.21
85281,Tempe,AZ,33.43,-111.91
85282,Tempe,AZ,33.4,-111.92
85283,Tempe,AZ,33.36,-111.93
85284,Tempe,AZ,33.33,-111.93
85286,Chandler,AZ,33.27,-111.82
85290,Apache Junction,AZ,33.45,-111.63
85292,Winkelman,AZ,32.94,-110.72
85293,Casa Grande,AZ,32.85,-111.79
85294,Casa Grande,AZ,32.92,-111.61
85295,Gilbert,AZ,33.3,-111.74
85296,Gilbert,AZ,33.3,-111.76
85297,Gilbert,AZ,33.26,-111.71
85298,Gilbert,AZ,33.24,-111.7
85301,Glendale,AZ,33.53,-112.18
85302,Glendale,AZ,33.57,-112.18
85303,Glendale,AZ,33.53,-112.22
85304,Glendale,AZ,33.59,-112.17
85305,Glendale,AZ,33.53,-112.26
85306,Glendale,AZ,33.62,-112.17
85307,Glendale,AZ,33.53,-112.31
85308,Glendale,AZ,33.66,-112.18
85309,Glendale Luke Afb,AZ,33.53,-112.38
85310,Glendale,AZ,33.71,-112.17
85321,Ajo,AZ,32.15,-112.62
85322,Arlington,AZ,33.18,-112.79
85323,Avondale,AZ,33.44,-112.31
85324,Black Canyon City,AZ,34.13,-112.13
85326,Buckeye,AZ,33.38,-112.55
85328,Cibola,AZ,33.32,-114.64
85331,Cave Creek,AZ,33.8,-111.93
85333,Dateland,AZ,32.94,-113.34
85335,El Mirage,AZ,33.59,-112.33
85337,Gila Bend,AZ,32.99,-112.9
85338,Goodyear,AZ,33.37,-112.38
85339,Laveen,AZ,33.3,-112.2
85340,Litchfield Park,AZ,33.51,-112.36
85342,Morristown,AZ,33.98,-112.44
85343,Palo Verde,AZ,33.32,-112.7
85344,Parker,AZ,33.99,-114.23
85345,Peoria,AZ,33.57,-112.25
85347,Roll,AZ,32.76,-113.87
85348,Salome,AZ,33.72,-113.65
85350,Somerton,AZ,32.53,-114.71
85351,Sun City,AZ,33.6,-112.28
85353,Tolleson,AZ,33.42,-112.27
85354,Tonopah,AZ,33.57,-113.02
85355,Waddell,AZ,33.55,-112.43
85356,Wellton,AZ,32.7,-114.17
85361,Wittmann,AZ,33.72,-112.65
85363,Youngtown,AZ,33.58,-112.3
85364,Yuma,AZ,32.68,-114.66
85365,Yuma,AZ,32.72,-114.51
85367,Yuma,AZ,32.68,-114.38
85373,Sun City,AZ,33.68,-112.31
85374,Surprise,AZ,33.64,-112.38
85375,Sun City West,AZ,33.67,-112.36
85378,Surprise,AZ,33.63,-112.34
85379,Surprise,AZ,33.6,-112.37
85381,Peoria,AZ,33.61,-112.23
85382,Peoria,AZ,33.65,-112.24
85383,Peoria,AZ,33.76,-112.24
85387,Surprise,AZ,33.71,-112.4
85388,Surprise,AZ,33.61,-112.46
85390,Wickenburg,AZ,33.9,-112.9
85392,Avondale,AZ,33.47,-112.29
85395,Goodyear,AZ,33.47,-112.39
85396,Buckeye,AZ,33.56,-112.57
85501,Globe,AZ,33.62,-110.7
85533,Clifton,AZ,33.27,-109.27
85534,Duncan,AZ,32.76,-109.07
85535,Eden,AZ,32.97,-109.91
85539,Miami,AZ,33.4,-110.97
85540,Morenci,AZ,33.04,-109.37
85541,Payson,AZ,34.19,-111.17
85542,Peridot,AZ,33.21,-110.53
85543,Pima,AZ,33,-109.88
85544,Pine,AZ,34.32,-111.54
85545,Roosevelt,AZ,33.62,-111.03
85546,Safford,AZ,32.7,-109.65
85552,Thatcher,AZ,32.82,-109.78
85602,Benson,AZ,32.19,-110.38
85603,Bisbee,AZ,31.44,-109.87
85606,Cochise,AZ,32.06,-109.91
85607,Douglas,AZ,31.54,-109.46
85610,Elfrida,AZ,31.73,-109.7
85611,Elgin,AZ,31.57,-110.54
85613,Fort Huachuca,AZ,31.52,-110.36
85614,Green Valley,AZ,31.84,-111.06
85615,Hereford,AZ,31.44,-110.23
85616,Huachuca City,AZ,31.73,-110.31
85617,Mc Neal,AZ,31.55,-109.69
85618,Mammoth,AZ,32.68,-110.62
85621,Nogales,AZ,31.45,-110.83
85622,Green Valley,AZ,31.76,-110.85
85623,Oracle,AZ,32.64,-110.84
85624,Patagonia,AZ,31.53,-110.71
85625,Pearce,AZ,31.86,-109.33
85629,Sahuarita,AZ,31.91,-110.9
85630,Saint David,AZ,31.88,-110.18
85631,San Manuel,AZ,32.62,-110.59
85632,San Simon,AZ,32,-109.21
85634,Sells,AZ,32,-111.93
85635,Sierra Vista,AZ,31.59,-110.17
85637,Sonoita,AZ,31.75,-110.66
85638,Tombstone,AZ,31.71,-110.04
85640,Tumacacori,AZ,31.55,-111.03
85641,Vail,AZ,31.95,-110.69
85643,Willcox,AZ,32.43,-109.88
85645,Amado,AZ,31.71,-111.02
85648,Rio Rico,AZ,31.5,-111.06
85650,Sierra Vista,AZ,31.5,-110.21
85653,Marana,AZ,32.45,-111.29
85658,Marana,AZ,32.51,-111.16
85701,Tucson,AZ,32.21,-110.96
85704,Tucson,AZ,32.33,-110.98
85705,Tucson,AZ,32.26,-111
85706,Tucson,AZ,32.07,-110.88
85708,Tucson,AZ,32.17,-110.87
85710,Tucson,AZ,32.22,-110.82
85711,Tucson,AZ,32.21,-110.88
85712,Tucson,AZ,32.25,-110.87
85713,Tucson,AZ,32.19,-110.98
85714,Tucson,AZ,32.16,-110.91
85715,Tucson,AZ,32.25,-110.82
85716,Tucson,AZ,32.24,-110.92
85718,Tucson,AZ,32.31,-110.92
85719,Tucson,AZ,32.24,-110.95
85730,Tucson,AZ,32.17,-110.79
85735,Tucson,AZ,32.06,-111.42
85736,Tucson,AZ,31.9,-111.36
85737,Tucson,AZ,32.43,-110.95
85739,Tucson,AZ,32.54,-110.95
85741,Tucson,AZ,32.33,-111.05
85742,Tucson,AZ,32.43,-111.03
85743,Tucson,AZ,32.3,-111.16
85745,Tucson,AZ,32.25,-111.08
85746,Tucson,AZ,32.09,-111.08
85747,Tucson,AZ,32.1,-110.68
85748,Tucson,AZ,32.21,-110.75
85749,Tucson,AZ,32.28,-110.73
85750,Tucson,AZ,32.29,-110.83
85755,Tucson,AZ,32.46,-110.97
85756,Tucson,AZ,32.07,-110.92
85757,Tucson,AZ,32.08,-111.11
85901,Show Low,AZ,34.23,-110.07
85920,Alpine,AZ,33.83,-109.19
85922,Blue,AZ,33.52,-109.21
85924,Concho,AZ,34.51,-109.69
85925,Eagar,AZ,34.11,-109.38
85927,Greer,AZ,34,-109.48
85928,Heber,AZ,34.53,-110.44
85929,Lakeside,AZ,34.1,-110.08
85935,Pinetop,AZ,34.08,-109.9
85936,Saint Johns,AZ,34.56,-109.33
85937,Snowflake,AZ,34.64,-110.11
85938,Springerville,AZ,34.04,-109.2
86001,Flagstaff,AZ,35.23,-111.72
86004,Flagstaff,AZ,35.29,-111.32
86022,Fredonia,AZ,36.74,-112.11
86024,Happy Jack,AZ,34.73,-111.15
86025,Holbrook,AZ,34.94,-110.09
86036,Marble Canyon,AZ,36.74,-111.85
86038,Mormon Lake,AZ,34.93,-111.47
86044,Tonalea,AZ,36.91,-110.87
86046,Williams,AZ,35.37,-112.26
86047,Winslow,AZ,35.1,-110.64
86301,Prescott,AZ,34.62,-112.42
86303,Prescott,AZ,34.49,-112.44
86305,Prescott,AZ,34.76,-112.88
86314,Prescott Valley,AZ,34.66,-112.29
86315,Prescott Valley,AZ,34.69,-112.3
86321,Bagdad,AZ,34.5,-113.07
86322,Camp Verde,AZ,34.48,-111.78
86323,Chino Valley,AZ,34.77,-112.45
86324,Clarkdale,AZ,34.79,-112.1
86325,Cornville,AZ,34.73,-111.91
86326,Cottonwood,AZ,34.75,-112.01
86327,Dewey,AZ,34.56,-112.12
86330,Prescott,AZ,34.67,-112.52
86332,Kirkland,AZ,34.29,-112.66
86333,Mayer,AZ,34.34,-112.03
86334,Paulden,AZ,34.9,-112.43
86335,Rimrock,AZ,34.68,-111.7
86336,Sedona,AZ,34.94,-111.94
86351,Sedona,AZ,34.75,-111.77
86401,Kingman,AZ,35.24,-113.76
86403,Lake Havasu City,AZ,34.48,-114.32
86404,Lake Havasu City,AZ,34.61,-114.3
86406,Lake Havasu City,AZ,34.44,-114.24
86409,Kingman,AZ,35.24,-114.01
86413,Golden Valley,AZ,35.13,-114.25
86426,Fort Mohave,AZ,35,-114.56
86429,Bullhead City,AZ,35.14,-114.49
86434,Peach Springs,AZ,35.64,-113.61
86436,Topock,AZ,34.72,-114.44
86437,Valentine,AZ,35.39,-113.62
86440,Mohave Valley,AZ,34.86,-114.51
86441,Dolan Springs,AZ,35.64,-114.31
86442,Bullhead City,AZ,35.09,-114.57
86443,Temple Bar Marina,AZ,36.02,-114.29
86444,Meadview,AZ,35.98,-114.06
86445,Willow Beach,AZ,35.9,-114.59
86503,Chinle,AZ,36.23,-109.57
86505,Ganado,AZ,35.67,-109.65
86514,Teec Nos Pos,AZ,36.89,-109.37
86555,Douglas,AZ,31.38,-109.55
87001,Algodones,NM,35.38,-106.47
87002,Belen,NM,34.65,-106.77
87004,Bernalillo,NM,35.31,-106.55
87005,Bluewater,NM,35.14,-108.23
87006,Bosque,NM,34.47,-106.8
87008,Cedar Crest,NM,35.1,-106.37
87009,Cedarvale,NM,34.37,-105.7
87010,Cerrillos,NM,35.37,-106.14
87012,Coyote,NM,36.16,-106.61
87013,Cuba,NM,36.02,-106.95
87014,Cubero,NM,35.08,-107.51
87015,Edgewood,NM,35.08,-106.17
87016,Estancia,NM,34.76,-106.06
87017,Gallina,NM,36.23,-106.85
87018,Counselor,NM,36.13,-106.93
87020,Grants,NM,35.15,-107.83
87023,Jarales,NM,34.61,-106.76
87024,Jemez Pueblo,NM,35.61,-106.72
87025,Jemez Springs,NM,35.77,-106.68
87026,Laguna,NM,35.03,-107.39
87027,La Jara,NM,36.08,-106.97
87028,La Joya,NM,34.34,-106.84
87029,Lindrith,NM,36.3,-107.04
87031,Los Lunas,NM,34.81,-106.73
87035,Moriarty,NM,35,-106.04
87036,Mountainair,NM,34.52,-106.24
87041,Pena Blanca,NM,35.57,-106.33
87042,Peralta,NM,34.82,-106.68
87043,Placitas,NM,35.32,-106.46
87044,Ponderosa,NM,34.98,-106.3
87045,Prewitt,NM,35.36,-108.04
87046,Regina,NM,36.18,-106.95
87047,Sandia Park,NM,35.16,-106.36
87048,Corrales,NM,35.23,-106.62
87052,Santo Domingo Pueblo,NM,35.51,-106.36
87053,San Ysidro,NM,35.55,-106.77
87056,Stanley,NM,35.14,-105.97
87059,Tijeras,NM,35.08,-106.37
87062,Veguita,NM,34.51,-106.76
87063,Willard,NM,34.59,-106.03
87064,Youngsville,NM,36.18,-106.55
87068,Bosque Farms,NM,34.85,-106.7
87083,Cochiti Lake,NM,35.64,-106.33
87101,Albuquerque,NM,35.11,-106.62
87102,Albuquerque,NM,35.11,-106.62
87104,Albuquerque,NM,35.11,-106.62
87105,Albuquerque,NM,35.11,-106.62
87106,Albuquerque,NM,35.11,-106.62
87107,Albuquerque,NM,35.11,-106.62
87108,Albuquerque,NM,35.11,-106.62
87109,Albuquerque,NM,35.11,-106.62
87110,Albuquerque,NM,35.11,-106.62
87111,Albuquerque,NM,35.11,-106.62
87112,Albuquerque,NM,35.11,-106.62
87113,Albuquerque,NM,35.11,-106.62
87114,Albuquerque,NM,35.11,-106.62
87115,Albuquerque,NM,35.11,-106.62
87116,Albuquerque,NM,35.11,-106.62
87120,Albuquerque,NM,35.11,-106.62
87121,Albuquerque,NM,35.11,-106.62
87122,Albuquerque,NM,35.11,-106.62
87123,Albuquerque,NM,35.11,-106.62
87124,Rio Rancho,NM,35.27,-106.66
87144,Rio Rancho,NM,35.32,-106.71
87301,Gallup,NM,35.52,-108.73
87312,Continental Divide,NM,35.47,-108.45
87315,Fence Lake,NM,34.65,-108.67
87317,Gamerco,NM,35.57,-108.76
87321,Ramah,NM,35.13,-108.49
87323,Thoreau,NM,35.4,-108.22
87325,Tohatchi,NM,35.85,-108.75
87401,Farmington,NM,36.75,-108.18
87402,Farmington,NM,36.75,-108.18
87410,Aztec,NM,36.82,-108
87412,Blanco,NM,36.61,-107.73
87413,Bloomfield,NM,36.71,-107.97
87415,Flora Vista,NM,36.8,-108.08
87416,Fruitland,NM,36.73,-108.39
87417,Kirtland,NM,36.73,-108.34
87418,La Plata,NM,36.92,-108.19
87419,Navajo Dam,NM,36.8,-107.61
87420,Shiprock,NM,36.79,-108.69
87421,Waterflow,NM,36.81,-108.41
87501,Santa Fe,NM,35.67,-105.95
87505,Santa Fe,NM,35.67,-105.95
87506,Santa Fe,NM,35.67,-105.95
87507,Santa Fe,NM,35.67,-105.95
87508,Santa Fe,NM,35.57,-106.11
87510,Abiquiu,NM,36.2,-106.31
87516,Canones,NM,36.18,-106.43
87520,Chama,NM,36.89,-106.58
87521,Chamisal,NM,36.17,-105.74
87522,Chimayo,NM,35.99,-105.92
87528,Dulce,NM,36.93,-106.99
87529,El Prado,NM,36.43,-105.65
87530,El Rito,NM,36.34,-106.18
87531,Embudo,NM,36.2,-105.96
87532,Espanola,NM,36,-106.06
87535,Glorieta,NM,35.58,-105.76
87537,Hernandez,NM,36.06,-106.11
87538,Ilfeld,NM,35.48,-105.4
87539,La Madera,NM,36.38,-106.04
87540,Lamy,NM,35.48,-105.87
87544,Los Alamos,NM,35.89,-106.28
87549,Ojo Caliente,NM,36.3,-106.04
87551,Los Ojos,NM,36.72,-106.56
87552,Pecos,NM,35.57,-105.67
87553,Penasco,NM,36.17,-105.69
87556,Questa,NM,36.71,-105.59
87557,Ranchos De Taos,NM,36.36,-105.6
87560,Ribera,NM,35.37,-105.44
87565,San Jose,NM,36.03,-106.09
87566,Ohkay Owingeh,NM,36.05,-106.07
87567,Santa Cruz,NM,35.98,-106.01
87571,Taos,NM,36.38,-105.57
87573,Tererro,NM,35.74,-105.67
87575,Tierra Amarilla,NM,36.7,-106.54
87576,Trampas,NM,36.15,-105.62
87579,Vadito,NM,36.19,-105.67
87580,Valdez,NM,36.53,-105.58
87581,Vallecitos,NM,36.49,-106.12
87701,Las Vegas,NM,35.59,-105.22
87711,Anton Chico,NM,35.2,-105.14
87713,Chacon,NM,36.14,-105.36
87714,Cimarron,NM,36.5,-104.91
87715,Cleveland,NM,35.99,-105.37
87718,Eagle Nest,NM,36.55,-105.26
87722,Guadalupita,NM,36.13,-105.23
87723,Holman,NM,36.03,-105.38
87724,La Loma,NM,35.19,-105.08
87728,Maxwell,NM,36.54,-104.54
87729,Miami,NM,36.35,-104.79
87730,Mills,NM,36.08,-104.25
87731,Montezuma,NM,35.65,-105.27
87732,Mora,NM,35.97,-105.32
87733,Mosquero,NM,35.77,-103.95
87734,Ocate,NM,36.17,-105.04
87735,Ojo Feliz,NM,36.05,-105.11
87740,Raton,NM,36.88,-104.44
87742,Rociada,NM,35.83,-105.42
87743,Roy,NM,35.94,-104.19
87745,Sapello,NM,35.77,-105.25
87746,Solano,NM,35.84,-104.06
87747,Springer,NM,36.36,-104.59
87750,Valmora,NM,35.81,-104.92
87752,Wagon Mound,NM,36,-104.71
87801,Socorro,NM,34.05,-106.9
87820,Aragon,NM,33.88,-108.53
87821,Datil,NM,34.14,-107.84
87823,Lemitar,NM,34.16,-106.91
87825,Magdalena,NM,34.11,-107.23
87827,Pie Town,NM,34.33,-108.28
87828,Polvadera,NM,34.13,-106.85
87829,Quemado,NM,34.31,-108.79
87830,Reserve,NM,33.7,-108.76
87831,San Acacia,NM,34.25,-106.89
87832,San Antonio,NM,33.91,-106.86
87901,Truth Or Consequences,NM,33.13,-107.24
87930,Arrey,NM,32.84,-107.31
87931,Caballo,NM,32.97,-107.3
87933,Derry,NM,32.78,-107.28
87936,Garfield,NM,32.75,-107.26
87937,Hatch,NM,32.66,-107.15
87939,Monticello,NM,33.39,-107.45
87940,Rincon,NM,32.67,-107.06
87941,Salem,NM,32.7,-107.21
87942,Williamsburg,NM,33.11,-107.29
87943,Winston,NM,33.34,-107.51
88001,Las Cruces,NM,32.33,-106.75
88002,White Sands Missile Range,NM,32.26,-106.47
88005,Las Cruces,NM,32.33,-106.75
88007,Las Cruces,NM,32.33,-106.75
88008,Santa Teresa,NM,31.87,-106.64
88011,Las Cruces,NM,32.33,-106.75
88012,Las Cruces,NM,32.33,-106.75
88020,Animas,NM,31.94,-108.83
88021,Anthony,NM,32,-106.59
88022,Arenas Valley,NM,33.01,-108.28
88023,Bayard,NM,32.75,-108.13
88025,Buckhorn,NM,33.03,-108.7
88030,Deming,NM,32.26,-107.75
88034,Faywood,NM,32.56,-108.02
88039,Glenwood,NM,33.31,-108.88
88041,Hanover,NM,32.88,-108.08
88042,Hillsboro,NM,32.92,-107.56
88043,Hurley,NM,32.69,-108.13
88044,La Mesa,NM,32.12,-106.7
88045,Lordsburg,NM,32.34,-108.7
88047,Mesilla Park,NM,32.27,-106.61
88048,Mesquite,NM,32.16,-106.69
88049,Mimbres,NM,32.85,-107.97
88061,Silver City,NM,32.78,-108.26
88063,Sunland Park,NM,31.79,-106.57
88072,Vado,NM,32.11,-106.66
88081,Chaparral,NM,32.04,-106.44
88101,Clovis,NM,34.41,-103.2
88112,Broadview,NM,34.81,-103.21
88113,Causey,NM,33.86,-103.11
88114,Crossroads,NM,33.51,-103.33
88116,Elida,NM,33.94,-103.65
88118,Floyd,NM,34.21,-103.54
88119,Fort Sumner,NM,34.47,-104.23
88120,Grady,NM,34.82,-103.31
88121,House,NM,34.64,-103.9
88123,Lingo,NM,33.78,-103.11
88124,Melrose,NM,34.42,-103.62
88125,Milnesand,NM,33.64,-103.33
88126,Pep,NM,33.83,-103.33
88130,Portales,NM,34.18,-103.34
88132,Rogers,NM,33.98,-103.23
88133,Saint Vrain,NM,34.41,-103.48
88134,Taiban,NM,34.44,-104
88135,Texico,NM,34.38,-103.05
88136,Yeso,NM,34.43,-104.6
88201,Roswell,NM,33.37,-104.52
88203,Roswell,NM,33.33,-104.52
88210,Artesia,NM,32.84,-104.43
88213,Caprock,NM,33.39,-103.71
88220,Carlsbad,NM,32.4,-104.23
88230,Dexter,NM,33.19,-104.36
88232,Hagerman,NM,33.11,-104.32
88240,Hobbs,NM,32.73,-103.16
88242,Hobbs,NM,32.73,-103.16
88250,Hope,NM,32.81,-104.73
88252,Jal,NM,32.11,-103.18
88253,Lake Arthur,NM,32.99,-104.36
88256,Loving,NM,32.28,-104.09
88260,Lovington,NM,32.94,-103.35
88264,Maljamar,NM,32.85,-103.76
88265,Monument,NM,32.62,-103.26
88267,Tatum,NM,33.25,-103.31
88301,Carrizozo,NM,33.64,-105.88
88310,Alamogordo,NM,32.88,-105.95
88312,Alto,NM,33.39,-105.68
88314,Bent,NM,33.15,-105.88
88316,Capitan,NM,33.54,-105.59
88317,Cloudcroft,NM,32.95,-105.73
88318,Corona,NM,34.24,-105.59
88321,Encino,NM,34.65,-105.45
88324,Glencoe,NM,33.4,-105.44
88330,Holloman Air Force Base,NM,32.83,-106.11
88336,Hondo,NM,33.38,-105.27
88337,La Luz,NM,32.97,-105.93
88338,Lincoln,NM,33.49,-105.38
88339,Mayhill,NM,32.88,-105.47
88340,Mescalero,NM,33.15,-105.79
88341,Nogal,NM,33.55,-105.7
88343,Picacho,NM,33.35,-105.14
88344,Pinon,NM,32.61,-105.39
88345,Ruidoso,NM,33.36,-105.64
88346,Ruidoso Downs,NM,33.33,-105.6
88347,Sacramento,NM,32.79,-105.56
88348,San Patricio,NM,33.4,-105.32
88351,Tinnie,NM,33.27,-105.13
88352,Tularosa,NM,33.07,-106.02
88354,Weed,NM,32.8,-105.51
88401,Tucumcari,NM,35.16,-103.72
88410,Amistad,NM,35.91,-103.15
88411,Bard,NM,35.12,-103.3
88414,Capulin,NM,36.74,-103.99
88415,Clayton,NM,36.45,-103.17
88417,Cuervo,NM,35.03,-104.4
88418,Des Moines,NM,36.76,-103.83
88419,Folsom,NM,36.84,-103.91
88421,Garita,NM,35.35,-104.48
88422,Gladstone,NM,36.3,-103.97
88424,Grenville,NM,36.59,-103.61
88426,Logan,NM,35.36,-103.44
88427,Mcalister,NM,34.74,-103.66
88430,Nara Visa,NM,35.6,-103.09
88431,Newkirk,NM,35.06,-104.26
88433,Quay,NM,34.93,-103.76
88434,San Jon,NM,35.11,-103.32
88435,Santa Rosa,NM,34.94,-104.67
88436,Sedan,NM,36.14,-103.13
88439,Trementina,NM,35.47,-104.52
89001,Alamo,NV,37.27,-115.2
89002,Henderson,NV,36,-114.96
89005,Boulder City,NV,35.91,-114.8
89008,Caliente,NV,37.32,-114.53
89010,Dyer,NV,37.68,-117.93
89011,Henderson,NV,36.09,-114.9
89012,Henderson,NV,36,-115.04
89013,Goldfield,NV,37.53,-117.51
89014,Henderson,NV,36.05,-115.05
89015,Henderson,NV,36.01,-114.95
89017,Hiko,NV,37.72,-115.33
89019,Jean,NV,35.75,-115.53
89020,Amargosa Valley,NV,36.53,-116.47
89027,Mesquite,NV,36.78,-114.14
89029,Laughlin,NV,35.1,-114.71
89030,North Las Vegas,NV,36.21,-115.12
89031,North Las Vegas,NV,36.27,-115.13
89032,North Las Vegas,NV,36.22,-115.16
89033,North Las Vegas,NV,36.3,-115.14
89034,Mesquite,NV,36.81,-114.07
89037,Coyote Springs,NV,36.54,-114.44
89039,Cal Nev Ari,NV,35.24,-114.87
89040,Overton,NV,36.39,-114.37
89043,Pioche,NV,38.1,-114.38
89044,Henderson,NV,35.88,-115.04
89045,Round Mountain,NV,38.79,-117.11
89046,Searchlight,NV,35.49,-114.89
89048,Pahrump,NV,36.36,-116.15
89049,Tonopah,NV,38.35,-116.61
89052,Henderson,NV,35.98,-115.11
89054,Sloan,NV,35.93,-115.22
89060,Pahrump,NV,36.29,-116.09
89061,Pahrump,NV,36.08,-115.92
89067,Coyote Springs,NV,36.54,-114.44
89074,Henderson,NV,36.03,-115.07
89081,North Las Vegas,NV,36.25,-115.08
89084,North Las Vegas,NV,36.3,-115.15
89085,North Las Vegas,NV,36.31,-115.2
89086,North Las Vegas,NV,36.28,-115.13
89087,North Las Vegas,NV,36.2,-115.12
89101,Las Vegas,NV,36.17,-115.12
89102,Las Vegas,NV,36.14,-115.18
89103,Las Vegas,NV,36.11,-115.21
89104,Las Vegas,NV,36.15,-115.11
89106,Las Vegas,NV,36.18,-115.17
89107,Las Vegas,NV,36.17,-115.2
89108,Las Vegas,NV,36.21,-115.21
89109,Las Vegas,NV,36.11,-115.12
89110,Las Vegas,NV,36.17,-115.05
89113,Las Vegas,NV,36.06,-115.27
89115,Las Vegas,NV,36.23,-115.05
89117,Las Vegas,NV,36.14,-115.27
89118,Las Vegas,NV,36.07,-115.21
89119,Las Vegas,NV,36.08,-115.14
89120,Las Vegas,NV,36.07,-115.08
89121,Las Vegas,NV,36.12,-115.08
89122,Las Vegas,NV,36.1,-115.02
89123,Las Vegas,NV,36,-115.14
89124,Las Vegas,NV,36.16,-115.43
89128,Las Vegas,NV,36.19,-115.26
89129,Las Vegas,NV,36.23,-115.29
89130,Las Vegas,NV,36.24,-115.23
89131,Las Vegas,NV,36.3,-115.24
89134,Las Vegas,NV,36.19,-115.31
89135,Las Vegas,NV,36.09,-115.38
89138,Las Vegas,NV,36.18,-115.38
89139,Las Vegas,NV,36.03,-115.21
89141,Las Vegas,NV,35.97,-115.21
89142,Las Vegas,NV,36.14,-115.03
89143,Las Vegas,NV,36.31,-115.29
89144,Las Vegas,NV,36.17,-115.31
89145,Las Vegas,NV,36.16,-115.28
89146,Las Vegas,NV,36.14,-115.22
89147,Las Vegas,NV,36.11,-115.27
89148,Las Vegas,NV,36.06,-115.31
89149,Las Vegas,NV,36.28,-115.28
89156,Las Vegas,NV,36.22,-115.03
89158,Las Vegas,NV,36.2,-115.22
89161,Las Vegas,NV,35.99,-115.4
89165,Las Vegas,NV,35.99,-115.09
89166,Las Vegas,NV,36.32,-115.35
89169,Las Vegas,NV,36.12,-115.13
89178,Las Vegas,NV,35.9,-115.33
89179,Las Vegas,NV,35.99,-115.25
89183,Las Vegas,NV,35.99,-115.15
89199,Las Vegas,NV,36.15,-115.1
89301,Ely,NV,39.42,-115
89310,Austin,NV,39.54,-117.19
89311,Baker,NV,38.9,-114.2
89314,Duckwater,NV,38.86,-115.73
89316,Eureka,NV,39.82,-116.19
89403,Dayton,NV,39.26,-119.48
89406,Fallon,NV,39.5,-118.29
89408,Fernley,NV,39.66,-119.06
89410,Gardnerville,NV,38.75,-119.61
89413,Glenbrook,NV,39.05,-119.92
89414,Golconda,NV,40.93,-117.33
89415,Hawthorne,NV,38.65,-118.83
89418,Imlay,NV,40.59,-118.06
89419,Lovelock,NV,40.32,-118.2
89420,Luning,NV,38.47,-118.3
89423,Minden,NV,39.01,-119.75
89425,Orovada,NV,41.63,-118
89429,Silver Springs,NV,39.37,-119.26
89430,Smith,NV,38.8,-119.32
89431,Sparks,NV,39.53,-119.73
89433,Sun Valley,NV,39.59,-119.77
89434,Sparks,NV,39.53,-119.41
89436,Sparks,NV,39.64,-119.69
89441,Sparks,NV,39.68,-119.68
89444,Wellington,NV,38.7,-119.32
89445,Winnemucca,NV,41.12,-118.05
89447,Yerington,NV,38.87,-119.14
89451,Incline Village,NV,39.24,-119.92
89460,Gardnerville,NV,38.91,-119.79
89501,Reno,NV,39.52,-119.81
89502,Reno,NV,39.48,-119.74
89503,Reno,NV,39.54,-119.84
89506,Reno,NV,39.76,-119.86
89508,Reno,NV,39.52,-119.81
89509,Reno,NV,39.49,-119.84
89510,Reno,NV,39.91,-119.68
89511,Reno,NV,39.38,-119.87
89512,Reno,NV,39.55,-119.8
89519,Reno,NV,39.52,-119.81
89521,Reno,NV,39.38,-119.67
89523,Reno,NV,39.49,-119.9
89701,Carson City,NV,39.14,-119.71
89703,Carson City,NV,39.16,-119.86
89704,Washoe Valley,NV,39.26,-119.79
89705,Carson City,NV,39.05,-119.83
89706,Carson City,NV,39.21,-119.71
89801,Elko,NV,40.95,-115.79
89815,Spring Creek,NV,40.55,-115.61
89820,Battle Mountain,NV,40.47,-117.03
89821,Crescent Valley,NV,40.52,-116.36
89822,Carlin,NV,40.73,-116.1
89823,Deeth,NV,41.4,-115.48
89825,Jackpot,NV,41.85,-114.75
89828,Lamoille,NV,40.76,-115.41
89831,Mountain City,NV,41.77,-116.08
89833,Ruby Valley,NV,40.49,-115.32
89834,Tuscarora,NV,41.45,-116.27
89835,Wells,NV,41.35,-114.8
90001,Los Angeles,CA,33.97,-118.24
90002,Los Angeles,CA,33.94,-118.24
90003,Los Angeles,CA,33.96,-118.27
90004,Los Angeles,CA,34.07,-118.31
90005,Los Angeles,CA,34.05,-118.31
90006,Los Angeles,CA,34.04,-118.29
90007,Los Angeles,CA,34.02,-118.28
90008,Los Angeles,CA,34,-118.34
90010,Los Angeles,CA,34.06,-118.31
90011,Los Angeles,CA,34,-118.25
90012,Los Angeles,CA,34.06,-118.24
90013,Los Angeles,CA,34.04,-118.24
90014,Los Angeles,CA,34.04,-118.25
90015,Los Angeles,CA,34.03,-118.26
90016,Los Angeles,CA,34.02,-118.35
90017,Los Angeles,CA,34.05,-118.26
90018,Los Angeles,CA,34.02,-118.31
90019,Los Angeles,CA,34.04,-118.34
90020,Los Angeles,CA,34.06,-118.31
90021,Los Angeles,CA,34.03,-118.24
90022,Los Angeles,CA,34.02,-118.15
90023,Los Angeles,CA,34.01,-118.2
90024,Los Angeles,CA,34.06,-118.43
90025,Los Angeles,CA,34.04,-118.44
90026,Los Angeles,CA,34.07,-118.26
90027,Los Angeles,CA,34.12,-118.28
90028,Los Angeles,CA,34.1,-118.32
90029,Los Angeles,CA,34.09,-118.29
90031,Los Angeles,CA,34.08,-118.2
90032,Los Angeles,CA,34.08,-118.17
90033,Los Angeles,CA,34.04,-118.21
90034,Los Angeles,CA,34.02,-118.39
90035,Los Angeles,CA,34.05,-118.38
90036,Los Angeles,CA,34.06,-118.35
90037,Los Angeles,CA,34,-118.28
90038,Los Angeles,CA,34.08,-118.32
90039,Los Angeles,CA,34.11,-118.26
90040,Los Angeles,CA,33.99,-118.14
90041,Los Angeles,CA,34.13,-118.2
90042,Los Angeles,CA,34.11,-118.19
90043,Los Angeles,CA,33.98,-118.33
90044,Los Angeles,CA,33.95,-118.29
90045,Los Angeles,CA,33.95,-118.4
90046,Los Angeles,CA,34.1,-118.37
90047,Los Angeles,CA,33.95,-118.3
90048,Los Angeles,CA,34.07,-118.37
90049,Los Angeles,CA,34.08,-118.49
90056,Los Angeles,CA,33.98,-118.37
90057,Los Angeles,CA,34.06,-118.27
90058,Los Angeles,CA,34,-118.21
90059,Los Angeles,CA,33.92,-118.24
90061,Los Angeles,CA,33.92,-118.27
90062,Los Angeles,CA,34,-118.3
90063,Los Angeles,CA,34.04,-118.18
90064,Los Angeles,CA,34.03,-118.43
90065,Los Angeles,CA,34.1,-118.22
90066,Los Angeles,CA,34,-118.43
90067,Los Angeles,CA,34.05,-118.41
90068,Los Angeles,CA,34.13,-118.33
90069,West Hollywood,CA,34.09,-118.38
90071,Los Angeles,CA,34.05,-118.25
90077,Los Angeles,CA,34.1,-118.45
90079,Los Angeles,CA,34.04,-118.25
90094,Playa Vista,CA,33.97,-118.43
90099,Los Angeles,CA,34.06,-118.23
90101,Los Angeles,CA,33.99,-118.16
90201,Bell Gardens,CA,33.97,-118.15
90210,Beverly Hills,CA,34.09,-118.41
90211,Beverly Hills,CA,34.06,-118.38
90212,Beverly Hills,CA,34.06,-118.4
90220,Compton,CA,33.87,-118.24
90221,Compton,CA,33.87,-118.21
90222,Compton,CA,33.91,-118.23
90230,Culver City,CA,33.99,-118.39
90232,Culver City,CA,34.02,-118.39
90240,Downey,CA,33.95,-118.12
90241,Downey,CA,33.94,-118.13
90242,Downey,CA,33.92,-118.14
90245,El Segundo,CA,33.91,-118.4
90247,Gardena,CA,33.89,-118.29
90248,Gardena,CA,33.88,-118.27
90249,Gardena,CA,33.89,-118.31
90250,Hawthorne,CA,33.91,-118.34
90254,Hermosa Beach,CA,33.86,-118.39
90255,Huntington Park,CA,33.97,-118.21
90260,Lawndale,CA,33.88,-118.35
90261,Lawndale,CA,33.89,-118.37
90262,Lynwood,CA,33.92,-118.2
90263,Malibu,CA,34.03,-118.7
90265,Malibu,CA,34.06,-118.81
90266,Manhattan Beach,CA,33.88,-118.4
90270,Maywood,CA,33.98,-118.18
90272,Pacific Palisades,CA,34.07,-118.54
90274,Palos Verdes Peninsula,CA,33.77,-118.34
90275,Rancho Palos Verdes,CA,33.75,-118.31
90277,Redondo Beach,CA,33.83,-118.38
90278,Redondo Beach,CA,33.87,-118.37
90280,South Gate,CA,33.94,-118.2
90290,Topanga,CA,34.1,-118.6
90291,Venice,CA,33.99,-118.46
90292,Marina Del Rey,CA,33.97,-118.43
90293,Playa Del Rey,CA,33.94,-118.44
90301,Inglewood,CA,33.95,-118.36
90302,Inglewood,CA,33.97,-118.35
90303,Inglewood,CA,33.93,-118.33
90304,Inglewood,CA,33.93,-118.36
90305,Inglewood,CA,33.95,-118.33
90311,Inglewood,CA,33.95,-118.35
90401,Santa Monica,CA,34.01,-118.49
90402,Santa Monica,CA,34.03,-118.5
90403,Santa Monica,CA,34.03,-118.49
90404,Santa Monica,CA,34.02,-118.47
90405,Santa Monica,CA,34.01,-118.46
90501,Torrance,CA,33.83,-118.31
90502,Torrance,CA,33.83,-118.29
90503,Torrance,CA,33.84,-118.35
90504,Torrance,CA,33.86,-118.33
90505,Torrance,CA,33.8,-118.35
90506,Torrance,CA,33.88,-118.33
90601,Whittier,CA,34,-118.03
90602,Whittier,CA,33.97,-118.01
90603,Whittier,CA,33.94,-117.99
90604,Whittier,CA,33.93,-118
90605,Whittier,CA,33.94,-118.03
90606,Whittier,CA,33.98,-118.06
90620,Buena Park,CA,33.84,-118
90621,Buena Park,CA,33.87,-117.99
90623,La Palma,CA,33.85,-118.04
90630,Cypress,CA,33.81,-118.03
90631,La Habra,CA,33.94,-117.95
90638,La Mirada,CA,33.9,-118
90640,Montebello,CA,34,-118.1
90650,Norwalk,CA,33.9,-118.07
90660,Pico Rivera,CA,33.98,-118.08
90670,Santa Fe Springs,CA,33.92,-118.06
90680,Stanton,CA,33.79,-117.99
90701,Artesia,CA,33.86,-118.08
90703,Cerritos,CA,33.86,-118.05
90706,Bellflower,CA,33.88,-118.13
90710,Harbor City,CA,33.79,-118.29
90712,Lakewood,CA,33.84,-118.14
90713,Lakewood,CA,33.85,-118.11
90715,Lakewood,CA,33.84,-118.07
90716,Hawaiian Gardens,CA,33.83,-118.07
90717,Lomita,CA,33.79,-118.31
90720,Los Alamitos,CA,33.79,-118.06
90723,Paramount,CA,33.89,-118.16
90731,San Pedro,CA,33.73,-118.29
90732,San Pedro,CA,33.73,-118.31
90740,Seal Beach,CA,33.75,-118.07
90744,Wilmington,CA,33.77,-118.26
90745,Carson,CA,33.82,-118.26
90746,Carson,CA,33.86,-118.25
90755,Signal Hill,CA,33.8,-118.16
90802,Long Beach,CA,33.75,-118.2
90803,Long Beach,CA,33.75,-118.13
90804,Long Beach,CA,33.78,-118.14
90805,Long Beach,CA,33.86,-118.18
90806,Long Beach,CA,33.81,-118.18
90807,Long Beach,CA,33.83,-118.18
90808,Long Beach,CA,33.82,-118.11
90810,Long Beach,CA,33.81,-118.22
90813,Long Beach,CA,33.78,-118.18
90814,Long Beach,CA,33.77,-118.14
90815,Long Beach,CA,33.79,-118.12
90822,Long Beach,CA,33.77,-118.11
90831,Long Beach,CA,33.76,-118.2
90833,Long Beach,CA,33.76,-118.2
90834,Long Beach,CA,33.76,-118.2
90835,Long Beach,CA,33.76,-118.2
91001,Altadena,CA,34.2,-118.13
91006,Arcadia,CA,34.13,-118.02
91007,Arcadia,CA,34.12,-118.05
91008,Duarte,CA,34.14,-117.96
91010,Duarte,CA,34.13,-117.94
91011,La Canada Flintridge,CA,34.23,-118.14
91016,Monrovia,CA,34.15,-117.99
91020,Montrose,CA,34.21,-118.23
91024,Sierra Madre,CA,34.2,-118.05
91030,South Pasadena,CA,34.11,-118.15
91040,Sunland,CA,34.26,-118.32
91042,Tujunga,CA,34.29,-118.25
91101,Pasadena,CA,34.14,-118.13
91103,Pasadena,CA,34.17,-118.17
91104,Pasadena,CA,34.16,-118.12
91105,Pasadena,CA,34.14,-118.16
91106,Pasadena,CA,34.13,-118.13
91107,Pasadena,CA,34.16,-118.08
91108,San Marino,CA,34.12,-118.11
91201,Glendale,CA,34.17,-118.29
91202,Glendale,CA,34.16,-118.26
91203,Glendale,CA,34.15,-118.26
91204,Glendale,CA,34.13,-118.26
91205,Glendale,CA,34.13,-118.24
91206,Glendale,CA,34.16,-118.2
91207,Glendale,CA,34.18,-118.25
91208,Glendale,CA,34.19,-118.24
91210,Glendale,CA,34.14,-118.25
91214,La Crescenta,CA,34.23,-118.24
91301,Agoura Hills,CA,34.12,-118.76
91302,Calabasas,CA,34.11,-118.67
91303,Canoga Park,CA,34.19,-118.6
91304,Canoga Park,CA,34.22,-118.59
91306,Winnetka,CA,34.2,-118.57
91307,West Hills,CA,34.2,-118.69
91311,Chatsworth,CA,34.28,-118.61
91316,Encino,CA,34.15,-118.52
91320,Newbury Park,CA,34.17,-118.95
91321,Newhall,CA,34.36,-118.47
91324,Northridge,CA,34.24,-118.55
91325,Northridge,CA,34.23,-118.51
91326,Porter Ranch,CA,34.28,-118.55
91331,Pacoima,CA,34.25,-118.41
91335,Reseda,CA,34.2,-118.54
91340,San Fernando,CA,34.28,-118.44
91342,Sylmar,CA,34.32,-118.38
91343,North Hills,CA,34.23,-118.47
91344,Granada Hills,CA,34.29,-118.5
91345,Mission Hills,CA,34.27,-118.45
91350,Santa Clarita,CA,34.43,-118.51
91351,Canyon Country,CA,34.43,-118.46
91352,Sun Valley,CA,34.23,-118.34
91354,Valencia,CA,34.46,-118.57
91355,Valencia,CA,34.41,-118.56
91356,Tarzana,CA,34.15,-118.54
91360,Thousand Oaks,CA,34.21,-118.88
91361,Westlake Village,CA,34.14,-118.89
91362,Thousand Oaks,CA,34.19,-118.81
91364,Woodland Hills,CA,34.15,-118.6
91367,Woodland Hills,CA,34.17,-118.61
91377,Oak Park,CA,34.19,-118.76
91381,Stevenson Ranch,CA,34.37,-118.61
91382,Santa Clarita,CA,34.41,-118.51
91383,Santa Clarita,CA,34.36,-118.45
91384,Castaic,CA,34.51,-118.68
91387,Canyon Country,CA,34.4,-118.4
91390,Santa Clarita,CA,34.53,-118.4
91401,Van Nuys,CA,34.17,-118.43
91402,Panorama City,CA,34.22,-118.44
91403,Sherman Oaks,CA,34.14,-118.46
91405,Van Nuys,CA,34.2,-118.44
91406,Van Nuys,CA,34.19,-118.49
91411,Van Nuys,CA,34.17,-118.46
91423,Sherman Oaks,CA,34.14,-118.42
91436,Encino,CA,34.15,-118.49
91501,Burbank,CA,34.19,-118.29
91502,Burbank,CA,34.17,-118.31
91504,Burbank,CA,34.2,-118.3
91505,Burbank,CA,34.17,-118.34
91506,Burbank,CA,34.17,-118.32
91601,North Hollywood,CA,34.16,-118.37
91602,North Hollywood,CA,34.15,-118.36
91604,Studio City,CA,34.13,-118.39
91605,North Hollywood,CA,34.2,-118.39
91606,North Hollywood,CA,34.18,-118.39
91607,Valley Village,CA,34.16,-118.4
91608,Universal City,CA,34.13,-118.35
91701,Rancho Cucamonga,CA,34.14,-117.61
91702,Azusa,CA,34.17,-117.87
91706,Baldwin Park,CA,34.09,-117.96
91708,Chino,CA,34.02,-117.68
91709,Chino Hills,CA,33.94,-117.72
91710,Chino,CA,33.98,-117.65
91711,Claremont,CA,34.12,-117.71
91722,Covina,CA,34.09,-117.9
91723,Covina,CA,34.08,-117.88
91724,Covina,CA,34.07,-117.84
91730,Rancho Cucamonga,CA,34.09,-117.58
91731,El Monte,CA,34.08,-118.03
91732,El Monte,CA,34.07,-118.01
91733,South El Monte,CA,34.04,-118.04
91737,Rancho Cucamonga,CA,34.19,-117.61
91739,Rancho Cucamonga,CA,34.14,-117.51
91740,Glendora,CA,34.11,-117.85
91741,Glendora,CA,34.14,-117.85
91744,La Puente,CA,34.02,-117.93
91745,Hacienda Heights,CA,34,-117.97
91746,La Puente,CA,34.04,-117.98
91748,Rowland Heights,CA,33.97,-117.9
91750,La Verne,CA,34.15,-117.76
91752,Mira Loma,CA,33.99,-117.53
91754,Monterey Park,CA,34.05,-118.14
91755,Monterey Park,CA,34.05,-118.11
91758,Ontario,CA,34.05,-117.6
91761,Ontario,CA,34.02,-117.58
91762,Ontario,CA,34.04,-117.67
91763,Montclair,CA,34.07,-117.7
91764,Ontario,CA,34.07,-117.62
91765,Diamond Bar,CA,33.99,-117.81
91766,Pomona,CA,34.03,-117.75
91767,Pomona,CA,34.08,-117.73
91768,Pomona,CA,34.06,-117.79
91770,Rosemead,CA,34.06,-118.08
91773,San Dimas,CA,34.1,-117.81
91775,San Gabriel,CA,34.11,-118.08
91776,San Gabriel,CA,34.08,-118.09
91780,Temple City,CA,34.1,-118.05
91784,Upland,CA,34.14,-117.65
91786,Upland,CA,34.1,-117.66
91789,Walnut,CA,34.01,-117.85
91790,West Covina,CA,34.06,-117.94
91791,West Covina,CA,34.06,-117.89
91792,West Covina,CA,34.02,-117.89
91801,Alhambra,CA,34.09,-118.13
91803,Alhambra,CA,34.07,-118.14
91804,Alhambra,CA,34.09,-118.12
91901,Alpine,CA,32.8,-116.71
91902,Bonita,CA,32.67,-117.01
91905,Boulevard,CA,32.67,-116.31
91906,Campo,CA,32.68,-116.47
91910,Chula Vista,CA,32.63,-117.05
91911,Chula Vista,CA,32.61,-117.03
91913,Chula Vista,CA,32.64,-116.98
91914,Chula Vista,CA,32.66,-116.94
91915,Chula Vista,CA,32.6,-116.93
91916,Descanso,CA,32.9,-116.62
91917,Dulzura,CA,32.62,-116.67
91932,Imperial Beach,CA,32.57,-117.11
91934,Jacumba,CA,32.63,-116.18
91935,Jamul,CA,32.69,-116.8
91941,La Mesa,CA,32.75,-116.99
91942,La Mesa,CA,32.78,-117.01
91945,Lemon Grove,CA,32.73,-117.03
91950,National City,CA,32.67,-117.09
91962,Pine Valley,CA,32.78,-116.48
91963,Potrero,CA,32.63,-116.59
91977,Spring Valley,CA,32.71,-116.99
91978,Spring Valley,CA,32.71,-116.94
91980,Tecate,CA,32.59,-116.58
92003,Bonsall,CA,33.28,-117.19
92004,Borrego Springs,CA,33.17,-116.27
92007,Cardiff By The Sea,CA,33.01,-117.27
92008,Carlsbad,CA,33.13,-117.3
92009,Carlsbad,CA,33.09,-117.27
92010,Carlsbad,CA,33.15,-117.28
92011,Carlsbad,CA,33.1,-117.29
92014,Del Mar,CA,32.96,-117.25
92019,El Cajon,CA,32.77,-116.86
92020,El Cajon,CA,32.79,-116.96
92021,El Cajon,CA,32.84,-116.88
92024,Encinitas,CA,33.05,-117.25
92025,Escondido,CA,33.09,-116.94
92026,Escondido,CA,33.22,-117.1
92027,Escondido,CA,33.13,-116.98
92028,Fallbrook,CA,33.39,-117.29
92029,Escondido,CA,33.08,-117.13
92036,Julian,CA,32.99,-116.41
92037,La Jolla,CA,32.86,-117.24
92040,Lakeside,CA,32.9,-116.89
92054,Oceanside,CA,33.35,-117.43
92055,Camp Pendleton,CA,33.29,-117.3
92056,Oceanside,CA,33.2,-117.29
92057,Oceanside,CA,33.27,-117.28
92058,Oceanside,CA,33.18,-117.29
92059,Pala,CA,33.38,-117.07
92061,Pauma Valley,CA,33.3,-116.92
92064,Poway,CA,32.97,-117.02
92065,Ramona,CA,33.07,-116.83
92066,Ranchita,CA,33.21,-116.47
92069,San Marcos,CA,33.15,-117.17
92070,Santa Ysabel,CA,33.18,-116.73
92071,Santee,CA,32.85,-116.99
92075,Solana Beach,CA,32.99,-117.25
92078,San Marcos,CA,33.11,-117.16
92081,Vista,CA,33.18,-117.24
92082,Valley Center,CA,33.25,-116.98
92083,Vista,CA,33.18,-117.24
92084,Vista,CA,33.21,-117.2
92086,Warner Springs,CA,33.28,-116.6
92091,Rancho Santa Fe,CA,33.05,-117.19
92101,San Diego,CA,32.71,-117.16
92102,San Diego,CA,32.72,-117.09
92103,San Diego,CA,32.74,-117.17
92104,San Diego,CA,32.73,-117.12
92105,San Diego,CA,32.73,-117.08
92106,San Diego,CA,32.72,-117.23
92107,San Diego,CA,32.73,-117.24
92108,San Diego,CA,32.77,-117.1
92109,San Diego,CA,32.79,-117.23
92110,San Diego,CA,32.77,-117.18
92111,San Diego,CA,32.8,-117.16
92113,San Diego,CA,32.69,-117.11
92114,San Diego,CA,32.71,-117.05
92115,San Diego,CA,32.75,-117.07
92116,San Diego,CA,32.76,-117.12
92117,San Diego,CA,32.81,-117.19
92118,Coronado,CA,32.65,-117.14
92119,San Diego,CA,32.81,-117.03
92120,San Diego,CA,32.79,-117.06
92121,San Diego,CA,32.9,-117.2
92122,San Diego,CA,32.85,-117.2
92123,San Diego,CA,32.8,-117.13
92124,San Diego,CA,32.82,-117.08
92126,San Diego,CA,32.88,-117.13
92127,San Diego,CA,33.02,-117.12
92128,San Diego,CA,32.99,-117.07
92129,San Diego,CA,32.96,-117.12
92130,San Diego,CA,32.95,-117.19
92131,San Diego,CA,32.89,-117.07
92133,San Diego,CA,32.72,-117.21
92135,San Diego,CA,32.7,-117.18
92139,San Diego,CA,32.68,-117.04
92154,San Diego,CA,32.56,-117.01
92173,San Ysidro,CA,32.55,-117.04
92194,San Diego,CA,32.8,-117.13
92197,San Diego,CA,32.83,-117.2
92199,San Diego,CA,32.99,-117.07
92201,Indio,CA,33.71,-116.23
92203,Indio,CA,33.75,-116.23
92210,Indian Wells,CA,33.7,-116.33
92211,Palm Desert,CA,33.77,-116.34
92220,Banning,CA,33.92,-116.83
92223,Beaumont,CA,33.94,-116.97
92225,Blythe,CA,33.75,-114.51
92227,Brawley,CA,33.02,-115.45
92230,Cabazon,CA,33.93,-116.77
92231,Calexico,CA,32.69,-115.51
92233,Calipatria,CA,33.13,-115.52
92234,Cathedral City,CA,33.82,-116.45
92236,Coachella,CA,33.7,-116.17
92240,Desert Hot Springs,CA,33.92,-116.48
92241,Desert Hot Springs,CA,33.83,-116.29
92242,Earp,CA,34.15,-114.33
92243,El Centro,CA,32.77,-115.6
92249,Heber,CA,32.73,-115.47
92250,Holtville,CA,32.83,-115.19
92251,Imperial,CA,32.86,-115.65
92252,Joshua Tree,CA,34.15,-116.27
92253,La Quinta,CA,33.65,-116.27
92254,Mecca,CA,33.55,-115.97
92256,Morongo Valley,CA,34.1,-116.58
92257,Niland,CA,33.3,-115.55
92260,Palm Desert,CA,33.7,-116.4
92262,Palm Springs,CA,33.85,-116.56
92264,Palm Springs,CA,33.72,-116.51
92267,Parker Dam,CA,34.28,-114.18
92270,Rancho Mirage,CA,33.78,-116.41
92274,Thermal,CA,33.48,-116.1
92276,Thousand Palms,CA,33.8,-116.36
92277,Twentynine Palms,CA,34.24,-115.86
92278,Twentynine Palms,CA,34.27,-116.1
92280,Vidal,CA,34.14,-114.52
92281,Westmorland,CA,33.03,-115.55
92282,Whitewater,CA,33.94,-116.65
92283,Winterhaven,CA,32.87,-114.72
92284,Yucca Valley,CA,34.15,-116.41
92285,Landers,CA,34.33,-116.51
92292,Palm Springs,CA,33.83,-116.54
92301,Adelanto,CA,34.66,-117.51
92305,Angelus Oaks,CA,34.18,-116.86
92307,Apple Valley,CA,34.57,-117.15
92308,Apple Valley,CA,34.42,-117.14
92309,Baker,CA,35.31,-116.04
92310,Fort Irwin,CA,35.3,-116.74
92311,Barstow,CA,34.97,-116.99
92313,Grand Terrace,CA,34.03,-117.31
92314,Big Bear City,CA,34.26,-116.84
92315,Big Bear Lake,CA,34.23,-116.86
92316,Bloomington,CA,34.06,-117.39
92320,Calimesa,CA,33.97,-117.05
92323,Cima,CA,35.2,-115.42
92324,Colton,CA,34.01,-117.27
92327,Daggett,CA,34.86,-116.81
92328,Death Valley,CA,36.29,-116.45
92332,Essex,CA,34.96,-115.31
92335,Fontana,CA,34.08,-117.46
92336,Fontana,CA,34.14,-117.45
92337,Fontana,CA,34.05,-117.46
92338,Ludlow,CA,34.72,-116.15
92339,Forest Falls,CA,34.08,-116.9
92342,Helendale,CA,34.74,-117.35
92344,Hesperia,CA,34.39,-117.39
92345,Hesperia,CA,34.36,-117.32
92346,Highland,CA,34.13,-117.15
92347,Hinkley,CA,34.95,-117.18
92354,Loma Linda,CA,34.05,-117.24
92356,Lucerne Valley,CA,34.52,-116.88
92358,Lytle Creek,CA,34.25,-117.54
92359,Mentone,CA,34.1,-117.04
92363,Needles,CA,34.78,-114.59
92364,Nipton,CA,35.49,-115.45
92365,Newberry Springs,CA,34.85,-116.51
92366,Mountain Pass,CA,35.47,-115.52
92368,Oro Grande,CA,34.65,-117.29
92371,Phelan,CA,34.42,-117.48
92372,Pinon Hills,CA,34.47,-117.62
92373,Redlands,CA,34,-117.12
92374,Redlands,CA,34.06,-117.17
92376,Rialto,CA,34.1,-117.38
92377,Rialto,CA,34.16,-117.39
92392,Victorville,CA,34.49,-117.36
92394,Victorville,CA,34.57,-117.33
92395,Victorville,CA,34.48,-117.36
92397,Wrightwood,CA,34.36,-117.61
92399,Yucaipa,CA,34.04,-117.01
92401,San Bernardino,CA,34.1,-117.29
92403,San Bernardino,CA,34.1,-117.27
92404,San Bernardino,CA,34.17,-117.24
92405,San Bernardino,CA,34.14,-117.3
92407,San Bernardino,CA,34.22,-117.37
92408,San Bernardino,CA,34.07,-117.25
92410,San Bernardino,CA,34.1,-117.27
92411,San Bernardino,CA,34.12,-117.32
92501,Riverside,CA,33.99,-117.38
92503,Riverside,CA,33.89,-117.44
92504,Riverside,CA,33.9,-117.4
92505,Riverside,CA,33.93,-117.49
92506,Riverside,CA,33.92,-117.36
92507,Riverside,CA,33.96,-117.31
92508,Riverside,CA,33.89,-117.32
92509,Riverside,CA,33.99,-117.44
92518,March Air Reserve Base,CA,33.89,-117.27
92530,Lake Elsinore,CA,33.68,-117.37
92532,Lake Elsinore,CA,33.71,-117.34
92536,Aguanga,CA,33.5,-116.81
92539,Anza,CA,33.53,-116.68
92543,Hemet,CA,33.66,-116.98
92544,Hemet,CA,33.64,-116.83
92545,Hemet,CA,33.73,-117.05
92548,Homeland,CA,33.75,-117.11
92549,Idyllwild,CA,33.76,-116.73
92551,Moreno Valley,CA,33.87,-117.22
92553,Moreno Valley,CA,33.92,-117.24
92555,Moreno Valley,CA,33.9,-117.1
92557,Moreno Valley,CA,33.97,-117.25
92561,Mountain Center,CA,33.63,-116.59
92562,Murrieta,CA,33.54,-117.33
92563,Murrieta,CA,33.57,-117.14
92567,Nuevo,CA,33.82,-117.1
92570,Perris,CA,33.78,-117.33
92571,Perris,CA,33.83,-117.2
92582,San Jacinto,CA,33.81,-117.02
92583,San Jacinto,CA,33.79,-116.93
92584,Menifee,CA,33.65,-117.18
92585,Sun City,CA,33.74,-117.18
92586,Sun City,CA,33.7,-117.19
92587,Sun City,CA,33.69,-117.24
92590,Temecula,CA,33.48,-117.22
92591,Temecula,CA,33.53,-117.1
92592,Temecula,CA,33.53,-117.04
92595,Wildomar,CA,33.62,-117.25
92596,Winchester,CA,33.63,-117.07
92602,Irvine,CA,33.74,-117.76
92603,Irvine,CA,33.62,-117.79
92604,Irvine,CA,33.69,-117.78
92606,Irvine,CA,33.7,-117.79
92610,Foothill Ranch,CA,33.7,-117.67
92612,Irvine,CA,33.63,-117.81
92614,Irvine,CA,33.68,-117.85
92617,Irvine,CA,33.63,-117.83
92618,Irvine,CA,33.67,-117.73
92620,Irvine,CA,33.7,-117.76
92624,Capistrano Beach,CA,33.45,-117.66
92625,Corona Del Mar,CA,33.6,-117.86
92626,Costa Mesa,CA,33.67,-117.9
92627,Costa Mesa,CA,33.64,-117.91
92629,Dana Point,CA,33.47,-117.7
92630,Lake Forest,CA,33.64,-117.67
92637,Laguna Woods,CA,33.61,-117.72
92646,Huntington Beach,CA,33.66,-117.97
92647,Huntington Beach,CA,33.72,-118
92648,Huntington Beach,CA,33.67,-118
92649,Huntington Beach,CA,33.71,-118.04
92651,Laguna Beach,CA,33.55,-117.78
92653,Laguna Hills,CA,33.6,-117.71
92655,Midway City,CA,33.74,-117.98
92656,Aliso Viejo,CA,33.57,-117.72
92657,Newport Coast,CA,33.6,-117.82
92660,Newport Beach,CA,33.62,-117.87
92661,Newport Beach,CA,33.6,-117.9
92662,Newport Beach,CA,33.6,-117.89
92663,Newport Beach,CA,33.62,-117.93
92672,San Clemente,CA,33.42,-117.62
92673,San Clemente,CA,33.48,-117.61
92675,San Juan Capistrano,CA,33.52,-117.61
92676,Silverado,CA,33.75,-117.63
92677,Laguna Niguel,CA,33.53,-117.7
92679,Trabuco Canyon,CA,33.61,-117.54
92683,Westminster,CA,33.74,-117.99
92688,Rancho Santa Margarita,CA,33.61,-117.61
92691,Mission Viejo,CA,33.6,-117.66
92692,Mission Viejo,CA,33.6,-117.64
92694,Ladera Ranch,CA,33.56,-117.63
92701,Santa Ana,CA,33.75,-117.85
92703,Santa Ana,CA,33.74,-117.89
92704,Santa Ana,CA,33.71,-117.9
92705,Santa Ana,CA,33.76,-117.79
92706,Santa Ana,CA,33.76,-117.88
92707,Santa Ana,CA,33.71,-117.87
92708,Fountain Valley,CA,33.71,-117.94
92780,Tustin,CA,33.74,-117.82
92782,Tustin,CA,33.75,-117.77
92799,Santa Ana,CA,33.71,-117.9
92801,Anaheim,CA,33.84,-117.95
92802,Anaheim,CA,33.81,-117.91
92804,Anaheim,CA,33.81,-117.97
92805,Anaheim,CA,33.82,-117.91
92806,Anaheim,CA,33.83,-117.86
92807,Anaheim,CA,33.85,-117.79
92808,Anaheim,CA,33.84,-117.73
92809,Anaheim,CA,33.86,-117.74
92821,Brea,CA,33.92,-117.86
92823,Brea,CA,33.92,-117.8
92831,Fullerton,CA,33.87,-117.89
92832,Fullerton,CA,33.86,-117.92
92833,Fullerton,CA,33.88,-117.96
92835,Fullerton,CA,33.9,-117.91
92840,Garden Grove,CA,33.78,-117.93
92841,Garden Grove,CA,33.78,-117.97
92843,Garden Grove,CA,33.75,-117.94
92844,Garden Grove,CA,33.76,-117.97
92845,Garden Grove,CA,33.78,-118.02
92860,Norco,CA,33.93,-117.56
92861,Villa Park,CA,33.81,-117.81
92862,Orange,CA,33.79,-117.71
92865,Orange,CA,33.83,-117.85
92866,Orange,CA,33.78,-117.84
92867,Orange,CA,33.81,-117.79
92868,Orange,CA,33.78,-117.86
92869,Orange,CA,33.79,-117.78
92870,Placentia,CA,33.88,-117.85
92879,Corona,CA,33.87,-117.53
92880,Corona,CA,33.9,-117.61
92881,Corona,CA,33.83,-117.5
92882,Corona,CA,33.83,-117.6
92883,Corona,CA,33.75,-117.48
92886,Yorba Linda,CA,33.89,-117.78
92887,Yorba Linda,CA,33.88,-117.72
92899,Anaheim,CA,33.83,-117.87
93001,Ventura,CA,34.33,-119.31
93003,Ventura,CA,34.28,-119.22
93004,Ventura,CA,34.27,-119.16
93010,Camarillo,CA,34.23,-119.07
93012,Camarillo,CA,34.2,-118.98
93013,Carpinteria,CA,34.43,-119.52
93015,Fillmore,CA,34.4,-118.83
93021,Moorpark,CA,34.31,-118.87
93022,Oak View,CA,34.4,-119.3
93023,Ojai,CA,34.51,-119.29
93030,Oxnard,CA,34.19,-119.17
93033,Oxnard,CA,34.14,-119.1
93035,Oxnard,CA,34.19,-119.23
93036,Oxnard,CA,34.25,-119.16
93041,Port Hueneme,CA,34.11,-119.11
93060,Santa Paula,CA,34.4,-119.07
93063,Simi Valley,CA,34.3,-118.72
93065,Simi Valley,CA,34.25,-118.78
93066,Somis,CA,34.29,-119.03
93093,Simi Valley,CA,34.27,-118.71
93101,Santa Barbara,CA,34.41,-119.7
93103,Santa Barbara,CA,34.43,-119.68
93105,Santa Barbara,CA,34.01,-119.72
93108,Santa Barbara,CA,34.44,-119.61
93109,Santa Barbara,CA,34.4,-119.72
93110,Santa Barbara,CA,34.43,-119.77
93111,Santa Barbara,CA,34.45,-119.8
93117,Goleta,CA,34.5,-120.12
93202,Armona,CA,36.31,-119.71
93203,Arvin,CA,35.08,-118.79
93204,Avenal,CA,35.92,-120.1
93205,Bodfish,CA,35.52,-118.4
93206,Buttonwillow,CA,35.43,-119.49
93207,California Hot Springs,CA,35.87,-118.65
93210,Coalinga,CA,36.19,-120.39
93212,Corcoran,CA,36.07,-119.53
93215,Delano,CA,35.78,-119.23
93219,Earlimart,CA,35.86,-119.28
93221,Exeter,CA,36.28,-119.03
93223,Farmersville,CA,36.3,-119.19
93224,Fellows,CA,35.21,-119.56
93225,Frazier Park,CA,34.8,-119.01
93226,Glennville,CA,35.72,-118.72
93230,Hanford,CA,36.27,-119.63
93234,Huron,CA,36.2,-120.09
93235,Ivanhoe,CA,36.38,-119.22
93238,Kernville,CA,35.83,-118.45
93239,Kettleman City,CA,35.99,-119.99
93240,Lake Isabella,CA,35.64,-118.46
93241,Lamont,CA,35.25,-118.91
93242,Laton,CA,36.43,-119.69
93243,Lebec,CA,34.86,-118.87
93244,Lemon Cove,CA,36.46,-118.98
93245,Lemoore,CA,36.29,-119.82
93247,Lindsay,CA,36.2,-119.08
93249,Lost Hills,CA,35.61,-119.9
93250,Mc Farland,CA,35.65,-119.19
93251,Mc Kittrick,CA,35.41,-119.76
93252,Maricopa,CA,34.84,-119.27
93254,New Cuyama,CA,34.98,-119.8
93255,Onyx,CA,35.68,-118.07
93256,Pixley,CA,35.95,-119.31
93257,Porterville,CA,35.96,-118.92
93260,Posey,CA,35.88,-118.59
93262,Sequoia National Park,CA,36.53,-118.72
93263,Shafter,CA,35.49,-119.3
93265,Springville,CA,36.17,-118.7
93266,Stratford,CA,36.17,-119.81
93267,Strathmore,CA,36.14,-119.09
93268,Taft,CA,35.17,-119.36
93270,Terra Bella,CA,35.93,-119.03
93271,Three Rivers,CA,36.44,-118.86
93272,Tipton,CA,36.04,-119.34
93274,Tulare,CA,36.18,-119.36
93277,Visalia,CA,36.29,-119.38
93280,Wasco,CA,35.64,-119.44
93283,Weldon,CA,35.44,-118.25
93285,Wofford Heights,CA,35.7,-118.5
93286,Woodlake,CA,36.46,-119.1
93287,Woody,CA,35.73,-118.92
93291,Visalia,CA,36.4,-119.38
93292,Visalia,CA,36.37,-119.18
93301,Bakersfield,CA,35.38,-119.02
93304,Bakersfield,CA,35.33,-119.02
93305,Bakersfield,CA,35.39,-118.98
93306,Bakersfield,CA,35.43,-118.83
93307,Bakersfield,CA,35.2,-118.86
93308,Bakersfield,CA,35.54,-118.91
93309,Bakersfield,CA,35.34,-119.07
93311,Bakersfield,CA,35.18,-119.21
93312,Bakersfield,CA,35.38,-119.22
93313,Bakersfield,CA,35.15,-119.06
93314,Bakersfield,CA,35.38,-119.2
93381,Bakersfield,CA,35.37,-119.01
93382,Bakersfield,CA,35.25,-119
93401,San Luis Obispo,CA,35.25,-120.62
93402,Los Osos,CA,35.29,-120.81
93405,San Luis Obispo,CA,35.27,-120.69
93407,San Luis Obispo,CA,35.29,-120.66
93410,San Luis Obispo,CA,35.27,-120.73
93420,Arroyo Grande,CA,35.16,-120.43
93422,Atascadero,CA,35.45,-120.71
93426,Bradley,CA,35.85,-120.8
93427,Buellton,CA,34.61,-120.22
93428,Cambria,CA,35.59,-121.01
93430,Cayucos,CA,35.48,-120.92
93432,Creston,CA,35.47,-120.48
93433,Grover Beach,CA,35.12,-120.61
93434,Guadalupe,CA,34.93,-120.59
93436,Lompoc,CA,34.6,-120.39
93437,Lompoc,CA,34.77,-120.53
93442,Morro Bay,CA,35.38,-120.78
93444,Nipomo,CA,35.05,-120.48
93445,Oceano,CA,35.06,-120.6
93446,Paso Robles,CA,35.61,-120.76
93449,Pismo Beach,CA,35.15,-120.66
93450,San Ardo,CA,36,-120.87
93451,San Miguel,CA,35.89,-120.6
93452,San Simeon,CA,35.69,-121.2
93453,Santa Margarita,CA,35.31,-120.27
93454,Santa Maria,CA,34.91,-120.23
93455,Santa Maria,CA,34.82,-120.41
93458,Santa Maria,CA,34.95,-120.5
93460,Santa Ynez,CA,34.64,-120.02
93461,Shandon,CA,35.63,-120.26
93463,Solvang,CA,34.61,-120.14
93465,Templeton,CA,35.54,-120.75
93501,Mojave,CA,35.09,-118.13
93505,California City,CA,35.15,-117.92
93510,Acton,CA,34.49,-118.22
93512,Benton,CA,37.87,-118.54
93513,Big Pine,CA,37.18,-118.18
93514,Bishop,CA,37.5,-118.31
93516,Boron,CA,34.96,-117.67
93517,Bridgeport,CA,38.27,-119.33
93518,Caliente,CA,35.4,-118.51
93523,Edwards,CA,34.96,-117.87
93526,Independence,CA,36.83,-118.24
93527,Inyokern,CA,35.88,-118.15
93529,June Lake,CA,37.77,-119.06
93531,Keene,CA,35.23,-118.62
93532,Lake Hughes,CA,34.69,-118.52
93534,Lancaster,CA,34.72,-118.15
93535,Lancaster,CA,34.69,-117.9
93536,Lancaster,CA,34.72,-118.48
93543,Littlerock,CA,34.48,-117.92
93544,Llano,CA,34.49,-117.77
93545,Lone Pine,CA,36.56,-118.18
93546,Mammoth Lakes,CA,37.58,-118.84
93550,Palmdale,CA,34.52,-118.08
93551,Palmdale,CA,34.61,-118.27
93552,Palmdale,CA,34.5,-118.01
93553,Pearblossom,CA,34.48,-117.88
93555,Ridgecrest,CA,35.55,-117.67
93560,Rosamond,CA,34.92,-118.4
93561,Tehachapi,CA,35.12,-118.51
93562,Trona,CA,35.73,-117.36
93563,Valyermo,CA,34.39,-117.74
93591,Palmdale,CA,34.61,-117.81
93601,Ahwahnee,CA,37.39,-119.73
93602,Auberry,CA,37,-119.15
93603,Badger,CA,36.6,-118.92
93604,Bass Lake,CA,37.38,-119.51
93608,Cantua Creek,CA,36.45,-120.45
93609,Caruthers,CA,36.52,-119.87
93610,Chowchilla,CA,37.07,-120.27
93611,Clovis,CA,36.93,-119.56
93612,Clovis,CA,36.81,-119.71
93614,Coarsegold,CA,37.17,-119.71
93615,Cutler,CA,36.49,-119.28
93616,Del Rey,CA,36.65,-119.59
93618,Dinuba,CA,36.52,-119.39
93619,Clovis,CA,36.91,-119.58
93620,Dos Palos,CA,37.07,-120.63
93621,Dunlap,CA,36.79,-119.13
93622,Firebaugh,CA,36.85,-120.54
93623,Fish Camp,CA,37.47,-119.66
93625,Fowler,CA,36.62,-119.67
93626,Friant,CA,37.02,-119.69
93628,Hume,CA,36.8,-118.89
93630,Kerman,CA,36.71,-120.15
93631,Kingsburg,CA,36.48,-119.5
93635,Los Banos,CA,36.9,-121.02
93636,Madera,CA,36.93,-119.83
93637,Madera,CA,36.91,-120.19
93638,Madera,CA,37.01,-119.94
93640,Mendota,CA,36.67,-120.43
93641,Miramonte,CA,36.7,-119.04
93643,North Fork,CA,37.23,-119.49
93644,Oakhurst,CA,37.4,-119.61
93645,O Neals,CA,37.16,-119.62
93646,Orange Cove,CA,36.64,-119.29
93647,Orosi,CA,36.58,-119.19
93648,Parlier,CA,36.62,-119.51
93650,Fresno,CA,36.83,-119.79
93651,Prather,CA,37,-119.5
93652,Raisin City,CA,36.59,-119.9
93653,Raymond,CA,37.25,-119.96
93654,Reedley,CA,36.65,-119.4
93656,Riverdale,CA,36.48,-119.94
93657,Sanger,CA,36.79,-119.44
93660,San Joaquin,CA,36.59,-120.19
93662,Selma,CA,36.53,-119.64
93664,Shaver Lake,CA,37.06,-119.04
93667,Tollhouse,CA,36.96,-119.3
93668,Tranquillity,CA,36.65,-120.28
93669,Wishon,CA,37.26,-119.52
93675,Squaw Valley,CA,36.74,-119.19
93701,Fresno,CA,36.74,-119.79
93702,Fresno,CA,36.74,-119.75
93703,Fresno,CA,36.76,-119.76
93704,Fresno,CA,36.8,-119.8
93705,Fresno,CA,36.78,-119.82
93706,Fresno,CA,36.64,-119.91
93710,Fresno,CA,36.81,-119.75
93711,Fresno,CA,36.84,-119.82
93720,Fresno,CA,36.88,-119.77
93721,Fresno,CA,36.73,-119.78
93722,Fresno,CA,36.79,-119.92
93723,Fresno,CA,36.77,-119.95
93725,Fresno,CA,36.6,-119.75
93726,Fresno,CA,36.79,-119.76
93727,Fresno,CA,36.75,-119.67
93728,Fresno,CA,36.75,-119.81
93730,Fresno,CA,36.9,-119.75
93737,Fresno,CA,36.74,-119.65
93901,Salinas,CA,36.64,-121.62
93905,Salinas,CA,36.67,-121.61
93906,Salinas,CA,36.72,-121.63
93907,Salinas,CA,36.76,-121.65
93908,Salinas,CA,36.61,-121.62
93920,Big Sur,CA,36.08,-121.6
93923,Carmel,CA,36.46,-121.82
93924,Carmel Valley,CA,36.39,-121.65
93925,Chualar,CA,36.57,-121.44
93926,Gonzales,CA,36.54,-121.39
93927,Greenfield,CA,36.26,-121.37
93930,King City,CA,36.2,-120.94
93933,Marina,CA,36.67,-121.79
93940,Monterey,CA,36.6,-121.88
93943,Monterey,CA,36.57,-121.83
93950,Pacific Grove,CA,36.61,-121.92
93953,Pebble Beach,CA,36.58,-121.94
93955,Seaside,CA,36.62,-121.82
93960,Soledad,CA,36.39,-121.3
94002,Belmont,CA,37.5,-122.3
94005,Brisbane,CA,37.68,-122.41
94010,Burlingame,CA,37.56,-122.37
94014,Daly City,CA,37.68,-122.43
94015,Daly City,CA,37.67,-122.47
94019,Half Moon Bay,CA,37.44,-122.41
94020,La Honda,CA,37.28,-122.24
94021,Loma Mar,CA,37.27,-122.26
94022,Los Altos,CA,37.36,-122.14
94024,Los Altos,CA,37.34,-122.11
94025,Menlo Park,CA,37.45,-122.17
94027,Atherton,CA,37.44,-122.2
94028,Portola Valley,CA,37.37,-122.21
94030,Millbrae,CA,37.59,-122.4
94038,Moss Beach,CA,37.51,-122.5
94040,Mountain View,CA,37.38,-122.08
94041,Mountain View,CA,37.38,-122.07
94043,Mountain View,CA,37.41,-122.05
94044,Pacifica,CA,37.6,-122.45
94060,Pescadero,CA,37.2,-122.3
94061,Redwood City,CA,37.46,-122.24
94062,Redwood City,CA,37.4,-122.29
94063,Redwood City,CA,37.49,-122.21
94065,Redwood City,CA,37.53,-122.24
94066,San Bruno,CA,37.62,-122.43
94070,San Carlos,CA,37.49,-122.26
94074,San Gregorio,CA,37.33,-122.34
94080,South San Francisco,CA,37.65,-122.42
94085,Sunnyvale,CA,37.38,-122.01
94086,Sunnyvale,CA,37.36,-122.02
94087,Sunnyvale,CA,37.35,-122.03
94089,Sunnyvale,CA,37.42,-122
94101,San Francisco,CA,37.77,-122.41
94102,San Francisco,CA,37.77,-122.41
94103,San Francisco,CA,37.77,-122.41
94104,San Francisco,CA,37.79,-122.4
94105,San Francisco,CA,37.78,-122.39
94107,San Francisco,CA,37.76,-122.39
94108,San Francisco,CA,37.79,-122.4
94109,San Francisco,CA,37.79,-122.42
94110,San Francisco,CA,37.74,-122.41
94111,San Francisco,CA,37.79,-122.39
94112,San Francisco,CA,37.72,-122.44
94114,San Francisco,CA,37.75,-122.43
94115,San Francisco,CA,37.78,-122.43
94116,San Francisco,CA,37.74,-122.48
94117,San Francisco,CA,37.76,-122.44
94118,San Francisco,CA,37.78,-122.46
94121,San Francisco,CA,37.77,-122.49
94122,San Francisco,CA,37.76,-122.48
94123,San Francisco,CA,37.8,-122.43
94124,San Francisco,CA,37.73,-122.38
94127,San Francisco,CA,37.73,-122.45
94128,San Francisco,CA,37.61,-122.38
94129,San Francisco,CA,37.79,-122.46
94130,San Francisco,CA,37.81,-122.36
94131,San Francisco,CA,37.74,-122.44
94132,San Francisco,CA,37.72,-122.48
94133,San Francisco,CA,37.8,-122.41
94134,San Francisco,CA,37.72,-122.41
94158,San Francisco,CA,37.76,-122.39
94301,Palo Alto,CA,37.44,-122.15
94303,Palo Alto,CA,37.45,-122.1
94304,Palo Alto,CA,37.37,-122.18
94305,Stanford,CA,37.41,-122.17
94306,Palo Alto,CA,37.41,-122.13
94401,San Mateo,CA,37.57,-122.32
94402,San Mateo,CA,37.52,-122.35
94403,San Mateo,CA,37.54,-122.3
94404,San Mateo,CA,37.55,-122.26
94501,Alameda,CA,37.77,-122.27
94502,Alameda,CA,37.73,-122.24
94503,American Canyon,CA,38.18,-122.25
94505,Discovery Bay,CA,37.86,-121.64
94506,Danville,CA,37.78,-121.88
94507,Alamo,CA,37.84,-121.97
94508,Angwin,CA,38.57,-122.44
94509,Antioch,CA,37.99,-121.81
94510,Benicia,CA,38.11,-122.13
94512,Birds Landing,CA,38.12,-121.81
94513,Brentwood,CA,37.87,-121.68
94514,Byron,CA,37.85,-121.62
94515,Calistoga,CA,38.62,-122.61
94517,Clayton,CA,37.88,-121.84
94518,Concord,CA,37.95,-122.02
94519,Concord,CA,37.99,-122
94520,Concord,CA,38,-122.03
94521,Concord,CA,37.97,-121.96
94523,Pleasant Hill,CA,37.95,-122.07
94525,Crockett,CA,38.04,-122.23
94526,Danville,CA,37.81,-121.97
94530,El Cerrito,CA,37.91,-122.3
94531,Antioch,CA,37.96,-121.76
94533,Fairfield,CA,38.28,-122
94534,Fairfield,CA,38.23,-122.12
94535,Travis Afb,CA,38.26,-121.93
94536,Fremont,CA,37.56,-121.98
94538,Fremont,CA,37.5,-121.96
94539,Fremont,CA,37.51,-121.89
94541,Hayward,CA,37.67,-122.08
94542,Hayward,CA,37.65,-122.04
94544,Hayward,CA,37.63,-122.04
94545,Hayward,CA,37.62,-122.11
94546,Castro Valley,CA,37.7,-122.08
94547,Hercules,CA,38.01,-122.25
94549,Lafayette,CA,37.9,-122.11
94550,Livermore,CA,37.68,-121.75
94551,Livermore,CA,37.77,-121.75
94552,Castro Valley,CA,37.69,-122.01
94553,Martinez,CA,37.98,-122.15
94555,Fremont,CA,37.55,-122.07
94556,Moraga,CA,37.83,-122.1
94558,Napa,CA,38.55,-122.15
94559,Napa,CA,38.23,-122.29
94560,Newark,CA,37.51,-122.04
94561,Oakley,CA,37.99,-121.68
94563,Orinda,CA,37.89,-122.19
94564,Pinole,CA,37.99,-122.27
94565,Pittsburg,CA,38,-121.83
94566,Pleasanton,CA,37.65,-121.85
94567,Pope Valley,CA,38.67,-122.44
94568,Dublin,CA,37.71,-121.91
94571,Rio Vista,CA,38.18,-121.73
94572,Rodeo,CA,38.03,-122.23
94574,Saint Helena,CA,38.55,-122.39
94576,Deer Park,CA,38.55,-122.47
94577,San Leandro,CA,37.71,-122.16
94578,San Leandro,CA,37.7,-122.12
94579,San Leandro,CA,37.68,-122.15
94580,San Lorenzo,CA,37.68,-122.13
94582,San Ramon,CA,37.76,-121.93
94583,San Ramon,CA,37.78,-121.99
94585,Suisun City,CA,38.16,-121.93
94586,Sunol,CA,37.56,-121.84
94587,Union City,CA,37.59,-122.06
94588,Pleasanton,CA,37.67,-121.93
94589,Vallejo,CA,38.13,-122.25
94590,Vallejo,CA,38.09,-122.25
94591,Vallejo,CA,38.11,-122.2
94592,Vallejo,CA,38.11,-122.29
94595,Walnut Creek,CA,37.86,-122.07
94596,Walnut Creek,CA,37.89,-122.03
94597,Walnut Creek,CA,37.91,-122.07
94598,Walnut Creek,CA,37.91,-122.01
94599,Yountville,CA,38.41,-122.36
94601,Oakland,CA,37.77,-122.21
94602,Oakland,CA,37.8,-122.21
94603,Oakland,CA,37.73,-122.17
94605,Oakland,CA,37.75,-122.13
94606,Oakland,CA,37.78,-122.24
94607,Oakland,CA,37.81,-122.3
94608,Emeryville,CA,37.83,-122.29
94609,Oakland,CA,37.83,-122.26
94610,Oakland,CA,37.81,-122.24
94611,Oakland,CA,37.83,-122.22
94612,Oakland,CA,37.8,-122.27
94615,Oakland,CA,37.8,-122.29
94617,Oakland,CA,37.75,-122.14
94618,Oakland,CA,37.84,-122.23
94619,Oakland,CA,37.78,-122.12
94621,Oakland,CA,37.73,-122.2
94702,Berkeley,CA,37.86,-122.28
94703,Berkeley,CA,37.86,-122.27
94704,Berkeley,CA,37.86,-122.25
94705,Berkeley,CA,37.86,-122.24
94706,Albany,CA,37.88,-122.29
94707,Berkeley,CA,37.9,-122.28
94708,Berkeley,CA,37.9,-122.26
94709,Berkeley,CA,37.87,-122.26
94710,Berkeley,CA,37.87,-122.3
94801,Richmond,CA,37.96,-122.38
94803,El Sobrante,CA,37.95,-122.26
94804,Richmond,CA,37.92,-122.34
94805,Richmond,CA,37.94,-122.31
94806,San Pablo,CA,37.98,-122.33
94850,Richmond,CA,37.94,-122.38
94901,San Rafael,CA,37.97,-122.5
94903,San Rafael,CA,38.02,-122.54
94904,Greenbrae,CA,37.94,-122.56
94920,Belvedere Tiburon,CA,37.89,-122.47
94922,Bodega,CA,38.33,-122.97
94923,Bodega Bay,CA,38.35,-123.06
94924,Bolinas,CA,37.94,-122.73
94925,Corte Madera,CA,37.92,-122.51
94928,Rohnert Park,CA,38.34,-122.7
94930,Fairfax,CA,37.98,-122.6
94931,Cotati,CA,38.31,-122.7
94937,Inverness,CA,38.11,-122.92
94939,Larkspur,CA,37.93,-122.53
94940,Marshall,CA,38.16,-122.84
94941,Mill Valley,CA,37.89,-122.56
94945,Novato,CA,38.13,-122.56
94946,Nicasio,CA,38.07,-122.68
94947,Novato,CA,38.1,-122.63
94949,Novato,CA,38.06,-122.54
94951,Penngrove,CA,38.31,-122.64
94952,Petaluma,CA,38.21,-122.76
94954,Petaluma,CA,38.23,-122.56
94956,Point Reyes Station,CA,38.07,-122.86
94960,San Anselmo,CA,37.99,-122.58
94965,Sausalito,CA,37.84,-122.53
94970,Stinson Beach,CA,37.91,-122.66
94972,Valley Ford,CA,38.29,-122.94
94974,San Quentin,CA,37.95,-122.54
94999,Petaluma,CA,38.32,-122.64
95003,Aptos,CA,37,-121.87
95004,Aromas,CA,36.87,-121.63
95005,Ben Lomond,CA,37.1,-122.08
95006,Boulder Creek,CA,37.16,-122.15
95008,Campbell,CA,37.28,-121.95
95010,Capitola,CA,36.97,-121.95
95012,Castroville,CA,36.76,-121.75
95014,Cupertino,CA,37.3,-122.09
95017,Davenport,CA,37.09,-122.24
95018,Felton,CA,37.08,-122.05
95019,Freedom,CA,36.93,-121.78
95020,Gilroy,CA,37.06,-121.55
95023,Hollister,CA,36.89,-121.24
95030,Los Gatos,CA,37.22,-121.99
95032,Los Gatos,CA,37.23,-121.95
95033,Los Gatos,CA,37.13,-121.94
95035,Milpitas,CA,37.44,-121.87
95037,Morgan Hill,CA,37.17,-121.65
95039,Moss Landing,CA,36.84,-121.77
95043,Paicines,CA,36.53,-120.96
95045,San Juan Bautista,CA,36.83,-121.51
95046,San Martin,CA,37.1,-121.6
95050,Santa Clara,CA,37.34,-121.95
95051,Santa Clara,CA,37.35,-121.98
95054,Santa Clara,CA,37.39,-121.96
95060,Santa Cruz,CA,37.04,-122.1
95062,Santa Cruz,CA,36.97,-121.98
95064,Santa Cruz,CA,36.98,-122.06
95065,Santa Cruz,CA,37.03,-121.98
95066,Scotts Valley,CA,37.06,-122.01
95070,Saratoga,CA,37.25,-122.06
95073,Soquel,CA,37.02,-121.94
95075,Tres Pinos,CA,36.77,-121.29
95076,Watsonville,CA,36.95,-121.72
95101,San Jose,CA,37.38,-121.89
95110,San Jose,CA,37.34,-121.9
95111,San Jose,CA,37.28,-121.83
95112,San Jose,CA,37.34,-121.88
95113,San Jose,CA,37.33,-121.89
95116,San Jose,CA,37.35,-121.85
95117,San Jose,CA,37.31,-121.96
95118,San Jose,CA,37.25,-121.88
95119,San Jose,CA,37.22,-121.78
95120,San Jose,CA,37.19,-121.83
95121,San Jose,CA,37.3,-121.8
95122,San Jose,CA,37.33,-121.83
95123,San Jose,CA,37.23,-121.82
95124,San Jose,CA,37.25,-121.92
95125,San Jose,CA,37.29,-121.88
95126,San Jose,CA,37.32,-121.91
95127,San Jose,CA,37.37,-121.75
95128,San Jose,CA,37.31,-121.93
95129,San Jose,CA,37.3,-122
95130,San Jose,CA,37.28,-121.98
95131,San Jose,CA,37.38,-121.9
95132,San Jose,CA,37.42,-121.77
95133,San Jose,CA,37.37,-121.86
95134,San Jose,CA,37.42,-121.94
95135,San Jose,CA,37.25,-121.67
95136,San Jose,CA,37.27,-121.84
95138,San Jose,CA,37.24,-121.73
95139,San Jose,CA,37.21,-121.75
95140,Mount Hamilton,CA,37.36,-121.67
95141,San Jose,CA,37.17,-121.75
95148,San Jose,CA,37.33,-121.77
95202,Stockton,CA,37.95,-121.28
95203,Stockton,CA,37.95,-121.32
95204,Stockton,CA,37.97,-121.32
95205,Stockton,CA,37.96,-121.26
95206,Stockton,CA,37.9,-121.4
95207,Stockton,CA,38,-121.32
95209,Stockton,CA,38.04,-121.35
95210,Stockton,CA,38.02,-121.3
95212,Stockton,CA,38.04,-121.2
95215,Stockton,CA,37.95,-121.12
95219,Stockton,CA,38.01,-121.38
95220,Acampo,CA,38.19,-121.25
95222,Angels Camp,CA,38.04,-120.61
95223,Arnold,CA,38.35,-120.2
95228,Copperopolis,CA,37.94,-120.66
95230,Farmington,CA,37.96,-120.87
95231,French Camp,CA,37.86,-121.29
95232,Glencoe,CA,38.35,-120.58
95236,Linden,CA,38.05,-121.03
95237,Lockeford,CA,38.17,-121.13
95240,Lodi,CA,38.11,-121.16
95242,Lodi,CA,38.13,-121.39
95245,Mokelumne Hill,CA,38.29,-120.58
95246,Mountain Ranch,CA,38.23,-120.49
95247,Murphys,CA,38.14,-120.45
95249,San Andreas,CA,38.2,-120.62
95250,San Andreas,CA,38.25,-120.38
95251,Vallecito,CA,38.1,-120.43
95252,Valley Springs,CA,38.16,-120.84
95255,West Point,CA,38.42,-120.44
95257,Wilseyville,CA,38.38,-120.44
95258,Woodbridge,CA,38.16,-121.29
95301,Atwater,CA,37.32,-120.63
95303,Ballico,CA,37.47,-120.65
95304,Tracy,CA,37.69,-121.39
95306,Catheys Valley,CA,37.38,-120.12
95307,Ceres,CA,37.55,-120.96
95310,Columbia,CA,38.11,-120.38
95311,Coulterville,CA,37.71,-120.12
95313,Crows Landing,CA,37.39,-121.05
95314,Pinecrest,CA,38.34,-119.83
95315,Delhi,CA,37.42,-120.77
95316,Denair,CA,37.54,-120.68
95317,El Nido,CA,37.12,-120.51
95320,Escalon,CA,37.83,-121.03
95321,Groveland,CA,37.85,-119.76
95322,Gustine,CA,37.14,-121.04
95323,Hickman,CA,37.6,-120.68
95324,Hilmar,CA,37.39,-120.89
95325,Hornitos,CA,37.43,-120.24
95326,Hughson,CA,37.59,-120.85
95327,Jamestown,CA,37.85,-120.49
95328,Keyes,CA,37.55,-120.91
95329,La Grange,CA,37.66,-120.45
95330,Lathrop,CA,37.82,-121.29
95333,Le Grand,CA,37.25,-120.2
95334,Livingston,CA,37.34,-120.75
95335,Long Barn,CA,38.12,-120.08
95336,Manteca,CA,37.83,-121.18
95337,Manteca,CA,37.73,-121.24
95338,Mariposa,CA,37.49,-120
95340,Merced,CA,37.29,-120.48
95341,Merced,CA,37.33,-120.48
95343,Merced,CA,37.29,-120.48
95345,Midpines,CA,37.58,-119.97
95346,Mi Wuk Village,CA,38.1,-120.13
95348,Merced,CA,37.41,-120.5
95350,Modesto,CA,37.67,-121.01
95351,Modesto,CA,37.63,-121.01
95354,Modesto,CA,37.63,-120.97
95355,Modesto,CA,37.67,-120.95
95356,Modesto,CA,37.72,-121.03
95357,Modesto,CA,37.67,-120.89
95358,Modesto,CA,37.65,-121.13
95360,Newman,CA,37.28,-121.2
95361,Oakdale,CA,37.8,-120.74
95363,Patterson,CA,37.49,-121.25
95364,Pinecrest,CA,38.28,-119.82
95365,Planada,CA,37.32,-120.3
95366,Ripon,CA,37.75,-121.12
95367,Riverbank,CA,37.73,-120.95
95368,Salida,CA,37.71,-121.09
95369,Snelling,CA,37.54,-120.45
95370,Sonora,CA,37.98,-120.39
95372,Soulsbyville,CA,37.99,-120.25
95374,Stevinson,CA,37.3,-120.87
95376,Tracy,CA,37.73,-121.42
95377,Tracy,CA,37.62,-121.45
95379,Tuolumne,CA,37.95,-120.2
95380,Turlock,CA,37.47,-120.85
95382,Turlock,CA,37.53,-120.84
95383,Twain Harte,CA,38.08,-120.24
95385,Vernalis,CA,37.61,-121.25
95386,Waterford,CA,37.68,-120.64
95388,Winton,CA,37.41,-120.59
95389,Yosemite National Park,CA,37.69,-119.59
95391,Tracy,CA,37.76,-121.63
95401,Santa Rosa,CA,38.44,-122.78
95403,Santa Rosa,CA,38.5,-122.76
95404,Santa Rosa,CA,38.45,-122.68
95405,Santa Rosa,CA,38.43,-122.67
95407,Santa Rosa,CA,38.39,-122.75
95409,Santa Rosa,CA,38.45,-122.59
95410,Albion,CA,39.21,-123.69
95412,Annapolis,CA,38.71,-123.33
95415,Boonville,CA,38.99,-123.36
95417,Branscomb,CA,39.69,-123.61
95420,Caspar,CA,39.36,-123.78
95421,Cazadero,CA,38.56,-123.2
95422,Clearlake,CA,38.96,-122.64
95423,Clearlake Oaks,CA,39.05,-122.55
95425,Cloverdale,CA,38.78,-122.92
95427,Comptche,CA,39.24,-123.53
95428,Covelo,CA,39.82,-123.16
95429,Dos Rios,CA,39.73,-123.33
95432,Elk,CA,39.12,-123.62
95436,Forestville,CA,38.48,-122.9
95437,Fort Bragg,CA,39.47,-123.63
95439,Fulton,CA,38.49,-122.77
95441,Geyserville,CA,38.74,-123.13
95442,Glen Ellen,CA,38.38,-122.52
95443,Glenhaven,CA,39.04,-122.74
95444,Graton,CA,38.43,-122.86
95445,Gualala,CA,38.82,-123.51
95446,Guerneville,CA,38.52,-123.01
95448,Healdsburg,CA,38.63,-122.89
95449,Hopland,CA,38.93,-123.11
95450,Jenner,CA,38.51,-123.21
95451,Kelseyville,CA,38.91,-122.79
95452,Kenwood,CA,38.42,-122.54
95453,Lakeport,CA,39.04,-122.93
95454,Laytonville,CA,39.8,-123.5
95456,Little River,CA,39.25,-123.73
95457,Lower Lake,CA,38.88,-122.55
95458,Lucerne,CA,39.12,-122.76
95459,Manchester,CA,39,-123.62
95460,Mendocino,CA,39.3,-123.73
95461,Middletown,CA,38.78,-122.58
95462,Monte Rio,CA,38.45,-123.01
95463,Navarro,CA,39.21,-123.54
95464,Nice,CA,39.12,-122.84
95465,Occidental,CA,38.41,-123.01
95466,Philo,CA,39.07,-123.52
95467,Hidden Valley Lake,CA,38.8,-122.55
95468,Point Arena,CA,38.91,-123.58
95469,Potter Valley,CA,39.37,-123.02
95470,Redwood Valley,CA,39.32,-123.23
95472,Sebastopol,CA,38.4,-122.86
95476,Sonoma,CA,38.24,-122.46
95480,Stewarts Point,CA,38.64,-123.37
95482,Ukiah,CA,39.12,-123.28
95485,Upper Lake,CA,39.26,-122.96
95488,Westport,CA,39.72,-123.77
95490,Willits,CA,39.49,-123.36
95492,Windsor,CA,38.53,-122.81
95493,Witter Springs,CA,39.2,-122.98
95494,Yorkville,CA,38.88,-123.29
95501,Eureka,CA,40.8,-124.15
95503,Eureka,CA,40.71,-124.11
95511,Alderpoint,CA,40.18,-123.6
95514,Blocksburg,CA,40.31,-123.65
95519,Mckinleyville,CA,40.94,-124.02
95521,Arcata,CA,40.85,-124.05
95524,Bayside,CA,40.81,-124.01
95525,Blue Lake,CA,40.96,-123.85
95526,Bridgeville,CA,40.42,-123.52
95527,Burnt Ranch,CA,40.95,-123.43
95528,Carlotta,CA,40.48,-123.95
95531,Crescent City,CA,41.78,-124.16
95536,Ferndale,CA,40.45,-124.26
95540,Fortuna,CA,40.57,-124.15
95542,Garberville,CA,40.22,-123.97
95543,Gasquet,CA,41.84,-123.85
95546,Hoopa,CA,41.11,-123.64
95547,Hydesville,CA,40.56,-124.07
95548,Klamath,CA,41.59,-124.06
95549,Kneeland,CA,40.67,-123.88
95550,Korbel,CA,40.76,-123.82
95551,Loleta,CA,40.68,-124.22
95552,Mad River,CA,40.37,-123.44
95554,Myers Flat,CA,40.27,-123.82
95555,Orick,CA,41.35,-124.04
95558,Petrolia,CA,40.24,-124.21
95560,Redway,CA,40.15,-123.89
95562,Rio Dell,CA,40.46,-124.13
95564,Samoa,CA,40.79,-124.19
95565,Scotia,CA,40.42,-124.01
95567,Smith River,CA,41.93,-124.08
95568,Somes Bar,CA,41.47,-123.46
95569,Redcrest,CA,40.37,-123.84
95570,Trinidad,CA,41.13,-124.04
95573,Willow Creek,CA,40.94,-123.65
95585,Leggett,CA,39.87,-123.69
95587,Piercy,CA,39.95,-123.74
95589,Whitethorn,CA,40.07,-123.92
95595,Zenia,CA,40.16,-123.4
95602,Auburn,CA,39,-121.09
95603,Auburn,CA,38.92,-121.07
95605,West Sacramento,CA,38.59,-121.54
95606,Brooks,CA,38.8,-122.18
95607,Capay,CA,38.69,-122.12
95608,Carmichael,CA,38.62,-121.32
95610,Citrus Heights,CA,38.69,-121.26
95612,Clarksburg,CA,38.37,-121.58
95614,Cool,CA,38.88,-120.98
95615,Courtland,CA,38.31,-121.54
95616,Davis,CA,38.48,-121.64
95618,Davis,CA,38.53,-121.66
95619,Diamond Springs,CA,38.67,-120.81
95620,Dixon,CA,38.39,-121.81
95621,Citrus Heights,CA,38.69,-121.31
95623,El Dorado,CA,38.6,-120.84
95624,Elk Grove,CA,38.44,-121.3
95626,Elverta,CA,38.73,-121.46
95627,Esparto,CA,38.78,-122.12
95628,Fair Oaks,CA,38.65,-121.25
95629,Fiddletown,CA,38.52,-120.7
95630,Folsom,CA,38.67,-121.14
95631,Foresthill,CA,39.03,-120.82
95632,Galt,CA,38.27,-121.22
95633,Garden Valley,CA,38.84,-120.83
95634,Georgetown,CA,38.93,-120.77
95635,Greenwood,CA,38.92,-120.89
95636,Grizzly Flats,CA,38.64,-120.51
95637,Guinda,CA,38.8,-122.18
95638,Herald,CA,38.33,-121.14
95640,Ione,CA,38.33,-120.88
95641,Isleton,CA,38.16,-121.59
95642,Jackson,CA,38.35,-120.77
95645,Knights Landing,CA,38.89,-121.8
95648,Lincoln,CA,38.93,-121.25
95650,Loomis,CA,38.81,-121.16
95651,Lotus,CA,38.81,-120.93
95652,Mcclellan,CA,38.66,-121.4
95655,Mather,CA,38.54,-121.28
95658,Newcastle,CA,38.87,-121.15
95659,Nicolaus,CA,38.83,-121.58
95660,North Highlands,CA,38.66,-121.37
95661,Roseville,CA,38.74,-121.25
95662,Orangevale,CA,38.68,-121.22
95663,Penryn,CA,38.85,-121.18
95664,Pilot Hill,CA,38.8,-121.04
95665,Pine Grove,CA,38.38,-120.64
95666,Pioneer,CA,38.56,-120.17
95667,Placerville,CA,38.73,-120.8
95668,Pleasant Grove,CA,38.83,-121.5
95669,Plymouth,CA,38.46,-120.88
95670,Rancho Cordova,CA,38.6,-121.26
95672,Rescue,CA,38.72,-121
95673,Rio Linda,CA,38.68,-121.45
95674,Rio Oso,CA,38.95,-121.49
95677,Rocklin,CA,38.8,-121.24
95678,Roseville,CA,38.76,-121.28
95681,Sheridan,CA,38.98,-121.35
95682,Shingle Springs,CA,38.61,-120.97
95683,Sloughhouse,CA,38.51,-121.12
95684,Somerset,CA,38.62,-120.62
95685,Sutter Creek,CA,38.42,-120.75
95687,Vacaville,CA,38.35,-121.93
95688,Vacaville,CA,38.41,-122.01
95689,Volcano,CA,38.48,-120.57
95690,Walnut Grove,CA,38.23,-121.58
95691,West Sacramento,CA,38.66,-121.62
95692,Wheatland,CA,39.04,-121.39
95693,Wilton,CA,38.39,-121.24
95694,Winters,CA,38.56,-121.99
95695,Woodland,CA,38.71,-121.85
95703,Applegate,CA,39,-120.99
95709,Camino,CA,38.74,-120.68
95713,Colfax,CA,39.09,-120.92
95720,Kyburz,CA,38.77,-120.26
95722,Meadow Vista,CA,39,-121.03
95726,Pollock Pines,CA,38.74,-120.57
95735,Twin Bridges,CA,38.83,-120.18
95742,Rancho Cordova,CA,38.57,-121.17
95746,Granite Bay,CA,38.76,-121.16
95747,Roseville,CA,38.78,-121.37
95757,Elk Grove,CA,38.35,-121.42
95758,Elk Grove,CA,38.34,-121.42
95762,El Dorado Hills,CA,38.68,-121.05
95765,Rocklin,CA,38.81,-121.28
95776,Woodland,CA,38.69,-121.68
95811,Sacramento,CA,38.59,-121.49
95814,Sacramento,CA,38.58,-121.49
95815,Sacramento,CA,38.6,-121.46
95816,Sacramento,CA,38.57,-121.46
95817,Sacramento,CA,38.55,-121.45
95818,Sacramento,CA,38.55,-121.49
95819,Sacramento,CA,38.56,-121.43
95820,Sacramento,CA,38.53,-121.44
95821,Sacramento,CA,38.62,-121.38
95822,Sacramento,CA,38.51,-121.49
95823,Sacramento,CA,38.47,-121.44
95824,Sacramento,CA,38.51,-121.44
95825,Sacramento,CA,38.58,-121.4
95826,Sacramento,CA,38.54,-121.38
95827,Sacramento,CA,38.55,-121.32
95828,Sacramento,CA,38.48,-121.4
95829,Sacramento,CA,38.48,-121.34
95830,Sacramento,CA,38.49,-121.27
95831,Sacramento,CA,38.49,-121.53
95832,Sacramento,CA,38.43,-121.51
95833,Sacramento,CA,38.61,-121.49
95834,Sacramento,CA,38.64,-121.54
95835,Sacramento,CA,38.69,-121.56
95836,Sacramento,CA,38.71,-121.54
95837,Sacramento,CA,38.69,-121.6
95838,Sacramento,CA,38.64,-121.44
95841,Sacramento,CA,38.66,-121.35
95842,Sacramento,CA,38.68,-121.34
95843,Antelope,CA,38.71,-121.36
95864,Sacramento,CA,38.58,-121.37
95901,Marysville,CA,39.15,-121.47
95903,Beale Afb,CA,39.12,-121.39
95910,Alleghany,CA,39.46,-120.84
95912,Arbuckle,CA,39.02,-122.04
95914,Bangor,CA,39.42,-121.36
95916,Berry Creek,CA,39.66,-121.38
95917,Biggs,CA,39.42,-121.67
95918,Browns Valley,CA,39.33,-121.33
95919,Brownsville,CA,39.43,-121.25
95920,Butte City,CA,39.46,-121.93
95922,Camptonville,CA,39.42,-121.11
95923,Canyon Dam,CA,40.15,-121.12
95925,Challenge,CA,39.47,-121.19
95926,Chico,CA,39.74,-121.83
95928,Chico,CA,39.71,-121.81
95930,Clipper Mills,CA,39.54,-121.16
95932,Colusa,CA,39.27,-122.05
95934,Crescent Mills,CA,40.07,-120.92
95935,Dobbins,CA,39.36,-121.2
95938,Durham,CA,39.61,-121.77
95939,Elk Creek,CA,39.54,-122.57
95941,Forbestown,CA,39.51,-121.23
95942,Forest Ranch,CA,39.97,-121.64
95943,Glenn,CA,39.6,-122.02
95945,Grass Valley,CA,39.18,-120.98
95946,Penn Valley,CA,39.18,-121.2
95947,Greenville,CA,40.15,-120.84
95948,Gridley,CA,39.35,-121.76
95949,Grass Valley,CA,39.11,-121.12
95953,Live Oak,CA,39.23,-121.78
95954,Magalia,CA,39.84,-121.6
95957,Meridian,CA,39.07,-121.84
95959,Nevada City,CA,39.34,-120.87
95960,North San Juan,CA,39.42,-120.99
95961,Olivehurst,CA,39.08,-121.55
95962,Oregon House,CA,39.34,-121.23
95963,Orland,CA,39.73,-122.33
95965,Oroville,CA,39.5,-121.67
95966,Oroville,CA,39.45,-121.39
95968,Palermo,CA,39.43,-121.55
95969,Paradise,CA,39.74,-121.61
95970,Princeton,CA,39.41,-122.04
95971,Quincy,CA,39.96,-121
95972,Rackerby,CA,39.45,-121.31
95973,Chico,CA,39.9,-121.83
95975,Rough And Ready,CA,39.22,-121.15
95977,Smartsville,CA,39.17,-121.29
95979,Stonyford,CA,39.27,-122.46
95981,Strawberry Valley,CA,39.56,-121.1
95982,Sutter,CA,39.18,-121.81
95983,Taylorsville,CA,40.04,-120.75
95987,Williams,CA,39.11,-122.27
95988,Willows,CA,39.5,-122.28
95991,Yuba City,CA,39.05,-121.61
95993,Yuba City,CA,39.05,-121.73
96001,Redding,CA,40.6,-122.46
96002,Redding,CA,40.52,-122.32
96003,Redding,CA,40.68,-122.25
96006,Adin,CA,41.15,-120.89
96007,Anderson,CA,40.44,-122.35
96008,Bella Vista,CA,40.7,-122.09
96010,Big Bar,CA,40.81,-123.25
96013,Burney,CA,40.94,-121.74
96014,Callahan,CA,41.36,-122.77
96015,Canby,CA,41.44,-120.94
96016,Cassel,CA,40.92,-121.57
96017,Castella,CA,41.1,-122.35
96019,Shasta Lake,CA,40.68,-122.37
96020,Chester,CA,40.27,-121.24
96021,Corning,CA,39.92,-122.28
96022,Cottonwood,CA,40.33,-122.45
96023,Dorris,CA,41.89,-121.74
96024,Douglas City,CA,40.58,-122.86
96025,Dunsmuir,CA,41.19,-122.26
96027,Etna,CA,41.41,-123.02
96028,Fall River Mills,CA,41.01,-121.47
96029,Flournoy,CA,39.93,-122.48
96031,Forks Of Salmon,CA,41.19,-123.2
96032,Fort Jones,CA,41.59,-122.96
96033,French Gulch,CA,40.73,-122.6
96034,Gazelle,CA,41.42,-122.67
96035,Gerber,CA,40.03,-122.17
96038,Grenada,CA,41.6,-122.54
96039,Happy Camp,CA,41.78,-123.47
96040,Hat Creek,CA,40.8,-121.46
96041,Hayfork,CA,40.5,-123.19
96044,Hornbrook,CA,41.91,-122.49
96047,Igo,CA,40.46,-122.7
96048,Junction City,CA,40.87,-123.1
96050,Klamath River,CA,41.83,-122.92
96051,Lakehead,CA,40.88,-122.38
96052,Lewiston,CA,40.78,-122.84
96055,Los Molinos,CA,40.05,-122.07
96056,Mcarthur,CA,41.1,-121.34
96057,Mccloud,CA,41.26,-122.1
96058,Macdoel,CA,41.74,-121.89
96059,Manton,CA,40.41,-121.84
96061,Mill Creek,CA,40.34,-121.46
96062,Millville,CA,40.56,-122.07
96064,Montague,CA,41.76,-122.39
96065,Montgomery Creek,CA,40.86,-121.91
96067,Mount Shasta,CA,41.31,-122.32
96069,Oak Run,CA,40.66,-122.03
96071,Old Station,CA,40.67,-121.47
96073,Palo Cedro,CA,40.56,-122.2
96075,Paynes Creek,CA,40.35,-121.86
96076,Platina,CA,40.38,-122.91
96080,Red Bluff,CA,40.13,-122.43
96085,Scott Bar,CA,41.73,-123.04
96086,Seiad Valley,CA,41.86,-123.22
96088,Shingletown,CA,40.5,-121.8
96091,Trinity Center,CA,41.05,-122.78
96094,Weed,CA,41.51,-122.36
96096,Whitmore,CA,40.63,-121.87
96097,Yreka,CA,41.75,-122.67
96101,Alturas,CA,41.43,-120.53
96103,Blairsden-graeagle,CA,39.78,-120.65
96104,Cedarville,CA,41.48,-120.14
96105,Chilcoot,CA,39.87,-120.2
96107,Coleville,CA,38.47,-119.48
96108,Davis Creek,CA,41.75,-120.4
96109,Doyle,CA,39.94,-120.06
96112,Fort Bidwell,CA,41.88,-120.11
96114,Janesville,CA,40.28,-120.5
96115,Lake City,CA,41.71,-120.23
96117,Litchfield,CA,40.51,-120.31
96118,Loyalton,CA,39.63,-120.21
96120,Markleeville,CA,38.73,-119.84
96121,Milford,CA,40.18,-120.36
96122,Portola,CA,39.79,-120.46
96123,Ravendale,CA,40.82,-120.28
96124,Calpine,CA,39.66,-120.43
96125,Sierra City,CA,39.6,-120.65
96126,Sierraville,CA,39.57,-120.34
96128,Standish,CA,40.35,-120.38
96129,Beckwourth,CA,39.82,-120.37
96130,Susanville,CA,40.57,-120.61
96132,Termo,CA,40.94,-120.64
96133,Topaz,CA,38.64,-119.48
96134,Tulelake,CA,41.8,-121.46
96136,Wendel,CA,40.31,-120.2
96137,Westwood,CA,40.26,-121.02
96146,Olympic Valley,CA,39.19,-120.22
96150,South Lake Tahoe,CA,38.84,-120.01
96161,Truckee,CA,39.33,-120.24
96701,Aiea,HI,21.38,-157.92
96704,Captain Cook,HI,19.5,-155.9
96706,Ewa Beach,HI,21.31,-158.01
96707,Kapolei,HI,21.34,-158.08
96708,Haiku,HI,20.91,-156.32
96712,Haleiwa,HI,21.59,-158.1
96713,Hana,HI,20.77,-155.99
96717,Hauula,HI,21.59,-157.92
96720,Hilo,HI,19.69,-155.08
96722,Princeville,HI,22.22,-159.48
96725,Holualoa,HI,19.63,-155.92
96727,Honokaa,HI,20.07,-155.46
96730,Kaaawa,HI,21.55,-157.85
96731,Kahuku,HI,21.68,-157.94
96732,Kahului,HI,20.87,-156.45
96734,Kailua,HI,21.4,-157.73
96738,Waikoloa,HI,19.93,-155.79
96740,Kailua Kona,HI,19.63,-155.99
96741,Kalaheo,HI,21.92,-159.52
96743,Kamuela,HI,20.04,-155.7
96744,Kaneohe,HI,21.41,-157.79
96746,Kapaa,HI,22.09,-159.35
96748,Kaunakakai,HI,21.08,-157.01
96749,Keaau,HI,19.61,-155.04
96750,Kealakekua,HI,19.54,-155.88
96753,Kihei,HI,20.76,-156.45
96754,Kilauea,HI,22.21,-159.41
96756,Koloa,HI,21.9,-159.46
96760,Kurtistown,HI,19.58,-155.07
96761,Lahaina,HI,20.89,-156.67
96762,Laie,HI,21.64,-157.92
96766,Lihue,HI,21.97,-159.35
96768,Makawao,HI,20.85,-156.32
96771,Mountain View,HI,19.52,-155.14
96772,Naalehu,HI,19.07,-155.57
96778,Pahoa,HI,19.49,-154.94
96779,Paia,HI,20.91,-156.37
96781,Papaikou,HI,19.79,-155.09
96782,Pearl City,HI,21.4,-157.96
96783,Pepeekeo,HI,19.83,-155.1
96786,Wahiawa,HI,21.5,-158.02
96789,Mililani,HI,21.45,-158.01
96790,Kula,HI,20.72,-156.34
96791,Waialua,HI,21.57,-158.12
96792,Waianae,HI,21.44,-158.18
96793,Wailuku,HI,20.88,-156.5
96795,Waimanalo,HI,21.34,-157.72
96797,Waipahu,HI,21.39,-158.01
96813,Honolulu,HI,21.3,-157.85
96814,Honolulu,HI,21.3,-157.85
96815,Honolulu,HI,21.3,-157.85
96816,Honolulu,HI,21.3,-157.85
96817,Honolulu,HI,21.3,-157.85
96818,Honolulu,HI,21.3,-157.85
96819,Honolulu,HI,21.3,-157.85
96821,Honolulu,HI,21.3,-157.85
96822,Honolulu,HI,21.3,-157.85
96825,Honolulu,HI,21.3,-157.85
96826,Honolulu,HI,21.3,-157.85
96827,Honolulu,HI,21.31,-157.86
96835,Honolulu,HI,21.35,-157.87
96850,Honolulu,HI,21.3,-157.85
96853,J B P H H,HI,21.31,-157.93
96854,Wheeler Army Airfield,HI,21.48,-158.03
96857,Schofield Barracks,HI,21.49,-158.06
96858,Fort Shafter,HI,21.35,-157.87
96859,Tripler Army Medical Center,HI,21.36,-157.89
96860,J B P H H,HI,21.36,-157.94
96861,Camp H M Smith,HI,21.39,-157.9
96863,M C B H Kaneohe Bay,HI,21.43,-157.74
96910,Hagatna,GU,13.47,144.74
96913,Barrigada,GU,13.46,144.79
96915,Santa Rita,GU,13.38,144.66
96919,Agana Heights,GU,13.46,144.74
96929,Yigo,GU,13.53,144.88
97001,Antelope,OR,44.95,-120.65
97002,Aurora,OR,45.23,-122.8
97004,Beavercreek,OR,45.25,-122.46
97005,Beaverton,OR,45.49,-122.8
97006,Beaverton,OR,45.52,-122.85
97007,Beaverton,OR,45.44,-122.88
97008,Beaverton,OR,45.45,-122.79
97009,Boring,OR,45.42,-122.37
97011,Brightwood,OR,45.36,-121.99
97013,Canby,OR,45.21,-122.66
97014,Cascade Locks,OR,45.61,-121.84
97015,Clackamas,OR,45.41,-122.49
97016,Clatskanie,OR,46.06,-123.27
97017,Colton,OR,45.17,-122.4
97018,Columbia City,OR,45.89,-122.81
97019,Corbett,OR,45.51,-122.21
97020,Donald,OR,45.22,-122.83
97021,Dufur,OR,45.4,-121.16
97022,Eagle Creek,OR,45.34,-122.29
97023,Estacada,OR,45.2,-122.06
97024,Fairview,OR,45.54,-122.44
97026,Gervais,OR,45.11,-122.94
97027,Gladstone,OR,45.38,-122.59
97028,Government Camp,OR,45.27,-121.71
97029,Grass Valley,OR,45.28,-120.73
97030,Gresham,OR,45.5,-122.43
97031,Hood River,OR,45.61,-121.58
97032,Hubbard,OR,45.18,-122.79
97034,Lake Oswego,OR,45.4,-122.68
97035,Lake Oswego,OR,45.41,-122.72
97037,Maupin,OR,45.04,-121.15
97038,Molalla,OR,45.07,-122.55
97039,Moro,OR,45.41,-120.79
97040,Mosier,OR,45.6,-121.37
97041,Mount Hood Parkdale,OR,45.43,-121.63
97042,Mulino,OR,45.2,-122.54
97045,Oregon City,OR,45.32,-122.52
97048,Rainier,OR,46.04,-122.98
97049,Rhododendron,OR,45.36,-121.85
97051,Saint Helens,OR,45.88,-122.92
97053,Warren,OR,45.81,-122.88
97054,Deer Island,OR,45.94,-122.92
97055,Sandy,OR,45.38,-122.23
97056,Scappoose,OR,45.8,-122.97
97058,The Dalles,OR,45.54,-121.15
97060,Troutdale,OR,45.52,-122.35
97062,Tualatin,OR,45.36,-122.75
97063,Tygh Valley,OR,45.22,-121.26
97064,Vernonia,OR,45.88,-123.23
97065,Wasco,OR,45.59,-120.63
97067,Welches,OR,45.3,-121.95
97068,West Linn,OR,45.34,-122.66
97070,Wilsonville,OR,45.3,-122.78
97071,Woodburn,OR,45.13,-122.82
97080,Gresham,OR,45.47,-122.37
97086,Happy Valley,OR,45.44,-122.52
97089,Damascus,OR,45.42,-122.45
97101,Amity,OR,45.1,-123.23
97102,Arch Cape,OR,45.84,-123.86
97103,Astoria,OR,46.12,-123.67
97106,Banks,OR,45.66,-123.15
97107,Bay City,OR,45.58,-123.81
97108,Beaver,OR,45.27,-123.71
97109,Buxton,OR,45.73,-123.19
97111,Carlton,OR,45.29,-123.22
97112,Cloverdale,OR,45.22,-123.92
97113,Cornelius,OR,45.52,-123.04
97114,Dayton,OR,45.19,-123.07
97115,Dundee,OR,45.26,-123.02
97116,Forest Grove,OR,45.55,-123.15
97117,Gales Creek,OR,45.61,-123.27
97119,Gaston,OR,45.47,-123.2
97121,Hammond,OR,46.17,-123.97
97122,Hebo,OR,45.17,-123.83
97123,Hillsboro,OR,45.44,-122.96
97124,Hillsboro,OR,45.58,-122.91
97125,Manning,OR,45.65,-123.23
97127,Lafayette,OR,45.24,-123.11
97128,Mcminnville,OR,45.19,-123.24
97131,Nehalem,OR,45.7,-123.86
97132,Newberg,OR,45.32,-122.98
97133,North Plains,OR,45.67,-123.02
97136,Rockaway Beach,OR,45.62,-123.91
97137,Saint Paul,OR,45.2,-122.96
97138,Seaside,OR,45.92,-123.7
97140,Sherwood,OR,45.35,-122.86
97141,Tillamook,OR,45.46,-123.71
97144,Timber,OR,45.74,-123.31
97146,Warrenton,OR,46.12,-123.91
97148,Yamhill,OR,45.36,-123.24
97149,Neskowin,OR,45.1,-123.93
97201,Portland,OR,45.5,-122.69
97202,Portland,OR,45.47,-122.64
97203,Portland,OR,45.61,-122.74
97204,Portland,OR,45.51,-122.67
97205,Portland,OR,45.51,-122.68
97206,Portland,OR,45.48,-122.6
97209,Portland,OR,45.53,-122.68
97210,Portland,OR,45.55,-122.73
97211,Portland,OR,45.57,-122.62
97212,Portland,OR,45.54,-122.64
97213,Portland,OR,45.53,-122.6
97214,Portland,OR,45.51,-122.64
97215,Portland,OR,45.51,-122.59
97216,Portland,OR,45.51,-122.55
97217,Portland,OR,45.58,-122.7
97218,Portland,OR,45.57,-122.59
97219,Portland,OR,45.45,-122.69
97220,Portland,OR,45.55,-122.56
97221,Portland,OR,45.49,-122.72
97222,Portland,OR,45.44,-122.61
97223,Portland,OR,45.44,-122.76
97224,Portland,OR,45.4,-122.79
97225,Portland,OR,45.49,-122.77
97227,Portland,OR,45.54,-122.67
97229,Portland,OR,45.55,-122.81
97230,Portland,OR,45.54,-122.5
97231,Portland,OR,45.73,-122.76
97232,Portland,OR,45.52,-122.64
97233,Portland,OR,45.51,-122.49
97236,Portland,OR,45.46,-122.49
97239,Portland,OR,45.48,-122.69
97258,Portland,OR,45.51,-122.67
97266,Portland,OR,45.46,-122.55
97267,Portland,OR,45.4,-122.61
97299,Portland,OR,45.54,-122.61
97301,Salem,OR,44.9,-122.92
97302,Salem,OR,44.9,-123.06
97303,Salem,OR,45.01,-123.01
97304,Salem,OR,45.02,-123.11
97305,Salem,OR,45.01,-122.91
97306,Salem,OR,44.84,-123.08
97317,Salem,OR,44.9,-122.89
97321,Albany,OR,44.62,-123.13
97322,Albany,OR,44.63,-123
97324,Alsea,OR,44.35,-123.65
97325,Aumsville,OR,44.82,-122.85
97326,Blodgett,OR,44.62,-123.6
97327,Brownsville,OR,44.38,-122.94
97329,Cascadia,OR,44.44,-122.36
97330,Corvallis,OR,44.63,-123.27
97331,Corvallis,OR,44.56,-123.27
97333,Corvallis,OR,44.46,-123.34
97338,Dallas,OR,44.92,-123.34
97341,Depoe Bay,OR,44.81,-124.05
97342,Detroit,OR,44.73,-122.1
97343,Eddyville,OR,44.57,-123.75
97344,Falls City,OR,44.87,-123.52
97345,Foster,OR,44.39,-122.56
97346,Gates,OR,44.74,-122.39
97347,Grand Ronde,OR,45.06,-123.65
97348,Halsey,OR,44.38,-123.11
97350,Idanha,OR,44.64,-122.01
97351,Independence,OR,44.83,-123.2
97352,Jefferson,OR,44.75,-123.04
97355,Lebanon,OR,44.52,-122.81
97357,Logsden,OR,44.74,-123.8
97358,Lyons,OR,44.82,-122.37
97360,Mill City,OR,44.74,-122.48
97361,Monmouth,OR,44.78,-123.33
97362,Mount Angel,OR,45.06,-122.76
97364,Neotsu,OR,44.99,-123.98
97365,Newport,OR,44.66,-124.01
97366,South Beach,OR,44.56,-124.03
97367,Lincoln City,OR,44.94,-123.94
97368,Otis,OR,45,-123.89
97369,Otter Rock,OR,44.74,-124.05
97370,Philomath,OR,44.59,-123.46
97371,Rickreall,OR,44.99,-123.2
97372,Rose Lodge,OR,45.01,-123.87
97374,Scio,OR,44.68,-122.76
97375,Scotts Mills,OR,44.96,-122.57
97376,Seal Rock,OR,44.5,-123.99
97377,Shedd,OR,44.45,-123.1
97378,Sheridan,OR,45.1,-123.42
97380,Siletz,OR,44.77,-123.92
97381,Silverton,OR,44.95,-122.71
97383,Stayton,OR,44.81,-122.72
97385,Sublimity,OR,44.86,-122.73
97386,Sweet Home,OR,44.36,-122.69
97389,Tangent,OR,44.54,-123.08
97390,Tidewater,OR,44.32,-123.85
97391,Toledo,OR,44.6,-123.89
97392,Turner,OR,44.79,-122.94
97394,Waldport,OR,44.45,-123.94
97396,Willamina,OR,45.13,-123.51
97401,Eugene,OR,44.06,-123.08
97402,Eugene,OR,44.04,-123.22
97403,Eugene,OR,44.03,-123.05
97404,Eugene,OR,44.1,-123.13
97405,Eugene,OR,43.92,-123.08
97406,Agness,OR,42.59,-124.01
97408,Eugene,OR,44.13,-123.07
97410,Azalea,OR,42.78,-123.12
97411,Bandon,OR,43.05,-124.36
97412,Blachly,OR,44.17,-123.57
97413,Blue River,OR,44.05,-122.05
97414,Broadbent,OR,42.96,-124.17
97415,Brookings,OR,42.13,-124.24
97416,Camas Valley,OR,43.05,-123.67
97417,Canyonville,OR,42.94,-123.22
97419,Cheshire,OR,44.18,-123.37
97420,Coos Bay,OR,43.37,-124.14
97423,Coquille,OR,43.2,-124.12
97424,Cottage Grove,OR,43.71,-123.03
97426,Creswell,OR,43.9,-123.02
97427,Culp Creek,OR,43.68,-122.79
97429,Days Creek,OR,42.97,-123.06
97430,Deadwood,OR,44.16,-123.7
97431,Dexter,OR,43.88,-122.81
97434,Dorena,OR,43.7,-122.89
97435,Drain,OR,43.71,-123.32
97436,Elkton,OR,43.64,-123.61
97437,Elmira,OR,44.09,-123.39
97438,Fall Creek,OR,43.94,-122.68
97439,Florence,OR,44.12,-124
97441,Gardiner,OR,43.76,-124.14
97442,Glendale,OR,42.79,-123.4
97443,Glide,OR,43.24,-123
97444,Gold Beach,OR,42.45,-124.3
97446,Harrisburg,OR,44.27,-123.05
97447,Idleyld Park,OR,43.26,-122.6
97448,Junction City,OR,44.21,-123.28
97449,Lakeside,OR,43.58,-124.08
97450,Langlois,OR,42.91,-124.35
97451,Lorane,OR,43.82,-123.21
97452,Lowell,OR,43.85,-122.69
97453,Mapleton,OR,44,-123.84
97454,Marcola,OR,44.21,-122.8
97455,Pleasant Hill,OR,43.96,-122.92
97456,Monroe,OR,44.34,-123.33
97457,Myrtle Creek,OR,43.05,-123.2
97458,Myrtle Point,OR,43.06,-124.03
97459,North Bend,OR,43.48,-124.16
97461,Noti,OR,44.09,-123.48
97462,Oakland,OR,43.47,-123.35
97463,Oakridge,OR,43.74,-122.41
97465,Port Orford,OR,42.72,-124.35
97466,Powers,OR,42.84,-124.09
97467,Reedsport,OR,43.79,-123.9
97469,Riddle,OR,42.91,-123.43
97470,Roseburg,OR,43.21,-123.4
97471,Roseburg,OR,43.24,-123.48
97472,Cottage Grove,OR,43.79,-123.06
97473,Scottsburg,OR,43.69,-123.91
97476,Sixes,OR,42.87,-124.18
97477,Springfield,OR,44.05,-123
97478,Springfield,OR,44.1,-122.8
97479,Sutherlin,OR,43.41,-123.11
97480,Swisshome,OR,44.12,-123.81
97481,Tenmile,OR,43.1,-123.53
97482,Thurston,OR,44.05,-122.91
97484,Tiller,OR,42.91,-122.87
97486,Umpqua,OR,43.35,-123.54
97487,Veneta,OR,43.97,-123.42
97488,Vida,OR,44.13,-122.42
97489,Walterville,OR,44.13,-122.64
97490,Walton,OR,44.02,-123.62
97492,Westfir,OR,43.74,-122.49
97493,Westlake,OR,43.92,-123.98
97495,Winchester,OR,43.29,-123.27
97496,Winston,OR,43.05,-123.5
97497,Wolf Creek,OR,42.66,-123.39
97498,Yachats,OR,44.32,-124
97499,Yoncalla,OR,43.57,-123.14
97501,Medford,OR,42.28,-122.9
97502,Central Point,OR,42.39,-122.93
97503,White City,OR,42.56,-122.92
97504,Medford,OR,42.33,-122.79
97520,Ashland,OR,42.15,-122.53
97522,Butte Falls,OR,42.53,-122.53
97523,Cave Junction,OR,42.11,-123.6
97524,Eagle Point,OR,42.46,-122.66
97525,Gold Hill,OR,42.48,-123.06
97526,Grants Pass,OR,42.53,-123.34
97527,Grants Pass,OR,42.37,-123.39
97530,Jacksonville,OR,42.18,-123.04
97531,Kerby,OR,42.2,-123.65
97532,Merlin,OR,42.56,-123.56
97534,O Brien,OR,42.04,-123.71
97535,Phoenix,OR,42.26,-122.81
97536,Prospect,OR,42.82,-122.51
97537,Rogue River,OR,42.54,-123.1
97538,Selma,OR,42.26,-123.59
97539,Shady Cove,OR,42.61,-122.8
97540,Talent,OR,42.2,-122.81
97541,Trail,OR,42.72,-122.73
97543,Wilderville,OR,42.4,-123.57
97544,Williams,OR,42.14,-123.32
97601,Klamath Falls,OR,42.31,-122.07
97603,Klamath Falls,OR,42.16,-121.68
97621,Beatty,OR,42.49,-121.27
97623,Bonanza,OR,42.21,-121.3
97624,Chiloquin,OR,42.72,-121.79
97625,Dairy,OR,42.34,-121.59
97627,Keno,OR,42.09,-121.99
97630,Lakeview,OR,42.38,-120.2
97632,Malin,OR,42.04,-121.42
97633,Merrill,OR,42.04,-121.55
97635,New Pine Creek,OR,41.96,-120.2
97636,Paisley,OR,42.61,-120.57
97637,Plush,OR,42.54,-119.8
97638,Silver Lake,OR,43.18,-120.96
97639,Sprague River,OR,42.43,-121.41
97640,Summer Lake,OR,42.86,-120.71
97701,Bend,OR,44.07,-121.25
97702,Bend,OR,43.98,-121.27
97707,Bend,OR,43.83,-121.49
97710,Fields,OR,42.17,-118.36
97711,Ashwood,OR,44.7,-120.72
97712,Brothers,OR,43.74,-120.38
97720,Burns,OR,43.59,-118.89
97721,Princeton,OR,42.86,-118.42
97722,Diamond,OR,42.91,-118.65
97730,Camp Sherman,OR,44.47,-121.64
97731,Chemult,OR,43.23,-121.91
97733,Crescent,OR,43.42,-121.68
97734,Culver,OR,44.47,-121.18
97736,Frenchglen,OR,42.72,-119.12
97737,Gilchrist,OR,43.51,-121.64
97738,Hines,OR,43.44,-119.23
97739,La Pine,OR,43.69,-121.14
97741,Madras,OR,44.6,-121.05
97750,Mitchell,OR,44.66,-119.78
97751,Paulina,OR,44.11,-119.79
97752,Post,OR,44.05,-120.09
97753,Powell Butte,OR,44.23,-121.01
97754,Prineville,OR,44.1,-120.66
97756,Redmond,OR,44.26,-121.22
97758,Riley,OR,43.58,-119.57
97759,Sisters,OR,44.41,-121.92
97760,Terrebonne,OR,44.41,-121.29
97801,Pendleton,OR,45.73,-118.79
97810,Adams,OR,45.71,-118.48
97812,Arlington,OR,45.55,-120.32
97813,Athena,OR,45.83,-118.51
97814,Baker City,OR,44.81,-117.74
97817,Bates,OR,44.7,-118.79
97818,Boardman,OR,45.77,-119.52
97819,Bridgeport,OR,44.5,-117.65
97820,Canyon City,OR,44.22,-119.13
97823,Condon,OR,45.28,-120.15
97824,Cove,OR,45.35,-117.84
97825,Dayville,OR,44.46,-119.5
97826,Echo,OR,45.66,-119.23
97827,Elgin,OR,45.61,-117.89
97828,Enterprise,OR,45.67,-117.03
97830,Fossil,OR,44.9,-120.12
97833,Haines,OR,44.94,-117.97
97834,Halfway,OR,44.94,-117.1
97835,Helix,OR,45.9,-118.77
97836,Heppner,OR,45.31,-119.58
97837,Hereford,OR,44.52,-118.02
97838,Hermiston,OR,45.85,-119.21
97839,Lexington,OR,45.57,-119.6
97840,Oxbow,OR,44.99,-116.87
97841,Imbler,OR,45.47,-117.96
97842,Imnaha,OR,45.46,-116.75
97843,Ione,OR,45.49,-119.83
97844,Irrigon,OR,45.86,-119.54
97845,John Day,OR,44.42,-118.94
97846,Joseph,OR,45.3,-117.09
97848,Kimberly,OR,44.69,-119.54
97850,La Grande,OR,45.32,-118.2
97856,Long Creek,OR,44.8,-119.13
97857,Lostine,OR,45.37,-117.52
97861,Mikkalo,OR,45.71,-120.2
97862,Milton Freewater,OR,45.9,-118.34
97864,Monument,OR,44.81,-119.43
97865,Mount Vernon,OR,44.44,-119.16
97867,North Powder,OR,45.05,-118.01
97868,Pilot Rock,OR,45.39,-118.78
97869,Prairie City,OR,44.38,-118.64
97870,Richland,OR,44.79,-117.23
97873,Seneca,OR,44.12,-118.94
97874,Spray,OR,44.77,-119.9
97875,Stanfield,OR,45.8,-119.17
97876,Summerville,OR,45.52,-118.02
97877,Sumpter,OR,44.75,-118.2
97882,Umatilla,OR,45.9,-119.33
97883,Union,OR,45.15,-117.77
97884,Unity,OR,44.47,-118.22
97885,Wallowa,OR,45.56,-117.5
97886,Weston,OR,45.8,-118.26
97901,Adrian,OR,43.59,-117.1
97903,Brogan,OR,44.15,-117.67
97904,Drewsey,OR,43.81,-118.49
97906,Harper,OR,43.86,-117.64
97907,Huntington,OR,44.45,-117.38
97908,Ironside,OR,44.32,-117.83
97909,Jamieson,OR,44.24,-117.43
97910,Jordan Valley,OR,42.96,-117.36
97911,Juntura,OR,43.72,-118.02
97913,Nyssa,OR,43.73,-117.15
97914,Ontario,OR,44.08,-117.01
97917,Riverside,OR,43.5,-118.09
97918,Vale,OR,44.03,-117.38
98001,Auburn,WA,47.3,-122.26
98002,Auburn,WA,47.31,-122.2
98003,Federal Way,WA,47.3,-122.31
98004,Bellevue,WA,47.61,-122.21
98005,Bellevue,WA,47.62,-122.16
98006,Bellevue,WA,47.55,-122.14
98007,Bellevue,WA,47.62,-122.14
98008,Bellevue,WA,47.6,-122.11
98010,Black Diamond,WA,47.32,-121.99
98011,Bothell,WA,47.74,-122.2
98012,Bothell,WA,47.84,-122.19
98014,Carnation,WA,47.64,-121.89
98019,Duvall,WA,47.73,-121.93
98020,Edmonds,WA,47.8,-122.37
98021,Bothell,WA,47.79,-122.2
98022,Enumclaw,WA,47.1,-121.6
98023,Federal Way,WA,47.3,-122.37
98024,Fall City,WA,47.58,-121.88
98026,Edmonds,WA,47.83,-122.32
98027,Issaquah,WA,47.5,-122
98028,Kenmore,WA,47.75,-122.24
98029,Issaquah,WA,47.55,-122
98030,Kent,WA,47.36,-122.19
98031,Kent,WA,47.4,-122.19
98032,Kent,WA,47.39,-122.26
98033,Kirkland,WA,47.67,-122.18
98034,Kirkland,WA,47.72,-122.2
98036,Lynnwood,WA,47.8,-122.28
98037,Lynnwood,WA,47.85,-122.28
98038,Maple Valley,WA,47.4,-121.99
98039,Medina,WA,47.62,-122.23
98040,Mercer Island,WA,47.56,-122.22
98042,Kent,WA,47.36,-122.1
98043,Mountlake Terrace,WA,47.79,-122.3
98045,North Bend,WA,47.44,-121.62
98047,Pacific,WA,47.25,-122.24
98051,Ravensdale,WA,47.34,-121.92
98052,Redmond,WA,47.68,-122.12
98053,Redmond,WA,47.66,-122.01
98054,Redondo,WA,47.34,-122.32
98055,Renton,WA,47.46,-122.21
98056,Renton,WA,47.51,-122.18
98057,Renton,WA,47.48,-122.19
98058,Renton,WA,47.43,-122.11
98059,Renton,WA,47.49,-122.1
98065,Snoqualmie,WA,47.53,-121.8
98070,Vashon,WA,47.42,-122.45
98072,Woodinville,WA,47.75,-122.09
98074,Sammamish,WA,47.62,-122.02
98075,Sammamish,WA,47.58,-122.03
98077,Woodinville,WA,47.75,-122.04
98087,Lynnwood,WA,47.85,-122.28
98092,Auburn,WA,47.28,-122.1
98101,Seattle,WA,47.61,-122.33
98102,Seattle,WA,47.63,-122.32
98103,Seattle,WA,47.67,-122.34
98104,Seattle,WA,47.6,-122.32
98105,Seattle,WA,47.66,-122.29
98106,Seattle,WA,47.54,-122.35
98107,Seattle,WA,47.66,-122.38
98108,Seattle,WA,47.54,-122.31
98109,Seattle,WA,47.63,-122.34
98110,Bainbridge Island,WA,47.64,-122.53
98112,Seattle,WA,47.63,-122.29
98115,Seattle,WA,47.68,-122.28
98116,Seattle,WA,47.57,-122.4
98117,Seattle,WA,47.68,-122.38
98118,Seattle,WA,47.54,-122.27
98119,Seattle,WA,47.63,-122.37
98121,Seattle,WA,47.61,-122.34
98122,Seattle,WA,47.61,-122.3
98125,Seattle,WA,47.71,-122.3
98126,Seattle,WA,47.55,-122.37
98131,Seattle,WA,47.46,-122.29
98132,Seattle,WA,47.46,-122.29
98133,Seattle,WA,47.73,-122.34
98134,Seattle,WA,47.57,-122.33
98136,Seattle,WA,47.53,-122.39
98144,Seattle,WA,47.58,-122.3
98146,Seattle,WA,47.49,-122.36
98148,Seattle,WA,47.44,-122.31
98154,Seattle,WA,47.6,-122.33
98155,Seattle,WA,47.75,-122.29
98158,Seattle,WA,47.44,-122.31
98161,Seattle,WA,47.6,-122.33
98164,Seattle,WA,47.6,-122.33
98166,Seattle,WA,47.44,-122.35
98168,Seattle,WA,47.48,-122.29
98171,Seattle,WA,47.6,-122.33
98174,Seattle,WA,47.6,-122.33
98177,Seattle,WA,47.73,-122.37
98178,Seattle,WA,47.49,-122.25
98188,Seattle,WA,47.44,-122.28
98198,Seattle,WA,47.38,-122.31
98199,Seattle,WA,47.65,-122.4
98201,Everett,WA,47.98,-122.2
98203,Everett,WA,47.94,-122.24
98204,Everett,WA,47.89,-122.25
98205,Everett,WA,48,-122.1
98208,Everett,WA,47.9,-122.18
98220,Acme,WA,48.7,-122.19
98221,Anacortes,WA,48.46,-122.6
98222,Blakely Island,WA,48.56,-122.8
98223,Arlington,WA,48.18,-121.67
98225,Bellingham,WA,48.73,-122.48
98226,Bellingham,WA,48.79,-122.41
98229,Bellingham,WA,48.68,-122.41
98230,Blaine,WA,48.93,-122.72
98232,Bow,WA,48.56,-122.44
98233,Burlington,WA,48.53,-122.31
98236,Clinton,WA,47.95,-122.41
98237,Concrete,WA,48.56,-121.77
98239,Coupeville,WA,48.18,-122.66
98240,Custer,WA,48.94,-122.62
98241,Darrington,WA,48.19,-121.53
98244,Deming,WA,48.8,-122.06
98245,Eastsound,WA,48.65,-122.81
98247,Everson,WA,48.9,-122.3
98248,Ferndale,WA,48.86,-122.63
98249,Freeland,WA,48.01,-122.47
98250,Friday Harbor,WA,48.53,-123.06
98251,Gold Bar,WA,47.86,-121.66
98252,Granite Falls,WA,48.05,-121.74
98253,Greenbank,WA,48.09,-122.57
98257,La Conner,WA,48.41,-122.53
98258,Lake Stevens,WA,48.04,-122.05
98260,Langley,WA,48.04,-122.44
98261,Lopez Island,WA,48.49,-122.87
98262,Lummi Island,WA,48.69,-122.66
98264,Lynden,WA,48.95,-122.43
98266,Maple Falls,WA,48.95,-122.07
98267,Marblemount,WA,48.44,-121.27
98270,Marysville,WA,48.05,-122.14
98271,Marysville,WA,48.09,-122.24
98272,Monroe,WA,47.87,-121.88
98273,Mount Vernon,WA,48.42,-122.42
98274,Mount Vernon,WA,48.36,-121.98
98275,Mukilteo,WA,47.91,-122.3
98277,Oak Harbor,WA,48.32,-122.63
98279,Olga,WA,48.63,-122.8
98281,Point Roberts,WA,48.98,-123.05
98282,Camano Island,WA,48.16,-122.49
98283,Rockport,WA,48.56,-121.54
98284,Sedro Woolley,WA,48.59,-122.13
98290,Snohomish,WA,47.94,-122
98292,Stanwood,WA,48.21,-122.28
98294,Sultan,WA,47.85,-121.74
98295,Sumas,WA,48.94,-122.23
98296,Snohomish,WA,47.85,-122.09
98303,Anderson Island,WA,47.15,-122.7
98304,Ashford,WA,46.77,-122
98305,Beaver,WA,48.05,-124.28
98310,Bremerton,WA,47.59,-122.62
98311,Bremerton,WA,47.63,-122.63
98312,Bremerton,WA,47.57,-122.75
98315,Silverdale,WA,47.72,-122.71
98320,Brinnon,WA,47.69,-122.99
98321,Buckley,WA,47.13,-122.04
98323,Carbonado,WA,47.01,-121.98
98325,Chimacum,WA,47.97,-122.78
98326,Clallam Bay,WA,48.17,-124.53
98327,Dupont,WA,47.09,-122.64
98328,Eatonville,WA,46.86,-122.25
98329,Gig Harbor,WA,47.37,-122.71
98330,Elbe,WA,46.76,-122.16
98331,Forks,WA,47.79,-124.26
98332,Gig Harbor,WA,47.36,-122.6
98333,Fox Island,WA,47.24,-122.63
98335,Gig Harbor,WA,47.29,-122.62
98336,Glenoma,WA,46.53,-122.14
98337,Bremerton,WA,47.56,-122.64
98338,Graham,WA,47.01,-122.29
98339,Port Hadlock,WA,48,-122.74
98340,Hansville,WA,47.91,-122.57
98342,Indianola,WA,47.75,-122.53
98346,Kingston,WA,47.81,-122.53
98349,Lakebay,WA,47.28,-122.77
98351,Longbranch,WA,47.2,-122.76
98354,Milton,WA,47.25,-122.31
98355,Mineral,WA,46.71,-122.11
98356,Morton,WA,46.57,-122.33
98358,Nordland,WA,48.05,-122.68
98359,Olalla,WA,47.43,-122.57
98360,Orting,WA,47.03,-122.1
98361,Packwood,WA,46.56,-121.55
98362,Port Angeles,WA,47.99,-123.25
98363,Port Angeles,WA,48.02,-123.82
98365,Port Ludlow,WA,47.89,-122.7
98366,Port Orchard,WA,47.54,-122.58
98367,Port Orchard,WA,47.46,-122.65
98368,Port Townsend,WA,48.03,-122.81
98370,Poulsbo,WA,47.75,-122.61
98371,Puyallup,WA,47.19,-122.33
98372,Puyallup,WA,47.22,-122.27
98373,Puyallup,WA,47.14,-122.32
98374,Puyallup,WA,47.12,-122.25
98375,Puyallup,WA,47.1,-122.32
98376,Quilcene,WA,47.82,-122.84
98377,Randle,WA,46.47,-121.82
98380,Seabeck,WA,47.58,-122.9
98381,Sekiu,WA,48.29,-124.4
98382,Sequim,WA,48.06,-123.06
98383,Silverdale,WA,47.67,-122.72
98387,Spanaway,WA,47.05,-122.36
98388,Steilacoom,WA,47.21,-122.68
98390,Sumner,WA,47.17,-122.18
98391,Bonney Lake,WA,47.18,-122.16
98392,Suquamish,WA,47.72,-122.56
98394,Vaughn,WA,47.31,-122.77
98402,Tacoma,WA,47.26,-122.44
98403,Tacoma,WA,47.26,-122.45
98404,Tacoma,WA,47.2,-122.4
98405,Tacoma,WA,47.24,-122.47
98406,Tacoma,WA,47.26,-122.51
98407,Tacoma,WA,47.29,-122.5
98408,Tacoma,WA,47.19,-122.44
98409,Tacoma,WA,47.21,-122.47
98413,Tacoma,WA,47.2,-122.48
98418,Tacoma,WA,47.22,-122.44
98421,Tacoma,WA,47.26,-122.39
98422,Tacoma,WA,47.28,-122.38
98424,Tacoma,WA,47.23,-122.36
98433,Tacoma,WA,47.05,-122.59
98439,Lakewood,WA,47.12,-122.5
98442,Tacoma,WA,47.14,-122.43
98443,Tacoma,WA,47.2,-122.37
98444,Tacoma,WA,47.15,-122.44
98445,Tacoma,WA,47.13,-122.4
98446,Tacoma,WA,47.13,-122.37
98465,Tacoma,WA,47.24,-122.53
98466,Tacoma,WA,47.22,-122.54
98467,University Place,WA,47.2,-122.54
98492,Tacoma,WA,47.12,-122.55
98498,Lakewood,WA,47.15,-122.56
98499,Lakewood,WA,47.16,-122.5
98501,Olympia,WA,46.97,-122.87
98502,Olympia,WA,47.1,-123.06
98503,Lacey,WA,47.02,-122.79
98506,Olympia,WA,47.1,-122.86
98512,Olympia,WA,46.94,-123.04
98513,Olympia,WA,46.98,-122.74
98516,Olympia,WA,47.11,-122.76
98520,Aberdeen,WA,46.88,-123.99
98524,Allyn,WA,47.37,-122.84
98526,Amanda Park,WA,47.47,-123.92
98528,Belfair,WA,47.43,-122.92
98531,Centralia,WA,46.74,-122.95
98532,Chehalis,WA,46.62,-123
98533,Cinebar,WA,46.59,-122.51
98535,Copalis Beach,WA,47.09,-124.13
98536,Copalis Crossing,WA,47.16,-124.12
98537,Cosmopolis,WA,46.85,-123.62
98538,Curtis,WA,46.47,-123.08
98541,Elma,WA,47.1,-123.39
98542,Ethel,WA,46.51,-122.68
98546,Grapeview,WA,47.32,-122.94
98547,Grayland,WA,46.79,-124.08
98548,Hoodsport,WA,47.42,-123.18
98550,Hoquiam,WA,47.11,-123.96
98552,Humptulips,WA,47.32,-123.91
98555,Lilliwaup,WA,47.52,-123.06
98557,Mccleary,WA,47.03,-123.27
98560,Matlock,WA,47.22,-123.47
98563,Montesano,WA,47.17,-123.6
98564,Mossyrock,WA,46.48,-122.44
98568,Oakville,WA,46.83,-123.28
98569,Ocean Shores,WA,46.97,-124.14
98570,Onalaska,WA,46.6,-122.67
98572,Pe Ell,WA,46.57,-123.29
98575,Quinault,WA,47.44,-123.77
98576,Rainier,WA,46.87,-122.66
98577,Raymond,WA,46.64,-123.63
98579,Rochester,WA,46.8,-123.14
98580,Roy,WA,46.98,-122.47
98581,Ryderwood,WA,46.36,-123.07
98582,Salkum,WA,46.51,-122.63
98584,Shelton,WA,47.23,-123.2
98585,Silver Creek,WA,46.55,-122.46
98586,South Bend,WA,46.56,-123.88
98588,Tahuya,WA,47.44,-123.02
98589,Tenino,WA,46.84,-122.85
98590,Tokeland,WA,46.74,-123.99
98591,Toledo,WA,46.45,-122.76
98592,Union,WA,47.33,-123.06
98593,Vader,WA,46.41,-122.99
98595,Westport,WA,46.87,-124.11
98596,Winlock,WA,46.48,-122.87
98597,Yelm,WA,46.87,-122.57
98601,Amboy,WA,45.93,-122.44
98602,Appleton,WA,45.85,-121.28
98603,Ariel,WA,46.01,-122.47
98604,Battle Ground,WA,45.8,-122.48
98605,Bingen,WA,45.77,-121.66
98606,Brush Prairie,WA,45.73,-122.45
98607,Camas,WA,45.64,-122.37
98609,Carrolls,WA,46.07,-122.86
98610,Carson,WA,45.79,-121.89
98611,Castle Rock,WA,46.29,-122.95
98612,Cathlamet,WA,46.22,-123.31
98613,Centerville,WA,45.74,-120.93
98616,Cougar,WA,46.08,-122.28
98619,Glenwood,WA,45.98,-121.27
98620,Goldendale,WA,45.84,-120.76
98621,Grays River,WA,46.35,-123.6
98624,Ilwaco,WA,46.31,-123.99
98625,Kalama,WA,46.01,-122.7
98626,Kelso,WA,46.14,-122.8
98628,Klickitat,WA,45.84,-121.04
98629,La Center,WA,45.87,-122.61
98631,Long Beach,WA,46.39,-124.03
98632,Longview,WA,46.19,-123.05
98635,Lyle,WA,45.72,-121.16
98638,Naselle,WA,46.36,-123.75
98640,Ocean Park,WA,46.54,-124.04
98642,Ridgefield,WA,45.79,-122.69
98643,Rosburg,WA,46.29,-123.63
98645,Silverlake,WA,46.32,-122.78
98647,Skamokawa,WA,46.28,-123.44
98648,Stevenson,WA,45.7,-121.72
98649,Toutle,WA,46.31,-122.69
98650,Trout Lake,WA,45.97,-121.53
98651,Underwood,WA,45.74,-121.58
98660,Vancouver,WA,45.72,-122.74
98661,Vancouver,WA,45.64,-122.63
98662,Vancouver,WA,45.68,-122.57
98663,Vancouver,WA,45.65,-122.66
98664,Vancouver,WA,45.62,-122.57
98665,Vancouver,WA,45.67,-122.66
98670,Wahkiacus,WA,45.85,-121.14
98671,Washougal,WA,45.61,-122.23
98672,White Salmon,WA,45.82,-121.46
98674,Woodland,WA,45.94,-122.67
98675,Yacolt,WA,45.83,-122.38
98682,Vancouver,WA,45.67,-122.47
98683,Vancouver,WA,45.6,-122.51
98684,Vancouver,WA,45.63,-122.52
98685,Vancouver,WA,45.7,-122.69
98686,Vancouver,WA,45.72,-122.61
98801,Wenatchee,WA,47.37,-120.35
98802,East Wenatchee,WA,47.49,-120.19
98812,Brewster,WA,48.15,-119.82
98813,Bridgeport,WA,47.97,-119.59
98814,Carlton,WA,48.23,-120.28
98815,Cashmere,WA,47.55,-120.48
98816,Chelan,WA,47.89,-119.99
98822,Entiat,WA,47.79,-120.44
98823,Ephrata,WA,47.27,-119.59
98826,Leavenworth,WA,47.81,-120.86
98827,Loomis,WA,48.87,-119.73
98828,Malaga,WA,47.32,-120.19
98830,Mansfield,WA,47.89,-119.5
98831,Manson,WA,47.97,-120.15
98832,Marlin,WA,47.27,-119.04
98833,Mazama,WA,48.59,-120.39
98834,Methow,WA,48.14,-120.05
98837,Moses Lake,WA,47.19,-119.3
98840,Okanogan,WA,48.22,-119.45
98841,Omak,WA,48.36,-119.27
98843,Orondo,WA,47.72,-120.15
98844,Oroville,WA,48.87,-119.22
98845,Palisades,WA,47.38,-119.96
98846,Pateros,WA,48.05,-120.05
98847,Peshastin,WA,47.51,-120.62
98848,Quincy,WA,47.17,-119.8
98849,Riverside,WA,48.56,-119.35
98850,Rock Island,WA,47.35,-120.05
98851,Soap Lake,WA,47.41,-119.43
98855,Tonasket,WA,48.68,-119.3
98856,Twisp,WA,48.32,-119.93
98857,Warden,WA,47.01,-119.12
98858,Waterville,WA,47.69,-119.88
98859,Wauconda,WA,48.82,-118.95
98862,Winthrop,WA,48.5,-120.33
98901,Yakima,WA,46.71,-120.42
98902,Yakima,WA,46.59,-120.53
98903,Yakima,WA,46.54,-120.76
98908,Yakima,WA,46.62,-120.69
98922,Cle Elum,WA,47.2,-120.9
98923,Cowiche,WA,46.66,-120.79
98926,Ellensburg,WA,46.97,-120.47
98929,Naches,WA,46.74,-121.14
98930,Grandview,WA,46.26,-119.9
98932,Granger,WA,46.32,-120.15
98933,Harrah,WA,46.4,-120.64
98935,Mabton,WA,46.15,-120.09
98936,Moxee,WA,46.52,-120.2
98937,Naches,WA,46.78,-120.88
98938,Outlook,WA,46.37,-120.09
98942,Selah,WA,46.76,-120.68
98944,Sunnyside,WA,46.44,-119.91
98946,Thorp,WA,47.08,-120.71
98947,Tieton,WA,46.71,-120.76
98948,Toppenish,WA,46.28,-120.25
98951,Wapato,WA,46.45,-120.51
98952,White Swan,WA,46.36,-120.78
98953,Zillah,WA,46.41,-120.23
99001,Airway Heights,WA,47.64,-117.56
99003,Chattaroy,WA,47.92,-117.28
99004,Cheney,WA,47.43,-117.62
99005,Colbert,WA,47.84,-117.35
99006,Deer Park,WA,47.99,-117.5
99008,Edwall,WA,47.51,-117.92
99009,Elk,WA,48.01,-117.22
99011,Fairchild Air Force Base,WA,47.61,-117.65
99012,Fairfield,WA,47.39,-117.18
99013,Ford,WA,47.91,-117.8
99016,Greenacres,WA,47.63,-117.14
99017,Lamont,WA,47.16,-117.84
99018,Latah,WA,47.3,-117.14
99019,Liberty Lake,WA,47.63,-117.09
99021,Mead,WA,47.83,-117.21
99022,Medical Lake,WA,47.61,-117.7
99023,Mica,WA,47.54,-117.15
99025,Newman Lake,WA,47.77,-117.09
99026,Nine Mile Falls,WA,47.8,-117.62
99027,Otis Orchards,WA,47.72,-117.17
99029,Reardan,WA,47.69,-117.86
99030,Rockford,WA,47.48,-117.14
99031,Spangle,WA,47.44,-117.35
99032,Sprague,WA,47.25,-118.04
99033,Tekoa,WA,47.24,-117.11
99034,Tumtum,WA,47.89,-117.76
99036,Valleyford,WA,47.53,-117.26
99037,Veradale,WA,47.62,-117.18
99040,Wellpinit,WA,47.89,-117.99
99101,Addy,WA,48.32,-117.91
99103,Almira,WA,47.72,-118.93
99104,Belmont,WA,47.08,-117.16
99105,Benge,WA,46.88,-118.15
99107,Boyds,WA,48.99,-118.21
99109,Chewelah,WA,48.26,-117.76
99110,Clayton,WA,48.03,-117.57
99111,Colfax,WA,46.85,-117.44
99113,Colton,WA,46.56,-117.22
99114,Colville,WA,48.67,-117.75
99115,Coulee City,WA,47.66,-119.43
99116,Coulee Dam,WA,48.03,-118.94
99117,Creston,WA,47.71,-118.51
99118,Curlew,WA,48.87,-118.63
99119,Cusick,WA,48.51,-117.37
99121,Danville,WA,48.94,-118.46
99122,Davenport,WA,47.67,-118.19
99123,Electric City,WA,47.87,-119.08
99125,Endicott,WA,46.95,-117.73
99126,Evans,WA,48.72,-117.96
99128,Farmington,WA,47.11,-117.07
99129,Fruitland,WA,48,-118.2
99130,Garfield,WA,46.99,-117.16
99131,Gifford,WA,48.29,-118.09
99133,Grand Coulee,WA,47.99,-119
99134,Harrington,WA,47.42,-118.4
99135,Hartline,WA,47.68,-119.12
99136,Hay,WA,46.65,-117.91
99137,Hunters,WA,48.17,-118.12
99138,Inchelium,WA,48.2,-118.24
99139,Ione,WA,48.69,-117.29
99140,Keller,WA,48.1,-118.71
99141,Kettle Falls,WA,48.74,-118.09
99143,Lacrosse,WA,46.73,-117.87
99144,Lamona,WA,47.35,-118.48
99147,Lincoln,WA,47.83,-118.46
99148,Loon Lake,WA,48.09,-117.58
99150,Malo,WA,48.81,-118.61
99153,Metaline Falls,WA,48.89,-117.21
99154,Mohler,WA,47.36,-118.35
99156,Newport,WA,48.15,-117.24
99157,Northport,WA,48.93,-117.77
99158,Oakesdale,WA,47.12,-117.25
99159,Odessa,WA,47.34,-118.66
99160,Orient,WA,48.78,-118.2
99161,Palouse,WA,46.88,-117.15
99163,Pullman,WA,46.72,-117.18
99165,Pullman,WA,46.73,-117.17
99166,Republic,WA,48.59,-118.7
99167,Rice,WA,48.42,-118.11
99169,Ritzville,WA,47.07,-118.47
99170,Rosalia,WA,47.25,-117.38
99171,Saint John,WA,47.1,-117.64
99173,Springdale,WA,48.02,-117.85
99176,Thornton,WA,47.09,-117.39
99179,Uniontown,WA,46.51,-117.13
99180,Usk,WA,48.3,-117.36
99181,Valley,WA,48.14,-117.76
99185,Wilbur,WA,47.72,-118.7
99201,Spokane,WA,47.66,-117.43
99202,Spokane,WA,47.65,-117.37
99203,Spokane,WA,47.62,-117.4
99204,Spokane,WA,47.64,-117.43
99205,Spokane,WA,47.69,-117.45
99206,Spokane,WA,47.63,-117.25
99207,Spokane,WA,47.69,-117.38
99208,Spokane,WA,47.78,-117.45
99212,Spokane,WA,47.65,-117.31
99216,Spokane,WA,47.69,-117.19
99217,Spokane,WA,47.74,-117.25
99218,Spokane,WA,47.75,-117.43
99223,Spokane,WA,47.59,-117.35
99224,Spokane,WA,47.63,-117.55
99301,Pasco,WA,46.41,-118.9
99320,Benton City,WA,46.24,-119.49
99321,Beverly,WA,46.87,-119.81
99322,Bickleton,WA,45.92,-120.19
99323,Burbank,WA,46.22,-118.82
99324,College Place,WA,46.04,-118.4
99326,Connell,WA,46.66,-118.9
99328,Dayton,WA,46.31,-117.9
99329,Dixie,WA,46.15,-118.18
99330,Eltopia,WA,46.5,-119.05
99336,Kennewick,WA,46.21,-119.16
99337,Kennewick,WA,46.07,-119.08
99338,Kennewick,WA,46.16,-119.25
99341,Lind,WA,46.9,-118.68
99343,Mesa,WA,46.58,-119.15
99344,Othello,WA,46.8,-119.15
99347,Pomeroy,WA,46.44,-117.54
99348,Prescott,WA,46.35,-118.47
99349,Mattawa,WA,46.72,-119.73
99350,Prosser,WA,46.12,-119.68
99352,Richland,WA,46.32,-119.32
99353,West Richland,WA,46.31,-119.37
99354,Richland,WA,46.35,-119.32
99356,Roosevelt,WA,45.85,-120.34
99357,Royal City,WA,46.9,-119.66
99360,Touchet,WA,46.12,-118.64
99361,Waitsburg,WA,46.22,-118.15
99362,Walla Walla,WA,46.11,-118.3
99371,Washtucna,WA,46.82,-118.32
99401,Anatone,WA,46.08,-117.27
99402,Asotin,WA,46.17,-117.16
99403,Clarkston,WA,46.36,-117.22
99501,Anchorage,AK,61.22,-149.85
99502,Anchorage,AK,61.16,-149.99
99503,Anchorage,AK,61.18,-149.88
99504,Anchorage,AK,61.17,-149.63
99505,Jber,AK,61.31,-149.65
99506,Jber,AK,61.27,-149.79
99507,Anchorage,AK,61.14,-149.76
99508,Anchorage,AK,61.2,-149.82
99513,Anchorage,AK,61.21,-149.88
99515,Anchorage,AK,61.11,-149.9
99516,Anchorage,AK,61.08,-149.7
99517,Anchorage,AK,61.19,-149.94
99518,Anchorage,AK,61.15,-149.88
99529,Anchorage,AK,61.18,-149.98
99530,Anchorage,AK,61.26,-149.97
99540,Indian,AK,61,-149.43
99556,Anchor Point,AK,59.82,-151.59
99567,Chugiak,AK,61.41,-149.17
99568,Clam Gulch,AK,60.21,-151.4
99572,Cooper Landing,AK,60.49,-149.82
99573,Copper Center,AK,61.68,-145.14
99577,Eagle River,AK,61.21,-149.25
99586,Gakona,AK,62.41,-143.41
99588,Glennallen,AK,62.1,-145.53
99599,Anchorage,AK,61.21,-149.86
99603,Homer,AK,59.4,-151.32
99605,Hope,AK,60.84,-149.4
99610,Kasilof,AK,60.28,-151.26
99611,Kenai,AK,60.66,-150.9
99615,Kodiak,AK,57.79,-152.4
99623,Wasilla,AK,61.61,-149.58
99631,Moose Pass,AK,60.57,-149.45
99639,Ninilchik,AK,60.07,-151.42
99645,Palmer,AK,61.6,-148.46
99654,Wasilla,AK,61.52,-149.57
99664,Seward,AK,60.05,-149.33
99669,Soldotna,AK,60.32,-150.79
99672,Sterling,AK,60.54,-150.79
99676,Talkeetna,AK,62.42,-148.76
99686,Valdez,AK,61.4,-145.66
99688,Willow,AK,61.89,-149.73
99701,Fairbanks,AK,64.81,-147.72
99702,Eielson Afb,AK,64.67,-147.04
99703,Fort Wainwright,AK,64.81,-147.62
99704,Clear,AK,64.28,-149.19
99705,North Pole,AK,64.77,-147.33
99709,Fairbanks,AK,64.9,-148.16
99712,Fairbanks,AK,64.93,-146.61
99714,Salcha,AK,64.37,-146.59
99731,Fort Greely,AK,64.04,-145.73
99737,Delta Junction,AK,63.7,-144.89
99743,Healy,AK,64.01,-148.35
99760,Nenana,AK,64.47,-148.57
99775,Fairbanks,AK,64.86,-147.82
99779,Tok,AK,63.13,-142.53
99780,Tok,AK,63.66,-143.19
99790,Fairbanks,AK,64.51,-147.66
99801,Juneau,AK,58.58,-134.77
99811,Juneau,AK,58.47,-134.15
99824,Douglas,AK,58.23,-134.38
99827,Haines,AK,59.16,-135.86
99835,Sitka,AK,56.73,-135
99901,Ketchikan,AK,55.61,-131.58
